Origin Time       2018/06/18 07:58:00
Lat.              34.8
Long.             135.6
Depth. (km)       10
Mag.              5.9
Station Code      OSKH05
Station Lat.      34.7159
Station Long.     135.5199
Station Height(m) 1
Record Time       2018/06/18 07:58:38
Sampling Freq(Hz) 100Hz
Duration Time(s)  120
Dir.              4
Scale Factor      3920(gal)/6170801
Max. Acc. (gal)   262.420
Last Correction   2018/06/18 07:58:23
Memo.             
[...]
      -3       58      -91       -2      -28     -246     -147      -30 
    -302     -458     -240     -116     -204     -208     -116      -80 
    -121     -195     -162      -48     -202     -390     -202     -205 
    -390     -102       30     -228      -63      107     -158     -172 
      28      -10      -69      -23      -24      -78     -126      -76 
     -25     -144     -105       63      -58     -224     -297     -254 
    -174     -406     -394      -71     -257     -459     -202     -107 
    -191      -76      -48     -222      -83      205       13     -229 
     -77     -144     -318      -38      -27     -250      -33     -145 
    -395      -76      -56     -200      150      198     -111      -59 
     -16     -204     -168     -126     -293     -288     -185     -319 
    -426     -208      -84     -199     -142      -62      -29      111 
      45      -88      -23      -73     -163      -98     -104     -173 
    -256     -316     -219     -190     -156        8      -93     -200 
     -91     -169     -201      -40      -56     -149     -118     -122 
    -178     -133     -148     -291     -337     -368     -378     -146 
      82       29        1       51     -142     -216      -78     -197 
    -277     -169     -165     -165     -159     -142      -63        5 
      61       12     -118     -194     -182     -174     -322     -360 
    -126      -34      -73       20      -32     -222     -175     -125 
    -227     -154       -3       22       18      -11     -213     -414 
    -320     -289     -341     -115      -74     -211      -55       -4 
    -155      -90       86      105       11      -25      -64     -159 
    -177     -158     -167     -243     -253     -118     -165     -293 
    -271     -266     -198     -184     -256     -120     -157     -320 
     -97      -31     -197      -58     -106     -313      -61       69 
    -131     -108     -104     -157      -39      -98     -156       21 
     -61     -181       12      -80     -339     -223     -169     -236 
    -109     -136     -266     -170     -114     -152      -72      -43 
     -87      -82     -158     -174      -38      -85     -199     -103 
     -54     -130     -107      -35      -62     -152     -186     -205 
    -233     -167     -159     -216     -166     -171     -231     -258 
    -267     -201     -160     -156     -130      -36       52      -39 
     -18        5     -180     -107      -45     -181     -155     -141 
    -208     -296     -264     -158     -157      -29      -82     -260 
     -67      -76     -197       21      -40     -178        2      -51 
    -236     -181     -111     -236     -325     -130      -86     -180 
     -19     -123     -282      -33      -64     -152        8     -113 
    -156      -50     -188     -246     -174     -161     -138     -178 
    -260     -190     -147     -197      -82      -69     -171      -96 
    -135     -219     -135     -107     -148     -122      -16      -48 
     -86       55      -21     -128     -111     -226     -189     -121 
    -200     -202     -212     -247     -246     -170      -50      -50 
    -101     -154     -255     -283     -181      -67      -13      -29 
    -127     -199     -187     -175     -125      -45      -81      -93 
     -91     -190     -128      -83      -59      133      -33     -284 
    -222     -259     -311     -255     -142     -123     -243     -148 
    -131     -303     -167       39       -2      -76     -125     -105 
      15       62       63      -79     -207      -57      -96     -173 
    -110     -147     -148     -250     -256     -264     -435     -208 
     -49     -261     -322     -316     -297     -175      -75      -23 
       8       -7      -25       39       34     -152     -141      -32 
    -198     -193     -135     -211      -65      -81     -187     -156 
    -186      -65      -16     -126      -71      -72     -139      -65 
    -114     -260     -267     -288     -237     -162     -223     -184 
    -180     -156      -29     -135      -95       66     -115     -168 
    -116     -244     -124      -26     -201     -178     -150     -258 
    -206     -143     -135     -166     -131      -11     -143     -194 
     -85     -199     -155      -16      -13       -1      -60      -89 
    -153     -170     -120     -238     -149      -54     -202      -88 
    -123     -422     -240      -28     -150      -94     -153     -324 
    -150      -53      -60       28     -126     -333     -220      -15 
     -17      -60      -75     -183     -178      -69      -34      -88 
    -163     -149     -216     -287     -187     -102       41       -8 
    -346     -263      -57     -205     -235     -201     -215     -197 
    -212      -70      -23     -159      -39       38     -138     -127 
     -85     -172      -43       28     -225     -283      -29      -72 
    -272      -85      -32     -274     -269     -166     -154     -118 
     -80      -88     -137     -273     -369     -186      -39     -128 
    -145      -57      -86     -204     -139      -45      -83      -74 
    -166     -247      -81       64       20      -56        2      -40 
    -185     -118      -61        6       33     -285     -370     -212 
    -333     -272       12       43     -157     -360     -304     -186 
    -205     -189     -327     -402     -147      -97     -194      -29 
     139      -31     -284     -182      -13      -45     -125     -216 
    -148       17       -6     -141     -153     -100     -216     -179 
      22     -150     -296     -123     -102     -128      -14      -23 
    -110     -158     -292     -352     -126       35     -165     -274 
     -97      -90     -173     -131     -192     -201      -17      -53 
    -237      -49       40     -280     -203       12     -132      -49 
      70     -123     -240     -201     -149     -173     -176      -82 
     -73     -119     -174     -343     -394     -153      -38     -116 
     -38      -35     -162     -152     -204     -300     -198      -88 
    -134     -241     -270     -141       21       86       45      -55 
     -27      -47     -376     -382      102      227      -55     -248 
    -298     -173      -20     -156     -322     -201     -108     -151 
    -126      -46      -42     -221     -322     -151     -118     -304 
    -276     -103     -128     -159     -120     -212     -243     -116 
      71      233      132     -112     -204     -151      -88     -148 
    -181      -76      -43      -91     -143     -169     -164     -258 
    -337     -291     -165      -26     -104     -209     -156     -183 
    -191     -180     -257     -174      -31     -115     -217     -125 
    -104     -209     -198     -124       -8      130       14     -229 
    -178       50       84      -63     -187     -122       44      -73 
    -316     -252     -167     -335     -380     -131        8     -155 
    -300     -294     -258     -212     -209     -224     -201     -190 
    -122       24      139       85     -142     -208      -75        2 
      43      -23     -235     -284      -97       -3      -67     -100 
    -189     -349     -342     -227     -176     -115      -45      -93 
    -166     -147     -153     -207     -162      -23       12     -149 
    -308     -183       61      -18     -222     -109        5     -200 
    -322     -118       51      -49     -165     -163     -207     -204 
    -114     -115      -86      -77     -232     -271     -203     -183 
    -107      -44      -65     -175     -299     -241     -142     -209 
    -209      -44       17      -74     -224     -267      -49       68 
    -116     -289     -249      -38       18      -37      127      156 
     -78     -118      -64     -120      -89     -130     -288     -164 
     -43     -350     -540     -221        2     -223     -378     -298 
    -316     -318     -209     -148      -96     -107     -212     -200 
       9      153       38      -67      -71     -122      -24      139 
      16     -205     -261     -256     -211      -59       51      -22 
    -187     -298     -297     -237     -167     -125     -216     -329 
    -249      -98      -19       54       55     -137     -315     -230 
    -114     -142      -91      -56     -159     -138      -32      -45 
    -128     -212     -195      -47       17      -51     -102     -208 
    -347     -248      -39      -51     -172     -243     -260     -171 
     -45       23      -37     -221     -323     -344     -360     -193 
      49      -15     -258     -202       60       66     -149     -274 
    -209      -56       17        6        1       12      -25     -198 
    -348     -220       82      200      -30     -353     -467     -316 
     -62      -29     -241     -369     -254      -97      -64      -76 
    -158     -292     -293     -140       88      188      -19     -280 
    -294     -136      -37      -95     -150     -135     -153      -91 
       2      -84     -212     -329     -347      -11      245       48 
    -193     -313     -334     -171      -57      -61      -86     -212 
    -255     -120      -73     -154     -284     -382     -227      -14 
    -114     -248     -136       41        1     -285     -377     -111 
     118       62     -127     -192     -226     -252      -93       58 
      71        1     -146     -169      -23      -24     -228     -340 
    -264      -50       77     -138     -360     -263      -57       50 
      33      -73     -227     -282     -184     -126     -140     -201 
    -307     -245      -80     -134     -216     -113      -74     -104 
    -128     -170     -152     -160     -172     -152     -182     -120 
     -44      -70      -57      -82     -132      -84      -80     -134 
    -124     -123     -182     -207     -203     -154      -72     -119 
    -233     -295     -280     -125      -36      -91     -126     -145 
     -98      -52     -125     -123      -78     -156     -126        4 
     -62     -144     -121     -167     -190     -111      -65     -165 
    -309     -312     -229      -97       52       43     -141     -144 
     268      123     -953    -1109     -292     -233     -155      217 
    -627    -1167      591     1978      341    -2265    -2405      273 
    1677     -706    -3298    -2693      822     3919     2534    -1174 
   -3403    -3675     1187     3222    -6860    -8998     1760     1483 
   -6543   -10814   -10035     2846    18607    22130    14663     5024 
    -991   -10948   -20838    -9894     7185    -3723   -26205   -17398 
    9599    15259     6157     3078    11678    16385    -4212   -20405 
   -9698    -6985   -16441    -8548    11505    27272    41587    44687 
   16986   -23262   -32622    -5486    12446    -9494   -36062   -23309 
    1666     1268    10080    27368      166   -29674    -7359    21113 
   14878    -1694    -6736   -11115    -2723    16385    -5052   -36829 
  -11881    22203    11442    -7063   -10284   -16888   -11622     9762 
    4159   -10515    12550    25320    -6888   -38663   -61902   -77450 
  -59308   -28524    -3147    26292    40728    29590    -2392   -50283 
  -90526  -114148  -117951   -79571     4322    99814   150235   128282 
   62703    -7127   -53257   -68025   -52827    -2489    60523   118076 
  167210   169206   127848    86937    17220   -84239  -127108   -96664 
  -65296   -33735    27249    89809   125578   123387    82665    10437 
  -77869  -126269  -109887   -68346   -20463    21829    33046    16005 
   -8348   -20874    -7670    12457    -1592   -30324   -31582   -33041 
  -50995   -48476    -3860    60831    93395    68128    11380   -38390 
  -81004  -121299  -115238   -53843    11000    50144    71075    84112 
   71255    36015    17508     3213   -30257   -67904   -89898   -59216 
   21689    86922   106002    89736    57736    40436    42721    41802 
   19927   -22502   -60985   -67896   -48769   -28484    -5868    25505 
   47793    55686    52431    29485     1181   -14211   -27632   -41738 
  -41776   -12921    32191    41363    11466   -12105   -31793   -47443 
  -32070    -9437   -20739   -53015   -59390   -28462     7333    26606 
   23008     -298   -23056   -39236   -50955   -36255    12221    50643 
   51588    51837    61403    34110   -10191   -11889     -880   -11019 
  -19711   -33108   -44706   -22618    21228    62106    73249    40624 
    1602   -15026   -21898   -31550   -29921    -2398    20945    16239 
    6536    -2848   -21843   -32442   -29515   -30493   -27822    -7459 
   14460    22203    19237     2788   -25249   -50388   -74140   -87169 
  -70358   -40207     -542    53408    83456    67834    25113   -14317 
  -30818   -36750   -40536   -34546    -6118    41306    56098    27516 
   -1696   -41876   -79219   -54191      892    16642     3332    14996 
   59940    84678    68841    48170    39041    21677   -16597   -32820 
    4118    34009    21444    20870    58764    94165   102010    98604 
   85116    51432    16831   -10213   -42975   -66200   -63542   -55189 
  -56573   -56536   -51265   -48328   -38051   -12896    10590    17551 
    3532   -27681   -58927   -70956   -57207   -32594   -23124   -35775 
  -52482   -62043   -66641   -60224   -46255   -45265   -55809   -51272 
  -24589   -11634   -44032   -95808  -132957  -150939  -111951    17637 
  166425   236560   234829   227692   220826   185605   127182    40370 
  -72801  -157965  -175921  -162616  -186140  -231575  -232174  -215901 
 -229409  -219696  -127726    31502   183165   260037   303086   373389 
  413027   388764   359854   306378   169330   -12182  -132930  -126743 
  -56020   -10059     3981   -14847   -48478   -58443   -73693   -96805 
  -56176    26800    57474    55023    90554   132546   127103    74710 
  -40472  -184880  -237346  -202603  -200779  -221343  -194311  -139767 
  -87258   -52354   -34023    -5105    13443    13648    44984   101066 
  134195   144101   154017   164201   162786   158501   166140   155453 
   63117   -91779  -181916  -176179  -165533  -126317   -22695    22991 
   -5077    13959    41320     6175    -3169    47783    99009   142108 
  156221   131342   123849   139521   153235   169055   174316   145189 
   57175   -68686  -136089  -115112   -71735   -23882    -1832   -65227 
 -130482  -121744  -111241  -117545  -106979   -86468   -50748    -9642 
   12118    10874   -15178   -51083   -79823  -104315  -121094  -129902 
 -135072  -128419  -101234   -62014   -44790   -46387   -12801    47330 
   96770   153832   207675   217858   188159   139141    82880    19746 
  -44451   -87545  -110646  -116210   -91282   -58642   -42753   -29234 
  -12128     1212    22851    54725    66588    51082    27154     1197 
   -3665    22065    27434      745    -4423    10956    11355     9903 
   15907    12371      319   -18306   -46327   -64565   -64961   -61727 
  -40664     4136    23637     1513   -18750   -20822   -15051    -5201 
   -3784   -10994    -8202     1797      301    -9815    -5872    11830 
   17051    15978    31813    43184    26944     3174    -4672     2872 
   10901    13029    15488    15412     7588    -2030    -3234     7762 
   17341    17274    19288    22623    16673     8617    12378    18368 
     -52   -31907   -45263   -54701   -74799   -77238   -51155   -16425 
    6064     3531   -11469   -22157   -36802   -53444   -53542   -39991 
  -25617   -11628     3439    15264    15601    10227    13217    17238 
    9852    -3657   -14886   -22565   -30275   -37118   -38555   -33528 
  -17133     3071     5062    -5499    -9532   -13163   -25597   -35720 
  -21459    17802    49055    54225    50996    51980    46348    25080 
   -4356   -34547   -55696   -52604   -24271    20309    62701    89460 
  113830   135234   137798   130422   122230   101763    61485    23133 
   12337     6957   -16144   -29144   -22421   -22201   -30133   -35888 
  -43687   -56483   -70278   -80810   -88558   -95250   -94566   -72478 
  -33835   -19249   -42186   -58499   -56780   -59625   -54869   -45607 
  -50263   -49594   -42424   -49703   -50778   -22700     7051    17313 
   28990    45281    47086    39435    31387    18365     4969    -2679 
   -9389   -13926   -11611    -7767    -4882    -1360    -6467   -25611 
  -43808   -49724   -46156   -30356    -7276     5699    10497    14884 
   12031     4890     6133    16770    23558    19618    27511    61477 
   92843   103689   114018   133157   145281   138949   118529   101235 
  100343    99300    71663    24248   -14070   -32978   -45990   -63358 
  -78930   -86706   -87068   -77063   -55752   -29650    -8014     -821 
  -10543   -23692   -26608   -22448   -17535   -11316    -5625    -5525 
  -10458    -8646     6435    21804    26716    22917    12028    -3372 
  -15525   -12175     9487    28074    25050    12191     5517     1860 
     911    13718    34167    42108    35275    22241     3460   -19086 
  -32358   -26961   -16141   -14312   -11373     1769    20872    45439 
   69345    82695    90705    96514    91782    75398    49168    15913 
  -11307   -25052   -29131   -26880   -26039   -34933   -46232   -48001 
  -43625   -42085   -40777   -35530   -35749   -43840   -44434   -39310 
  -42475   -44383   -32163   -10009    15612    39270    55701    62582 
   58362    43165    24259    12359     9182     9153     8178     7089 
   12021    24432    37106    43398    43153    40395    33066    15996 
   -2869   -11892   -18454   -33272   -41930   -30481   -16495   -19869 
  -31828   -33631   -27290   -22554   -15638    -8540    -7922    -9728 
  -12282   -10638     4894    23736    25194     7644   -14805   -27345 
  -22799   -10785    -8758   -18755   -30737   -41938   -51115   -49339 
  -37289   -28022   -23223   -15287    -8699   -11848   -20760   -29013 
  -31233   -18573     7421    33996    53837    65016    63832    50005 
   31820    19519    17797    22903    23886    13663     1791     3725 
   12909    11536     4550     2781    -1339    -7780    -1849    14654 
   26073    25088     9992   -17416   -44729   -55296   -43755   -19813 
   -2914    -9216   -28370   -36801   -31819   -21666   -15844   -25423 
  -39913   -40880   -32901   -23006   -10449    -5405   -13327   -20358 
  -18070   -16885   -24292   -31411   -32116   -30211   -25393   -14790 
    -662     9931    12902    12310    11964    12807    16279    21890 
   25311    21403    13685    10783    10707     5468    -3038    -4468 
    5549    19785    27896    25102    10834   -11856   -28369   -26793 
  -20354   -20300   -11413    11127    24074    18604    15697    23417 
   23992    12977     3957     -364    -6392   -16530   -30109   -44870 
  -56527   -58917   -50645   -40085   -33593   -27746   -17644    -1434 
   16113    21069     8052    -7642   -13788   -16161   -18250   -16412 
  -10929     -568    15102    28695    32790    26230    17054    15199 
   17739    18686    22561    29001    27335    17093     8766     3824 
   -3859    -9669    -4911     2401     -503    -7988    -9437    -9733 
  -13423   -11977    -3580     3541     7242     9369     9565     8210 
    9017    12724    10584    -1656   -16135   -28125   -33613   -23178 
     310    21349    28114    17636     -211   -13208   -21483   -28157 
  -32561   -33885   -31348   -27659   -25151   -19634   -11201    -4524 
    3505    14013    19455    17412    14721    20413    33721    41015 
   35836    27589    24710    25881    29523    36950    43739    44073 
