Origin Time       2018/06/18 07:58:00
Lat.              34.8
Long.             135.6
Depth. (km)       10
Mag.              5.9
Station Code      SIG010
Station Lat.      34.9718
Station Long.     135.8965
Station Height(m) 110
Record Time       2018/06/18 07:58:39
Sampling Freq(Hz) 100Hz
Duration Time(s)  111
Dir.              N-S
Scale Factor      7845(gal)/8223790
Max. Acc. (gal)   86.452
Last Correction   2018/06/18 07:58:39
Memo.             
[...]
   -3248    -3100    -3090    -3163    -3140    -3219    -3257    -3114 
   -3206    -3310    -3079    -3053    -3180    -3119    -3177    -3234 
   -3150    -3180    -3231    -3180    -3125    -3109    -3132    -3200 
   -3221    -3159    -3167    -3176    -3126    -3149    -3183    -3175 
   -3204    -3200    -3141    -3142    -3161    -3144    -3133    -3133 
   -3175    -3238    -3256    -3231    -3188    -3187    -3125    -2925 
   -2956    -3232    -3269    -3269    -3396    -3240    -3080    -3134 
   -2999    -2971    -3157    -3200    -3331    -3388    -3165    -3073 
   -3057    -3026    -3121    -3229    -3311    -3312    -3168    -3078 
   -3092    -3083    -3114    -3204    -3276    -3292    -3198    -3115 
   -3119    -3096    -3102    -3177    -3229    -3230    -3180    -3133 
   -3129    -3132    -3150    -3213    -3241    -3192    -3171    -3156 
   -3111    -3129    -3183    -3190    -3167    -3180    -3206    -3152 
   -3113    -3161    -3154    -3130    -3207    -3240    -3179    -3157 
   -3153    -3132    -3141    -3180    -3196    -3169    -3154    -3172 
   -3173    -3152    -3169    -3200    -3169    -3138    -3154    -3169 
   -3186    -3198    -3161    -3130    -3168    -3173    -3132    -3164 
   -3211    -3180    -3157    -3161    -3114    -3106    -3249    -3295 
   -3156    -3136    -3180    -3099    -3088    -3173    -3184    -3200 
   -3211    -3149    -3134    -3142    -3136    -3183    -3200    -3180 
   -3206    -3175    -3122    -3145    -3133    -3123    -3187    -3211 
   -3203    -3192    -3165    -3153    -3171    -3187    -3157    -3122 
   -3119    -3148    -3204    -3238    -3196    -3152    -3165    -3148 
   -3109    -3164    -3237    -3223    -3191    -3123    -3010    -3086 
   -3299    -3317    -3186    -3106    -3119    -3145    -3100    -3118 
   -3265    -3295    -3153    -3090    -3126    -3145    -3199    -3232 
   -3153    -3123    -3188    -3184    -3156    -3171    -3150    -3141 
   -3172    -3163    -3153    -3183    -3179    -3153    -3156    -3171 
   -3172    -3159    -3165    -3196    -3187    -3159    -3150    -3154 
   -3173    -3180    -3142    -3133    -3180    -3188    -3172    -3200 
   -3172    -3107    -3133    -3159    -3164    -3213    -3215    -3184 
   -3159    -3123    -3159    -3192    -3188    -3200    -3149    -3109 
   -3153    -3188    -3190    -3186    -3164    -3137    -3153    -3184 
   -3167    -3156    -3177    -3179    -3191    -3194    -3165    -3142 
   -3115    -3145    -3225    -3202    -3140    -3164    -3187    -3163 
   -3153    -3138    -3146    -3208    -3198    -3134    -3144    -3161 
   -3168    -3203    -3208    -3175    -3130    -3115    -3149    -3163 
   -3167    -3194    -3186    -3173    -3180    -3154    -3153    -3190 
   -3186    -3165    -3173    -3179    -3157    -3161    -3175    -3141 
   -3141    -3186    -3176    -3153    -3175    -3171    -3141    -3160 
   -3187    -3172    -3180    -3202    -3160    -3121    -3105    -3099 
   -3177    -3237    -3206    -3175    -3175    -3175    -3134    -3122 
   -3169    -3184    -3191    -3213    -3180    -3132    -3122    -3146 
   -3183    -3198    -3183    -3180    -3169    -3133    -3134    -3164 
   -3192    -3211    -3190    -3146    -3138    -3141    -3126    -3177 
   -3242    -3207    -3160    -3145    -3129    -3145    -3179    -3184 
   -3186    -3180    -3148    -3152    -3171    -3141    -3153    -3192 
   -3196    -3222    -3203    -3106    -3096    -3176    -3202    -3180 
   -3183    -3188    -3150    -3106    -3133    -3186    -3198    -3202 
   -3194    -3156    -3121    -3125    -3164    -3190    -3187    -3186 
   -3179    -3148    -3125    -3153    -3167    -3154    -3194    -3211 
   -3163    -3163    -3176    -3136    -3161    -3200    -3154    -3150 
   -3176    -3154    -3142    -3140    -3167    -3198    -3163    -3148 
   -3186    -3175    -3153    -3180    -3180    -3141    -3134    -3172 
   -3198    -3179    -3171    -3164    -3153    -3191    -3203    -3160 
   -3144    -3161    -3196    -3188    -3136    -3152    -3186    -3148 
   -3141    -3187    -3186    -3186    -3180    -3132    -3152    -3186 
   -3164    -3179    -3188    -3159    -3148    -3154    -3186    -3194 
   -3159    -3179    -3194    -3118    -3096    -3149    -3196    -3242 
   -3217    -3164    -3176    -3141    -3107    -3150    -3150    -3141 
   -3187    -3217    -3218    -3200    -3165    -3127    -3122    -3154 
   -3175    -3206    -3222    -3148    -3114    -3184    -3180    -3136 
   -3187    -3199    -3137    -3137    -3183    -3207    -3168    -3107 
   -3118    -3180    -3227    -3208    -3168    -3163    -3142    -3123 
   -3157    -3198    -3188    -3156    -3167    -3188    -3173    -3132 
   -3117    -3187    -3231    -3149    -3123    -3191    -3164    -3122 
   -3177    -3213    -3202    -3150    -3111    -3142    -3127    -3150 
   -3253    -3203    -3138    -3186    -3163    -3132    -3172    -3173 
   -3142    -3172    -3215    -3171    -3130    -3161    -3160    -3163 
   -3194    -3150    -3126    -3176    -3180    -3164    -3171    -3156 
   -3165    -3208    -3194    -3150    -3144    -3165    -3196    -3186 
   -3149    -3137    -3173    -3213    -3168    -3129    -3173    -3187 
   -3148    -3105    -3140    -3234    -3208    -3132    -3145    -3157 
   -3169    -3206    -3192    -3157    -3168    -3213    -3148    -3068 
   -3183    -3226    -3156    -3202    -3203    -3134    -3138    -3168 
   -3159    -3119    -3153    -3249    -3206    -3115    -3161    -3165 
   -3114    -3192    -3217    -3129    -3146    -3194    -3194    -3171 
   -3133    -3159    -3175    -3137    -3173    -3192    -3175    -3229 
   -3165    -3053    -3171    -3230    -3103    -3127    -3242    -3222 
   -3180    -3173    -3080    -3057    -3190    -3238    -3188    -3191 
   -3213    -3165    -3099    -3123    -3159    -3183    -3260    -3273 
   -3159    -3065    -3083    -3134    -3172    -3237    -3264    -3183 
   -3118    -3099    -3065    -3111    -3245    -3275    -3159    -3100 
   -3150    -3167    -3179    -3187    -3179    -3229    -3198    -3084 
   -3098    -3188    -3213    -3186    -3184    -3191    -3150    -3129 
   -3156    -3190    -3172    -3141    -3180    -3180    -3127    -3157 
   -3183    -3194    -3203    -3136    -3140    -3223    -3167    -3096 
   -3175    -3183    -3127    -3215    -3242    -3118    -3095    -3188 
   -3219    -3140    -3119    -3226    -3186    -3079    -3141    -3194 
   -3204    -3207    -3136    -3102    -3156    -3207    -3204    -3183 
   -3180    -3171    -3163    -3163    -3133    -3154    -3211    -3190 
   -3161    -3152    -3148    -3190    -3167    -3169    -3227    -3109 
   -3087    -3253    -3154    -3071    -3252    -3232    -3122    -3141 
   -3138    -3183    -3210    -3168    -3161    -3136    -3154    -3188 
   -3142    -3146    -3180    -3159    -3150    -3208    -3213    -3152 
   -3154    -3138    -3117    -3200    -3223    -3149    -3154    -3176 
   -3113    -3134    -3244    -3225    -3152    -3157    -3136    -3099 
   -3177    -3248    -3171    -3130    -3188    -3164    -3132    -3206 
   -3187    -3080    -3172    -3264    -3099    -3105    -3291    -3194 
   -3098    -3211    -3167    -3090    -3206    -3231    -3123    -3160 
   -3256    -3179    -3084    -3126    -3172    -3168    -3167    -3180 
   -3177    -3148    -3142    -3175    -3180    -3159    -3179    -3199 
   -3164    -3123    -3140    -3194    -3215    -3165    -3118    -3165 
   -3242    -3198    -3126    -3129    -3144    -3199    -3207    -3105 
   -3122    -3230    -3222    -3137    -3092    -3141    -3206    -3218 
   -3203    -3148    -3122    -3171    -3183    -3115    -3103    -3206 
   -3257    -3229    -3190    -3119    -3102    -3157    -3187    -3136 
   -3129    -3238    -3238    -3133    -3144    -3142    -3090    -3230 
   -3288    -3061    -3106    -3303    -3154    -3094    -3218    -3148 
   -3115    -3245    -3213    -3094    -3136    -3172    -3146    -3183 
   -3183    -3150    -3176    -3198    -3146    -3109    -3141    -3161 
   -3206    -3241    -3157    -3114    -3175    -3168    -3130    -3206 
   -3256    -3202    -3136    -3105    -3146    -3127    -3083    -3171 
   -3213    -3183    -3208    -3221    -3168    -3122    -3137    -3153 
   -3140    -3187    -3264    -3219    -3144    -3150    -3092    -3060 
   -3219    -3283    -3168    -3177    -3206    -3090    -3092    -3167 
   -3129    -3194    -3304    -3203    -3105    -3149    -3121    -3113 
   -3227    -3210    -3156    -3187    -3132    -3138    -3192    -3136 
   -3168    -3219    -3153    -3145    -3179    -3144    -3153    -3196 
   -3157    -3156    -3206    -3164    -3109    -3129    -3183    -3223 
   -3200    -3184    -3180    -3141    -3161    -3217    -3218    -3196 
   -3200    -3241    -3291    -3323    -3325    -3275    -3175    -3052 
   -2964    -3040    -3230    -3310    -3373    -3388    -3125    -3127 
   -3466    -3291    -2986    -3208    -3385    -3395    -3492    -3241 
   -2744    -2731    -3125    -3538    -3897    -3971    -3495    -3330 
   -3894    -3381    -2160    -3065    -4888    -3950    -1956    -2359 
   -3400    -4480    -5251    -2295      102    -3580    -6118    -2779 
   -1404    -3179    -3284    -3836    -4209    -3612    -5277    -6226 
   -3622    -1155    -2660    -6232    -4594      -10    -3366    -6910 
    -758     -893    -9617    -7848    -1109    -2829    -5734    -4012 
   -2926    -5590    -5304      820     -162    -7330    -5967    -3119 
   -6454    -7746    -4071      437    -1155    -8102   -11352    -6999 
    2685     6151     1089     -383    -2255    -7254    -5362    -1557 
    -338     2208     1413      468     2074    -1621    -4819    -7709 
  -11537    -2224     5552    -3711    -7469      899      373    -8816 
   -6870      180    -3187    -3073     4217     1075    -6802    -8245 
   -7476    -7519    -7784    -5486    -2839    -2444     -317     2196 
    -888    -8741   -12379    -7896     -434     2918     2438     -936 
  -10270   -11102    -4357    -5233     1871    13135     8510     -838 
   -3480     -837    -1671    -9035    -5502     7253     3607   -11659 
  -14980    -5350     1327      730     5186     4487    -8648   -10747 
   -5879    -4704     3994    12322     9394     -446    -9688   -11275 
   -8600    -6755     -517     8337     7075    -5655   -17231   -15649 
   -5022    -2324    -4999    -3946    -7496   -10027    -5900   -10743 
  -14673     -519     7680    -3302    -8394    -2974    -4396    -6110 
    1528     6554      141    -9170    -4014     5096    -4959   -10601 
    -612    -2940    -9178    -2049     3245    -3037    -7685     -436 
    3105    -6786    -8565     6222    10347    -2646    -3989     3497 
   -3883   -15627   -16132   -11060    -8447   -10045   -13467   -10957 
    -243     3666    -1007    -2656    -7202    -8533     3951     8791 
   -1726    -4020     4876     7449     2231     -313     4507     9244 
    3138    -6893    -6000     1009     2326     -643    -5044    -6181 
   -3446    -7422   -10260    -2882      915     -116    -1039    -6153 
   -7592    -5235    -8954    -8965     -233     5768     2147    -6509 
   -9107    -7831    -7480    -5185    -4256    -6711   -13986   -17884 
   -7911    -1965    -4645     2053     6320    -1306    -5067    -2157 
    2952     2794    -8002   -11674    -6038    -8500    -7132     2822 
    -803    -8499    -1948     1842    -5547    -8434    -2091      212 
   -4918     1382    13293     5514    -5833      476     8170     2965 
   -5749    -4968      801     -877    -4668    -2242    -3024   -10625 
  -11754    -2984    -2814   -17435   -20385    -6486    -2015    -7227 
   -9023    -6648      -55     3875      622    -2697    -4189    -4561 
    -588     3298     1776     -310    -1385    -3909    -3832    -4310 
  -12182   -14696    -7335    -7458   -11547    -5445     1085     -850 
    1158     7862     4183    -1255     1177     1404     -872    -5876 
   -8896     -445     1962    -7974   -12098    -7635      475     3523 
     -55     5036    11547     1880    -9589    -4884     7666    12658 
    4649    -8167   -10989    -6528    -5648    -4455     -344     4016 
    2001    -6413    -2037     2936   -10284   -12696    -3057    -2458 
    -631    -2851   -15754   -19712    -9217        5    -1115    -3446 
   -1767    -2070     -313     6739     8733     4804     2652    -2084 
   -6413    -2701    -1152    -1734    -1956    -7044    -3001     6035 
    3234     2544     9744    15282    18696    16090     7835     6848 
   14714    17671    11923     5375     2825     4333     5119      -13 
   -6070    -8891   -15142   -21003   -20248   -25108   -36911   -35220 
  -15601      -43     4172    13331    26430    30449    29417    31280 
   30520    18886     3052    -5073    -4190     3221    10060     7252 
    2118     2064    -3362   -17691   -34910   -48724   -43961   -23862 
  -15525   -19585   -14955    -6845    -5428     6966    27608    32432 
   30720    33473    32925    27022    12297    -1564     2234    11070 
    9698     1155   -15446   -33702   -39117   -34217   -29088   -28140 
  -27670   -19224    -6278     4800    20050    35623    35976    29701 
   31465    29246    16762     5448    -3040   -19847   -43313   -46936 
  -30855   -32026   -49422   -57528   -61080   -63000   -57642   -55848 
  -64473   -75254   -80935   -83656   -82381   -71668   -59062   -42222 
  -13020     -340   -13513   -16058    -8901    -7911     2008    19743 
   40236    68486    87459    82981    58151    15965   -25612   -39957 
  -37218   -43802   -39776   -11407      479    -9698   -10003    -7967 
  -15597   -30597   -49871   -50124   -33486   -30046   -26411    -9547 
   -5163    -8800     2160    20036    32806    38037    36580    31722 
   29517    36296    44050    42472    35583    27634    20511    18238 
   19514    16802     7595     4263    14872    25820    29411    28818 
   15568   -10665   -34302   -44776   -38095   -25216   -24497   -29627 
  -23943   -11904    -6377    -8006    -6104     6258    16362    13933 
   15519    26273    30358    33447    42523    45129    41103    37548 
   38483    47713    52587    47899    46660    43396    36244    36069 
   30052    11904    -1258    -5895   -13717   -28166   -36551   -35850 
  -38569   -38151   -23998   -10665    -9451   -12040   -15560   -23664 
  -27363   -22111   -17238   -13532    -6399     5564    17990    20667 
   17906    18075    15504     9144     2967    -1100    -2123    -8683 
  -23687   -36556   -46552   -56797   -61357   -62194   -67047   -73251 
  -76773   -78591   -75138   -64566   -56569   -55518   -51443   -40581 
  -28485   -13004     7182    21911    30520    43419    55954    58450 
   55995    54677    53959    50950    42591    32749    24640    11473 
   -8031   -22347   -26878   -29415   -30630   -28220   -26744   -21838 
  -12032   -10602   -13131    -5166     4063     6454     7261     7607 
   12005    18711    21336    25118    26738    25764    31047    29729 
   18424    16375    18538    11780     2934    -4214   -11433   -18713 
  -26973   -29521   -25328   -26434   -29948   -26916   -24455   -22833 
  -14752    -5115     1102     2631    -1132    -3628    -3867    -6012 
   -4800     1009     4889     5454     3487     2965     5521     3433 
    1440     7180     8893     8880    15611    13510     8970    20190 
   27569    21933    16731     7847    -1857    -2427    -1583    -4618 
   -9404   -12286   -10022    -8286    -7862    -4531    -2690    -3003 
   -3600    -7257   -11911   -13895   -12528   -10349   -10952   -12359 
  -15280   -22484   -26936   -26044   -30194   -38585   -37736   -32495 
  -36057   -38551   -30794   -23259   -16808    -4965     4807     7506 
    7047     5301     6274     9099     5864      899     1102        2 
   -2548     1215     6639     7916     8376     6165     -477    -5184 
   -7827   -10629    -9428    -9100   -17087   -25018   -24495   -18631 
  -13864   -13185    -9787    -4233    -8028   -11534    -3393     2795 
    2350     3792     7592    13255    19627    21944    19600    15758 
    7908    -6550   -16152   -14588   -12908   -16193   -21007   -22536 
  -18308   -15788   -15873   -10788    -4428     -367     6305    11161 
    9281     8945    11614     9657     8457    14335    19773    21689 
   23341    24891    28104    30923    29101    25374    19728    11888 
    7545     5217      924    -4087   -10129   -13358   -11685   -12228 
  -13171   -10480   -11028   -12665    -9688    -9166   -11060    -9386 
  -10054   -13347   -12096   -11585   -14980   -14605   -10584    -8078 
   -5918    -1961     2651     5590     5643     3412     -774    -5448 
   -6760    -5533    -6115    -7465    -6172    -2910    -1228    -1188 
     454     2168     1534      812      542    -1017    -3148    -2924 
     500     2276     -475    -1605     2516     6369     6700     6463 
    6227     2911     -741      853     3951     4088     3411     2461 
    2887     4364    -1078   -12010   -15857   -11387    -8733   -10156 
  -10126    -7565    -3237     2999     5652      629    -4800    -4025 
   -1090     -224     -375     -336     -309    -2174    -6201    -9201 
  -11171   -13531   -12834    -8487    -6862    -9786   -12110   -13039 
  -15282   -18199   -22076   -26464   -26985   -24259   -23977   -25903 
  -23306   -15485   -10153    -9427    -7836    -3102      973     1363 
     561      569     1165     3828     7304     8388     9524    11886 
   10520     7778     9111     9745     8307     7522     3369    -1146 
     198     4215     7649     7431     3650     2327     2598      194 
   -4484    -9742   -11813    -7950    -3497    -3505    -4969    -5551 
   -3839       20       67    -2871    -4101    -5922    -7234    -6504 
   -8272   -10939   -11118   -11813   -11684    -9385    -9767   -11061 
   -9436    -9208   -11005    -9971    -7527    -6268    -3790     -591 
     767     1637     4302     8198     9489     7573     6320     5248 
    2856      625    -1858    -5470    -9894   -12367   -10007    -6087 
   -4491    -5859    -8673    -9061    -8621   -10160    -9556    -7659 
   -8904    -9811    -7553    -4074    -1394    -2037    -3693    -2500 
    -951      963     3361     1809      660     4950     8068     6701 
    5783     7338     8228     6875     5825     4973     1374    -3696 
   -7254   -10579   -15886   -20088   -19855   -18453   -18476   -18150 
  -17653   -17323   -14855   -10462    -6870    -4700    -4480    -7555 
  -10659    -8938    -4494    -1939     -685     1142     2960     4440 
    4858     2336    -2338    -6894   -10947   -13047   -10980    -6961 
   -4606    -2986     -387      307    -3032    -4893    -2218    -2144 
   -6494    -7997    -5559    -3663    -3098    -2520    -1225     2394 
    7696    11919    15716    18238    18142    19824    23195    23812 
   23329    23918    25000    24686    19392    10970     4588      973 
    -425    -2022    -4895    -4131    -1402    -3041    -5420    -4621 
   -4398    -6401    -9009   -12079   -15387   -16886   -15618   -13285 
  -10524    -8229    -9429   -11877   -11974   -12568   -12816    -9915 
   -8171    -8586    -9076   -11493   -14694   -16306   -17247   -18539 
  -20926   -23276   -23206   -21169   -19282   -18011   -16372   -15546 
  -17135   -16969   -12783    -9652    -7179    -3026    -1949    -2983 
