Uncorrected accelerogram 20161113_110256_PIPS_20 GNS Science
Site PIPS      41 16 03S  174 47 10E     Cusp file:  20161113_110336_PIPS
Aotea Quay Pipitea
Instrument Cusp_10450
Resolution: 18-bit   Instr Period: 0.0050 s   Damping: 0.700
Accelerogram 20161113_110256_PIPS_20                 Processed 2016 December 09
5 km south-west of Waiau
2016 November 13         11:02:56 UT
Epicentre  42 41 33S 173 01 19E  Bearing S42W  Dist  216km  Depth   15km Mw 7.82
Number of points  64063    Duration 320.31 s
Raw readings in units of 1.00 mm/s/s  at intervals of 0.005 s
Data is unfiltered
Component S13E
Acceleration:  Peak   2077.9 mm/s/s at 103.48 s     RMS   179.08 mm/s/s
Velocity record unevaluated
Displacement record unevaluated
    2016      11      13      11       2     560       0       0    2016      11
      42      41      33     173       1      19      15       0      13      11
      41      16       3     174      47      10     167     167     222     216
   64063       0       0   64063       0       0       0       0       2   56574
   200.0    0.70    0.00   0.000  0.0000   0.000   0.000   1.000     0.0    0.00
  41.267 174.786  42.693 173.022    7.82    0.00    0.00    0.00      0.      0.
  320.31    0.00    0.00  320.31  0.0050  0.0050      0.      0.      0.  9806.6
  2077.9  103.48   179.1      0.      0.     0.0    0.00     0.0     0.0   0.000
    0.00    0.00    0.00    0.00   0.000    0.00    0.00    0.00    0.00   0.000
   0.000   0.000   0.000      0.      0.   0.000   0.000   0.000      0.      0.
    -2.4    -1.8    -2.0    -2.1    -2.3    -2.7    -1.8    -1.8    -2.3    -2.1
    -2.1    -2.1    -2.0    -2.8    -2.5    -1.9    -2.8    -1.8    -1.9    -2.4
    -1.7    -2.5    -2.3    -2.0    -1.8    -1.8    -2.8    -2.6    -1.8    -1.3
    -1.5    -2.2    -2.0    -1.5    -1.9    -2.4    -1.8    -1.8    -1.7    -2.0
    -2.2    -1.9    -2.0    -1.8    -1.9    -1.8    -2.6    -2.7    -2.3    -2.8
    -2.4    -2.7    -2.3    -2.7    -2.5    -1.8    -2.3    -1.9    -2.3    -1.9
    -2.0    -1.6    -1.1    -2.6    -1.8    -1.7    -2.1    -1.4    -1.8    -2.0
    -2.4    -2.0    -1.8    -2.2    -1.6    -2.6    -3.1    -2.4    -2.2    -2.4
    -2.7    -2.5    -3.0    -1.6    -1.1    -2.5    -2.5    -2.0    -1.9    -2.0
    -1.7    -2.0    -1.7    -1.4    -1.9    -2.0    -2.2    -1.2    -1.7    -2.5
    -2.2    -2.9    -2.2    -2.1    -2.6    -2.1    -2.9    -2.6    -2.0    -2.4
    -2.5    -2.4    -2.0    -2.1    -2.3    -3.0    -3.0    -2.9    -3.0    -2.2
    -1.6    -1.8    -2.0    -1.8    -2.4    -2.6    -2.4    -2.5    -2.4    -2.7
    -1.9    -1.8    -2.2    -1.7    -2.8    -2.4    -1.9    -2.5    -2.5    -2.5
    -2.3    -2.4    -2.2    -2.3    -2.4    -2.0    -2.3    -1.9    -1.9    -3.2
    -2.6    -1.5    -2.0    -1.3    -1.8    -3.0    -2.6    -2.8    -2.5    -2.4
    -2.6    -1.9    -1.5    -2.2    -2.3    -1.8    -2.0    -2.0    -1.9    -2.0
    -2.1    -2.3    -2.7    -2.4    -2.2    -2.8    -2.0    -1.4    -1.9    -1.9
    -1.7    -1.4    -2.1    -2.9    -1.7    -1.7    -2.4    -1.3    -2.1    -2.5
    -1.0    -1.9    -2.0    -1.7    -2.3    -1.8    -2.0    -2.2    -2.7    -3.4
    -3.1    -2.4    -2.2    -2.3    -2.2    -2.9    -2.7    -2.3    -1.5    -1.1
    -1.8    -1.4    -2.1    -1.8    -1.9    -2.8    -2.0    -2.9    -2.8    -1.5
    -1.8    -2.1    -2.1    -2.1    -2.1    -2.3    -2.2    -1.8    -2.2    -2.0
    -1.7    -2.8    -2.3    -2.4    -2.7    -1.7    -2.5    -2.3    -2.0    -2.3
    -2.4    -2.6    -2.1    -1.9    -1.8    -2.5    -2.5    -2.0    -2.5    -2.6
    -2.9    -2.3    -2.2    -2.5    -2.1    -1.8    -1.9    -1.9    -1.8    -1.9
    -2.0    -2.6    -2.6    -2.0    -2.0    -2.8    -2.8    -2.1    -2.9    -2.9
    -2.1    -2.3    -2.1    -2.2    -2.0    -1.3    -2.2    -2.9    -2.4    -2.3
    -2.4    -2.4    -2.7    -2.6    -1.8    -1.8    -1.7    -1.3    -2.8    -2.9
    -2.0    -1.6    -2.1    -2.0    -1.5    -2.3    -1.9    -2.0    -2.5    -2.0
    -2.3    -2.2    -1.7    -2.4    -2.8    -2.1    -2.2    -2.6    -2.2    -2.4
    -2.5    -2.2    -2.5    -2.8    -2.3    -2.2    -2.5    -2.0    -1.9    -2.3
    -1.6    -1.9    -2.0    -1.3    -2.4    -2.8    -2.6    -2.5    -2.1    -2.2
    -2.0    -1.9    -2.2    -2.6    -2.4    -1.9    -2.6    -2.3    -1.6    -2.3
    -1.9    -2.3    -2.9    -2.3    -2.2    -2.0    -2.5    -2.4    -1.7    -2.0
    -2.0    -1.7    -1.5    -1.9    -2.0    -1.7    -1.8    -1.9    -1.9    -1.8
    -2.5    -3.2    -2.3    -2.0    -2.4    -2.5    -2.4    -2.3    -2.7    -2.3
    -1.4    -1.8    -2.4    -2.4    -2.4    -2.0    -1.8    -1.9    -1.7    -1.9
    -2.6    -1.9    -1.8    -3.2    -3.0    -2.8    -2.2    -1.4    -2.4    -2.2
    -2.3    -2.8    -1.9    -1.5    -2.2    -2.3    -2.4    -2.4    -2.2    -1.8
    -1.6    -2.4    -1.9    -2.1    -2.5    -2.1    -2.6    -2.7    -2.0    -2.4
    -3.2    -2.2    -2.3    -2.3    -1.1    -1.9    -1.9    -2.8    -3.0    -1.3
    -2.1    -2.1    -2.3    -1.9    -1.8    -2.9    -2.3    -2.8    -2.8    -2.8
    -3.1    -2.1    -1.5    -1.7    -2.0    -2.3    -2.7    -2.6    -2.3    -2.1
    -2.1    -2.8    -2.5    -2.0    -2.2    -1.6    -1.9    -2.2    -2.0    -2.7
    -1.8    -1.9    -2.4    -1.5    -1.9    -2.8    -2.6    -2.2    -2.6    -2.6
    -3.0    -2.6    -1.3    -1.7    -2.5    -2.8    -2.0    -1.7    -2.1    -2.9
    -2.9    -2.1    -2.1    -2.2    -2.5    -2.3    -2.1    -2.0    -1.4    -1.8
    -2.0    -1.9    -2.0    -2.0    -2.6    -2.4    -2.0    -2.1    -2.2    -2.8
    -2.5    -2.0    -2.3    -2.1    -2.1    -2.1    -1.7    -1.8    -2.2    -1.5
    -1.9    -2.5    -2.2    -2.2    -2.3    -2.9    -2.2    -2.0    -2.1    -1.8
    -3.2    -2.4    -1.9    -1.9    -1.2    -1.8    -2.2    -2.5    -2.7    -2.3
    -2.1    -2.6    -2.3    -2.3    -2.3    -2.6    -2.9    -1.9    -2.5    -2.6
    -1.8    -2.3    -2.0    -2.3    -2.3    -2.8    -2.7    -2.4    -3.1    -2.5
    -2.8    -2.3    -2.2    -2.6    -2.3    -2.8    -2.3    -2.8    -2.7    -2.1
    -2.4    -2.4    -2.7    -2.8    -2.7    -2.1    -2.6    -2.6    -2.2    -2.2
    -1.8    -2.4    -1.4    -1.4    -2.4    -1.5    -2.5    -2.5    -2.0    -2.6
    -1.4    -2.3    -2.5    -1.7    -3.0    -2.3    -2.3    -2.7    -2.0    -2.4
    -2.7    -2.3    -1.9    -2.3    -2.5    -2.4    -2.2    -2.3    -2.2    -1.9
    -2.6    -2.3    -2.3    -2.8    -1.7    -1.8    -2.3    -1.7    -1.9    -2.1
    -2.6    -2.7    -2.1    -2.1    -1.7    -2.4    -3.0    -2.3    -2.4    -1.8
    -1.9    -1.9    -2.0    -2.4    -1.9    -2.8    -2.7    -2.7    -2.6    -2.4
    -2.9    -1.7    -2.9    -2.8    -1.6    -2.6    -1.8    -1.9    -2.3    -1.9
    -2.5    -2.7    -2.7    -2.5    -2.2    -2.3    -1.4    -1.4    -2.1    -2.0
    -2.4    -2.8    -2.2    -1.9    -2.4    -2.4    -2.2    -2.2    -2.2    -2.1
    -2.3    -2.7    -2.8    -1.8    -1.8    -2.6    -1.8    -2.0    -2.7    -2.2
    -2.6    -2.7    -2.1    -2.3    -2.0    -2.4    -2.7    -1.7    -2.8    -3.1
    -2.0    -2.1    -2.5    -2.8    -2.0    -1.9    -2.6    -2.3    -2.2    -1.8
    -2.3    -2.7    -1.7    -2.4    -2.0    -1.5    -3.0    -2.4    -2.1    -2.1
    -1.9    -2.3    -2.1    -1.8    -2.3    -2.8    -2.2    -1.7    -2.6    -2.4
    -2.1    -2.6    -2.7    -2.3    -2.4    -2.5    -1.7    -2.5    -2.4    -1.3
    -2.4    -2.7    -2.2    -2.7    -2.6    -1.5    -1.9    -2.7    -1.6    -2.0
    -2.6    -2.1    -1.8    -1.5    -2.2    -2.3    -2.4    -2.5    -1.8    -2.1
    -2.3    -2.2    -1.7    -2.1    -2.4    -2.0    -1.9    -1.3    -1.8    -2.8
    -2.4    -1.8    -1.9    -2.3    -2.0    -1.8    -2.6    -3.0    -2.5    -2.3
    -1.9    -1.8    -2.5    -2.3    -1.7    -1.7    -2.2    -2.4    -2.5    -2.9
    -1.9    -1.7    -2.5    -2.0    -1.8    -1.9    -2.5    -2.2    -1.6    -2.1
    -2.1    -1.9    -2.3    -2.1    -2.0    -2.3    -2.1    -1.7    -2.2    -2.3
    -2.5    -2.3    -1.4    -1.9    -1.5    -1.6    -2.2    -2.5    -3.1    -2.0
    -2.2    -2.8    -2.2    -2.1    -2.1    -2.5    -1.7    -1.9    -2.5    -2.1
    -2.5    -2.2    -2.5    -3.2    -2.9    -1.8    -1.3    -2.3    -2.2    -1.8
    -1.5    -2.0    -2.4    -2.3    -2.6    -2.4    -2.4    -2.4    -1.6    -1.8
    -2.0    -1.9    -2.8    -2.1    -2.3    -3.1    -2.2    -2.5    -2.0    -1.4
    -2.6    -2.2    -1.9    -2.6    -2.6    -2.1    -2.2    -2.2    -2.2    -2.2
    -1.9    -2.0    -2.1    -2.5    -2.3    -1.6    -2.2    -1.5    -1.5    -2.0
    -1.2    -1.8    -1.7    -1.9    -2.6    -2.2    -2.2    -2.3    -2.4    -2.6
    -2.5    -1.9    -2.0    -1.7    -1.8    -2.1    -1.9    -2.2    -2.2    -2.5
    -2.4    -2.3    -2.9    -2.3    -2.0    -2.1    -2.0    -1.7    -1.8    -2.7
    -2.6    -2.1    -1.6    -1.4    -2.2    -1.9    -1.5    -2.1    -2.0    -1.8
    -2.1    -2.7    -2.4    -2.0    -3.3    -2.9    -1.3    -1.6    -2.5    -2.7
    -2.4    -1.7    -1.0    -2.3    -2.8    -2.1    -2.1    -1.3    -1.4    -1.7
    -2.4    -2.1    -2.1    -2.5    -1.3    -2.9    -3.0    -2.6    -3.2    -2.1
    -2.3    -2.0    -1.5    -2.0    -2.3    -2.0    -2.2    -2.3    -2.2    -2.4
    -1.5    -2.1    -2.3    -1.9    -2.5    -1.7    -1.9    -1.9    -2.2    -2.9
    -1.8    -1.5    -2.2    -2.4    -1.9    -2.3    -2.9    -1.7    -1.3    -1.8
    -2.0    -2.0    -2.2    -3.1    -2.8    -1.9    -1.7    -2.1    -2.5    -2.4
    -2.6    -1.9    -1.7    -2.1    -1.5    -2.2    -2.2    -1.7    -2.1    -2.2
    -2.3    -2.0    -2.1    -1.8    -1.9    -3.0    -2.9    -2.1    -2.4    -2.6
    -2.5    -2.5    -2.1    -1.6    -1.6    -2.5    -2.5    -2.5    -2.3    -2.3
    -3.2    -2.0    -1.6    -2.3    -2.7    -2.6    -2.1    -2.3    -1.9    -2.9
    -3.2    -2.4    -2.0    -1.8    -2.2    -1.3    -1.8    -1.7    -1.9    -2.8
    -2.2    -3.0    -2.3    -2.2    -2.7    -1.9    -2.2    -1.7    -2.1    -2.4
    -2.5    -2.3    -2.4    -2.5    -1.9    -2.8    -2.4    -2.6    -2.6    -1.7
    -2.2    -1.9    -2.2    -2.2    -1.6    -1.7    -2.2    -2.5    -2.1    -2.1
    -2.0    -1.9    -2.3    -2.2    -1.8    -2.4    -2.6    -2.5    -2.9    -2.4
    -2.2    -2.4    -2.1    -3.0    -2.7    -1.1    -1.8    -2.2    -2.1    -2.3
    -1.6    -1.8    -2.5    -2.5    -2.1    -2.1    -2.1    -2.0    -2.7    -3.1
    -1.8    -1.6    -2.5    -1.8    -1.8    -2.3    -2.0    -2.7    -3.0    -2.2
    -2.0    -2.7    -2.7    -2.4    -2.0    -2.3    -2.2    -1.4    -1.7    -1.6
    -2.1    -2.4    -2.0    -2.2    -2.1    -2.4    -2.5    -2.3    -2.6    -2.6
    -2.3    -2.5    -2.1    -2.0    -2.3    -2.0    -1.4    -1.8    -2.1    -2.0
    -2.8    -2.2    -2.2    -2.7    -1.5    -2.3    -2.1    -1.8    -2.8    -2.3
    -2.5    -2.5    -1.7    -1.6    -2.1    -2.8    -2.7    -2.2    -3.0    -2.9
    -1.9    -2.8    -3.0    -2.3    -2.7    -1.7    -1.9    -2.7    -2.1    -1.8
    -2.7    -3.1    -2.4    -1.9    -2.2    -2.2    -1.5    -2.3    -2.3    -1.2
    -2.3    -2.6    -2.3    -2.4    -2.4    -2.1    -1.0    -1.6    -2.4    -2.0
    -2.0    -1.7    -2.1    -2.3    -2.0    -2.6    -2.3    -1.3    -2.1    -2.1
    -1.9    -2.7    -2.1    -1.8    -1.9    -1.8    -2.0    -2.3    -2.4    -2.1
    -2.2    -2.1    -1.8    -2.3    -2.6    -2.1    -2.1    -2.8    -2.6    -2.3
    -2.2    -2.3    -2.7    -1.8    -2.1    -2.8    -2.4    -2.4    -2.2    -2.3
    -2.8    -2.5    -2.0    -2.7    -2.1    -1.7    -2.8    -2.1    -1.3    -1.8
    -1.8    -1.9    -2.7    -2.1    -1.8    -2.7    -2.4    -1.8    -2.3    -2.1
    -1.7    -2.3    -2.8    -2.8    -2.2    -2.3    -2.1    -1.5    -2.4    -2.5
    -2.4    -1.8    -2.0    -3.3    -2.2    -2.0    -1.9    -1.1    -1.4    -1.4
    -2.4    -3.0    -2.6    -2.1    -1.9    -2.5    -1.7    -1.8    -2.0    -1.8
    -2.4    -2.1    -1.8    -1.9    -1.8    -1.3    -2.4    -2.5    -1.3    -1.9
    -1.5    -2.0    -2.0    -1.8    -2.8    -1.8    -1.1    -1.9    -2.3    -2.2
    -2.5    -2.0    -2.3    -2.2    -1.5    -1.9    -1.7    -2.3    -2.2    -1.8
    -1.9    -2.1    -2.7    -2.2    -2.1    -2.1    -1.9    -2.1    -2.0    -2.2
    -2.4    -2.2    -2.2    -1.8    -1.5    -2.1    -2.8    -1.6    -1.0    -2.2
    -2.8    -2.7    -1.5    -1.7    -2.1    -1.7    -2.1    -2.0    -2.5    -2.3
    -1.8    -2.0    -2.2    -2.1    -2.3    -2.5    -1.9    -2.2    -2.4    -1.7
    -1.8    -1.8    -1.8    -2.3    -2.0    -2.0    -1.6    -2.0    -2.9    -1.7
    -1.9    -2.2    -1.7    -2.0    -1.8    -1.9    -2.5    -2.4    -1.6    -2.0
    -1.9    -2.0    -2.3    -0.8    -2.0    -2.5    -1.3    -2.3    -2.0    -1.8
    -2.3    -1.9    -2.1    -2.4    -2.2    -2.2    -2.6    -2.3    -1.6    -2.3
    -2.4    -1.6    -2.1    -2.6    -2.3    -2.5    -2.3    -2.3    -2.4    -2.0
    -2.3    -1.8    -2.5    -2.7    -1.6    -2.3    -1.8    -1.9    -1.8    -1.3
    -2.6    -2.3    -2.1    -2.8    -2.5    -2.3    -1.6    -1.9    -2.2    -2.1
    -2.7    -1.8    -2.0    -3.2    -2.6    -2.3    -2.6    -1.9    -1.8    -2.3
    -2.1    -2.0    -2.1    -2.2    -2.1    -2.1    -2.3    -2.0    -2.1    -2.1
    -1.3    -2.1    -2.5    -1.6    -2.5    -2.1    -1.7    -2.3    -1.5    -1.7
    -2.4    -3.0    -2.4    -2.2    -2.3    -1.9    -2.4    -1.8    -2.0    -2.4
    -1.9    -2.5    -2.7    -2.6    -2.1    -1.8    -1.8    -1.9    -2.0    -2.0
    -2.1    -1.9    -2.8    -2.1    -1.5    -2.2    -1.9    -2.5    -2.0    -1.8
    -3.0    -3.2    -2.7    -2.1    -1.7    -1.7    -2.2    -2.0    -2.3    -2.1
    -1.8    -2.5    -1.6    -1.9    -2.8    -2.2    -2.1    -2.3    -2.6    -2.7
    -1.9    -1.6    -1.9    -2.2    -2.1    -2.2    -2.6    -1.9    -1.7    -2.3
    -2.2    -2.6    -2.1    -2.1    -2.6    -1.9    -2.2    -2.5    -2.3    -1.9
    -2.6    -2.7    -2.0    -2.3    -1.8    -2.2    -2.2    -2.1    -2.1    -1.3
    -2.9    -2.5    -1.6    -2.2    -2.1    -2.6    -1.6    -1.6    -2.1    -2.2
    -2.4    -1.3    -2.3    -2.4    -1.6    -2.9    -2.4    -2.0    -2.5    -2.3
    -2.4    -2.0    -1.7    -2.1    -2.1    -2.3    -2.4    -2.0    -2.6    -2.9
    -2.1    -1.9    -2.0    -1.5    -1.4    -1.7    -2.4    -2.8    -2.1    -2.3
    -2.2    -1.8    -2.0    -2.0    -2.1    -1.9    -2.6    -2.7    -2.2    -2.6
    -1.9    -1.6    -2.0    -1.8    -2.2    -2.4    -2.1    -1.9    -1.9    -2.3
    -2.3    -2.3    -2.3    -2.4    -2.5    -1.8    -1.6    -2.3    -2.2    -2.3
    -2.4    -2.2    -2.4    -2.1    -2.1    -2.2    -2.2    -2.0    -1.7    -1.6
    -1.9    -2.6    -2.1    -2.0    -2.6    -2.8    -2.9    -2.4    -2.1    -2.8
    -2.2    -1.4    -2.4    -2.0    -2.1    -3.1    -3.0    -2.9    -2.1    -2.0
    -2.5    -2.4    -2.2    -2.0    -2.1    -2.1    -2.0    -1.9    -1.8    -1.8
    -2.2    -2.5    -2.1    -2.5    -1.7    -1.6    -2.6    -1.1    -1.8    -2.2
    -1.8    -2.7    -2.6    -2.9    -2.6    -2.9    -2.1    -1.6    -2.2    -1.7
    -1.8    -1.4    -1.3    -1.7    -2.0    -2.0    -1.8    -3.0    -2.6    -2.4
    -3.1    -1.7    -1.8    -2.3    -2.2    -2.5    -1.8    -2.5    -2.7    -1.7
    -2.3    -2.2    -1.9    -2.4    -2.3    -2.4    -2.2    -1.9    -2.0    -2.0
    -2.3    -2.1    -2.1    -2.5    -2.9    -2.9    -2.2    -1.9    -1.7    -1.6
    -1.4    -1.7    -2.1    -2.0    -2.1    -2.2    -2.0    -2.0    -2.5    -1.8
    -1.8    -2.8    -2.1    -2.0    -1.9    -2.2    -1.6    -1.6    -2.4    -1.8
    -2.5    -1.5    -1.3    -2.2    -1.5    -2.0    -1.9    -1.8    -1.8    -1.8
    -2.1    -2.2    -2.5    -2.7    -1.7    -1.7    -2.2    -1.3    -2.5    -2.9
    -2.4    -2.9    -2.4    -1.9    -2.2    -2.2    -1.6    -2.1    -1.5    -1.4
    -2.3    -1.7    -2.1    -2.2    -2.6    -2.9    -1.8    -2.3    -2.2    -1.5
    -1.9    -2.1    -2.8    -2.8    -2.4    -2.9    -2.3    -2.6    -2.5    -1.6
    -1.7    -1.8    -1.6    -1.5    -2.2    -1.8    -1.9    -2.9    -2.3    -2.3
    -1.9    -1.3    -2.0    -1.8    -1.8    -2.5    -2.1    -1.7    -2.0    -2.5
    -2.7    -2.3    -2.2    -2.0    -2.4    -2.1    -2.1    -2.6    -1.6    -2.3
    -2.4    -2.2    -2.1    -1.5    -2.4    -1.8    -2.0    -2.3    -1.4    -1.9
    -2.1    -2.8    -2.2    -1.8    -2.5    -2.0    -2.6    -2.4    -1.9    -2.2
    -2.1    -2.6    -2.1    -1.8    -2.6    -2.4    -2.5    -3.3    -2.6    -2.0
    -2.3    -2.2    -2.7    -2.4    -1.2    -2.2    -2.4    -1.9    -1.3    -1.4
    -2.3    -2.2    -2.3    -2.0    -2.3    -2.3    -2.4    -3.0    -2.1    -2.3
    -2.1    -1.8    -2.6    -2.2    -2.3    -3.0    -2.2    -1.8    -2.4    -1.7
    -1.3    -1.7    -2.2    -2.9    -2.4    -1.6    -1.5    -1.8    -2.3    -2.4
    -1.7    -2.0    -1.9    -1.3    -2.7    -2.6    -2.1    -2.2    -2.2    -2.8
    -2.0    -1.9    -2.9    -2.4    -1.9    -2.4    -2.7    -1.9    -2.2    -2.3
    -1.6    -2.7    -2.0    -1.3    -1.7    -2.3    -2.5    -1.8    -2.6    -2.4
    -2.1    -2.3    -2.4    -2.7    -2.4    -2.9    -2.2    -2.3    -2.3    -1.9
    -2.3    -1.5    -1.9    -2.1    -1.9    -2.2    -2.1    -2.9    -2.4    -2.6
    -2.5    -1.1    -2.1    -2.6    -2.7    -2.7    -2.0    -2.0    -2.0    -2.2
    -2.4    -2.2    -2.2    -2.3    -2.0    -2.2    -2.5    -2.7    -2.8    -1.9
    -1.8    -2.6    -1.9    -1.9    -2.2    -1.8    -2.0    -2.2    -2.4    -2.5
    -2.6    -2.1    -2.3    -2.0    -1.3    -1.8    -2.1    -2.9    -2.6    -2.3
    -3.1    -2.7    -2.1    -1.9    -2.2    -2.5    -2.2    -1.6    -2.2    -2.8
    -1.9    -2.0    -2.7    -2.8    -2.3    -2.0    -2.0    -2.6    -2.5    -1.9
    -2.0    -2.1    -2.5    -2.4    -2.8    -2.2    -1.3    -2.1    -2.0    -2.3
    -2.2    -1.9    -2.1    -2.2    -2.7    -2.2    -2.0    -2.0    -2.0    -1.8
    -1.5    -2.5    -2.5    -1.9    -2.3    -2.3    -1.6    -2.1    -2.6    -2.6
    -2.6    -1.8    -2.3    -2.5    -2.3    -2.5    -2.7    -3.0    -2.3    -1.8
    -1.5    -1.9    -2.1    -1.8    -2.2    -2.5    -2.0    -1.4    -2.0    -2.4
    -2.3    -2.1    -1.5    -1.8    -1.9    -2.4    -2.5    -2.1    -2.4    -2.1
    -2.1    -1.9    -1.8    -2.5    -2.1    -1.8    -2.2    -1.8    -1.8    -1.8
    -1.9    -2.1    -1.8    -2.5    -2.7    -1.8    -2.0    -2.6    -2.4    -2.0
    -2.5    -2.9    -2.1    -1.9    -2.0    -1.3    -1.5    -1.5    -1.8    -2.7
    -2.5    -2.4    -2.7    -2.3    -2.1    -2.2    -2.0    -1.6    -1.1    -1.8
    -2.6    -2.5    -1.9    -1.7    -1.7    -2.5    -2.4    -1.8    -2.6    -2.4
    -2.1    -1.9    -2.3    -2.9    -1.3    -2.1    -2.8    -1.8    -1.8    -1.7
    -1.9    -1.5    -1.8    -2.8    -2.7    -2.4    -2.7    -2.7    -2.0    -2.0
    -1.3    -2.0    -2.1    -0.7    -2.8    -1.9    -1.3    -2.5    -1.2    -2.0
    -2.2    -1.9    -2.1    -2.1    -2.3    -2.5    -2.9    -2.2    -2.1    -2.4
    -2.0    -2.1    -2.5    -2.9    -1.9    -1.8    -2.6    -2.6    -2.0    -2.1
    -2.5    -1.7    -2.2    -2.4    -1.3    -1.6    -1.9    -2.2    -2.1    -2.1
    -1.9    -1.7    -2.7    -2.4    -1.7    -1.9    -1.8    -2.4    -2.2    -1.7
    -2.1    -1.8    -2.0    -2.4    -1.6    -2.2    -2.7    -1.4    -1.4    -1.6
    -1.9    -2.2    -1.4    -2.1    -2.4    -1.9    -1.7    -1.7    -1.4    -1.6
    -2.8    -2.7    -1.8    -1.1    -2.1    -1.9    -1.2    -2.1    -1.6    -2.7
    -2.5    -1.4    -2.3    -1.6    -2.3    -2.3    -1.2    -2.3    -2.3    -1.6
    -2.1    -2.0    -1.9    -2.7    -2.4    -1.7    -1.8    -2.1    -2.0    -1.5
    -2.3    -2.6    -2.4    -2.4    -1.5    -2.1    -2.5    -2.2    -2.8    -2.5
    -1.9    -1.8    -2.3    -2.1    -1.8    -2.3    -2.0    -1.0    -1.1    -1.7
    -1.7    -2.2    -1.9    -1.8    -2.2    -1.7    -2.3    -1.6    -1.3    -2.2
    -2.1    -1.7    -1.6    -2.1    -2.0    -2.0    -2.2    -2.0    -2.1    -2.0
    -1.5    -1.4    -2.5    -2.3    -1.5    -1.9    -2.7    -3.4    -2.6    -1.5
    -2.0    -2.5    -2.3    -2.4    -2.6    -2.1    -2.0    -1.3    -1.4    -2.0
    -2.0    -2.7    -2.6    -2.2    -1.6    -2.1    -2.4    -2.2    -2.3    -2.1
    -2.4    -1.3    -1.8    -2.2    -1.7    -2.5    -1.9    -2.3    -3.1    -1.8
    -1.7    -2.0    -1.9    -2.3    -1.6    -1.8    -2.1    -1.6    -1.8    -1.3
