Uncorrected accelerogram 20161113_110256_WDAS_20 GNS Science
Site WDAS      41 15 27S  174 56 54E     Basalt file:  20161113_110332_WDAS
Wainuiomata Bush Fire Force
Instrument Basalt_1770
Resolution: 24-bit   Instr Period: 0.0050 s   Damping: 0.700
Accelerogram 20161113_110256_WDAS_20                 Processed 2016 December 09
5 km south-west of Waiau
2016 November 13         11:02:56 UT
Epicentre  42 41 33S 173 01 19E  Bearing S44W  Dist  226km  Depth   15km Mw 7.82
Number of points  65536    Duration 327.68 s
Raw readings in units of 1.00 mm/s/s  at intervals of 0.005 s
Data is unfiltered
Component S03W
Acceleration:  Peak   1920.0 mm/s/s at 108.09 s     RMS   157.62 mm/s/s
Velocity record unevaluated
Displacement record unevaluated
    2016      11      13      11       2     560       0       0    2016      11
      42      41      33     173       1      19      15       0      13      11
      41      15      27     174      56      54     183     183     224     226
   65536       0       0   65536       0       0       0       0       2   52000
   200.0    0.70    0.00   0.000  0.0000   0.000   0.000   1.000     0.0    0.00
  41.257 174.948  42.693 173.022    7.82    0.00    0.00    0.00      0.      0.
  327.68    0.00    0.00  327.68  0.0050  0.0050      0.      0.      0.  9806.6
  1920.0  108.09   157.6      0.      0.     0.0    0.00     0.0     0.0   0.000
    0.00    0.00    0.00    0.00   0.000    0.00    0.00    0.00    0.00   0.000
   0.000   0.000   0.000      0.      0.   0.000   0.000   0.000      0.      0.
     0.1     0.1    -0.1     0.3     0.1     0.0     0.1     0.1     0.2     0.0
     0.2     0.0     0.0     0.2    -0.0     0.1     0.2    -0.1     0.1     0.1
     0.2     0.1    -0.0     0.2     0.1     0.0     0.2    -0.0    -0.0     0.2
     0.1     0.1     0.1     0.0     0.3     0.1     0.0     0.3    -0.1     0.1
     0.2     0.1     0.1    -0.0     0.3    -0.1    -0.0     0.3    -0.0     0.1
     0.0     0.0     0.2     0.1     0.2     0.0    -0.0     0.2     0.1     0.2
    -0.0     0.1     0.3     0.0     0.1    -0.1     0.3    -0.0    -0.2     0.5
    -0.2     0.0     0.2    -0.1     0.4    -0.0     0.1     0.1     0.0     0.3
     0.1     0.1     0.1     0.2     0.2    -0.1     0.3     0.2    -0.2     0.4
     0.0    -0.1     0.1     0.1     0.4    -0.2     0.1     0.3     0.2     0.1
    -0.1     0.3     0.1     0.2     0.1     0.2     0.1    -0.2     0.6     0.1
     0.1     0.2    -0.1     0.3     0.1     0.2     0.1    -0.0     0.4    -0.0
     0.1     0.3    -0.1     0.1     0.2     0.1     0.1     0.2    -0.0     0.0
     0.4     0.1     0.0     0.2     0.1     0.1     0.1     0.1     0.2     0.0
     0.1     0.1     0.0     0.1     0.2     0.2     0.0     0.2     0.2    -0.0
     0.2     0.2    -0.1     0.3     0.3     0.0    -0.1     0.1     0.4    -0.1
     0.1     0.2    -0.1     0.3     0.1     0.1     0.3    -0.0     0.0     0.3
     0.1     0.1     0.1     0.1     0.2     0.1     0.1     0.2    -0.0    -0.1
     0.2     0.2     0.2     0.2     0.1     0.0     0.1     0.2     0.0     0.1
     0.1     0.2     0.3     0.0    -0.0     0.2     0.0     0.0     0.3     0.2
    -0.0     0.0     0.3     0.1     0.1     0.2    -0.0     0.2     0.1     0.1
     0.3     0.1     0.1     0.1     0.0     0.2     0.2    -0.1     0.2     0.1
    -0.1     0.2     0.1    -0.0     0.2     0.2    -0.1    -0.1     0.2     0.2
     0.0     0.1     0.0    -0.0     0.1    -0.1     0.1    -0.0     0.0     0.3
    -0.1     0.1     0.2     0.0    -0.0     0.2     0.2    -0.2     0.2     0.1
    -0.1     0.3     0.1    -0.1     0.1    -0.0    -0.1     0.1     0.3    -0.1
     0.1     0.1    -0.2     0.3     0.1    -0.1     0.2    -0.0     0.1     0.2
     0.1     0.1     0.1     0.0     0.0     0.3    -0.0     0.1     0.3    -0.1
     0.2     0.1     0.1     0.1     0.1     0.1     0.2     0.3    -0.1     0.0
     0.2    -0.0     0.3     0.1    -0.1     0.2     0.1     0.0     0.1     0.3
     0.2    -0.1     0.3     0.1    -0.1     0.2     0.1     0.2     0.0     0.0
     0.3    -0.1     0.1     0.1    -0.0     0.3     0.1     0.1     0.1     0.1
     0.0     0.0     0.3     0.0    -0.0     0.2    -0.0     0.2     0.2    -0.0
     0.0     0.0     0.1     0.2     0.1    -0.1     0.2     0.1    -0.1     0.2
    -0.0     0.1     0.3    -0.2     0.1     0.2    -0.0     0.2     0.2     0.1
     0.1     0.2     0.1     0.1     0.2     0.1     0.2     0.2     0.1    -0.0
    -0.0     0.1     0.1     0.1     0.1     0.1     0.2     0.0     0.1     0.2
     0.1     0.1     0.2    -0.0     0.1     0.2     0.1     0.2     0.1    -0.0
     0.2     0.1     0.1     0.3     0.1     0.2     0.1     0.0     0.4     0.1
     0.1     0.0     0.1     0.4     0.0     0.1     0.0     0.2     0.3    -0.1
     0.1     0.1     0.1     0.4     0.0     0.1     0.2    -0.2     0.3     0.1
     0.0     0.2     0.1     0.3    -0.2     0.1     0.2    -0.0     0.3    -0.2
     0.2     0.2     0.0     0.1     0.0     0.1     0.3     0.2    -0.0    -0.0
     0.3     0.2    -0.1     0.2     0.1    -0.0     0.5    -0.1     0.1     0.4
    -0.1     0.2     0.2    -0.2     0.3     0.1    -0.1     0.5    -0.1     0.1
     0.2    -0.1     0.3     0.0     0.2     0.1     0.0     0.2    -0.1     0.2
     0.2     0.0     0.0     0.1    -0.0     0.0     0.4     0.1     0.1     0.1
     0.0     0.3     0.1    -0.1     0.3     0.2    -0.0     0.3     0.1     0.1
     0.2    -0.1     0.3     0.0     0.1     0.0     0.0     0.5    -0.2     0.1
     0.2    -0.0     0.2     0.2    -0.1     0.1     0.3    -0.1     0.1     0.1
     0.2     0.1    -0.0     0.3     0.0     0.1     0.1    -0.1     0.2     0.2
     0.3    -0.0     0.1     0.2    -0.3     0.2     0.2    -0.1     0.4     0.0
     0.0     0.2    -0.0     0.1     0.1     0.2     0.0     0.1     0.2     0.1
     0.2    -0.1     0.2     0.1    -0.1     0.4    -0.2     0.1     0.4    -0.0
     0.1     0.2     0.0     0.0     0.4     0.2    -0.2     0.3     0.1    -0.2
     0.5    -0.0    -0.1     0.4    -0.0     0.2     0.1    -0.1     0.2     0.3
    -0.0     0.1     0.4     0.1     0.1     0.0     0.1     0.3     0.0     0.0
    -0.1     0.1     0.3    -0.1     0.3     0.2    -0.2     0.3     0.1     0.0
     0.2     0.0     0.1     0.1     0.1     0.2     0.0     0.1     0.3    -0.2
     0.3     0.2    -0.1     0.4     0.0     0.3     0.2     0.1     0.4    -0.1
     0.1     0.3     0.1     0.1     0.2     0.2     0.2     0.1     0.1     0.3
     0.0     0.4     0.1    -0.1     0.4     0.1     0.3     0.2    -0.0     0.2
     0.1     0.2     0.1     0.0     0.3    -0.0     0.0     0.4     0.1    -0.0
     0.2     0.1     0.1     0.1     0.3     0.2    -0.2     0.4     0.2     0.0
     0.4     0.2     0.1     0.1     0.3     0.0     0.1     0.1     0.0     0.3
     0.2     0.2    -0.1     0.2     0.2    -0.2     0.6    -0.0    -0.1     0.4
    -0.1     0.2     0.0     0.1     0.2     0.1     0.1     0.0     0.3     0.0
     0.2     0.1    -0.1     0.4     0.1    -0.0     0.2     0.0     0.1     0.1
    -0.1     0.2     0.1     0.1     0.1    -0.1     0.3     0.1     0.1     0.2
    -0.1     0.3     0.1     0.1     0.1     0.1    -0.0    -0.0     0.2     0.0
     0.1     0.1     0.1     0.0     0.0     0.1     0.0     0.1    -0.0     0.0
     0.2     0.0     0.1     0.2    -0.0     0.0     0.2     0.1     0.1     0.0
     0.2     0.1     0.0     0.1    -0.0     0.0     0.2     0.2     0.1     0.1
     0.2    -0.0     0.1     0.1     0.1     0.1    -0.1     0.2     0.1    -0.1
     0.2     0.1     0.0    -0.0     0.0     0.2     0.0     0.0     0.3     0.2
    -0.1    -0.0     0.2     0.2     0.1     0.0     0.1     0.1     0.0     0.2
     0.1    -0.0     0.1     0.1     0.2     0.1     0.1    -0.0     0.1     0.3
     0.2     0.1    -0.0     0.1     0.1     0.2     0.2    -0.1     0.1     0.1
     0.2     0.0    -0.1     0.4     0.1     0.2     0.2    -0.1     0.2     0.0
     0.2     0.2     0.1     0.1    -0.1     0.3     0.1     0.0     0.1     0.1
     0.2    -0.0     0.2     0.1     0.1     0.2     0.1     0.1     0.1     0.1
     0.1     0.0     0.1     0.1     0.2    -0.0     0.1     0.3    -0.1     0.1
     0.3     0.1     0.1     0.2     0.2     0.0     0.0     0.2     0.0    -0.0
     0.2     0.2    -0.0     0.1     0.2     0.1     0.3     0.1     0.0     0.2
     0.2     0.1     0.2     0.1    -0.1     0.4     0.2    -0.2     0.3    -0.0
     0.2     0.3    -0.1     0.3    -0.0     0.1     0.3    -0.2     0.2     0.3
    -0.1     0.2     0.1    -0.1     0.2     0.1     0.1     0.2     0.3     0.1
    -0.0     0.1     0.1    -0.0     0.2     0.2    -0.2     0.2     0.2    -0.1
     0.4     0.1     0.2     0.4    -0.2     0.1     0.3     0.1     0.1     0.2
     0.1     0.0     0.1     0.0     0.4     0.0     0.0     0.2    -0.0     0.2
     0.1     0.1     0.1     0.0     0.4     0.2    -0.0     0.3     0.1    -0.0
     0.3     0.2     0.1     0.0    -0.0     0.2     0.0     0.2     0.2    -0.1
     0.2     0.0     0.0     0.4    -0.0     0.0     0.2     0.0    -0.0     0.2
     0.3     0.1     0.1     0.1     0.1    -0.0     0.0     0.2     0.1     0.1
    -0.0     0.1    -0.0     0.0     0.4     0.0     0.1     0.0    -0.1     0.2
     0.1     0.2     0.1     0.1     0.3    -0.1     0.2     0.3    -0.0     0.2
     0.3     0.2     0.0     0.2     0.1     0.1     0.3     0.1     0.3     0.0
     0.0     0.4     0.1     0.3     0.2     0.2     0.1    -0.1     0.6    -0.0
     0.1     0.3    -0.2     0.6     0.1    -0.0     0.3     0.1     0.1     0.0
     0.4    -0.0     0.2     0.3    -0.0     0.4    -0.1     0.0     0.3     0.0
     0.3     0.2     0.2     0.0     0.2    -0.0    -0.0     0.5     0.0    -0.0
     0.3     0.1     0.1     0.2     0.2     0.1     0.2     0.1    -0.1     0.2
     0.2     0.1     0.3     0.0     0.2     0.1    -0.2     0.4     0.0     0.1
     0.2    -0.1     0.1     0.1     0.2    -0.0     0.1     0.3     0.1     0.1
     0.1     0.1    -0.0     0.2     0.0    -0.0     0.3    -0.1     0.2     0.3
    -0.1     0.2     0.1     0.1     0.1     0.1     0.2    -0.0     0.2     0.2
     0.0     0.2     0.1    -0.1     0.1     0.2     0.1    -0.1     0.2     0.3
     0.1     0.1     0.1     0.1     0.2     0.1     0.4     0.1    -0.1     0.3
     0.1     0.0     0.3     0.2    -0.1     0.3     0.1    -0.0     0.3     0.0
     0.0     0.2     0.1     0.1     0.1     0.2    -0.0     0.2     0.1    -0.1
     0.4     0.1     0.3     0.1    -0.0     0.3    -0.0     0.2     0.2    -0.0
     0.2     0.3     0.1    -0.0     0.2     0.0    -0.1     0.3     0.2     0.1
     0.2     0.1     0.1     0.2     0.2     0.0     0.1     0.1     0.0     0.1
     0.0     0.1     0.2     0.0     0.2     0.2    -0.0     0.3     0.2     0.1
     0.3     0.1     0.1     0.0    -0.1     0.1     0.0    -0.0     0.3     0.1
     0.1     0.2     0.1     0.2     0.1     0.1     0.2    -0.0    -0.0     0.1
     0.1     0.2     0.1     0.2     0.1     0.1     0.2     0.1     0.0     0.1
     0.0     0.1     0.2     0.2     0.1     0.2     0.2    -0.1     0.1     0.2
    -0.0     0.1     0.2    -0.0     0.1     0.1     0.0     0.1     0.0     0.1
     0.0     0.2     0.2     0.0     0.5     0.1    -0.0     0.3    -0.1    -0.1
     0.1    -0.0     0.1     0.2    -0.1     0.1     0.3     0.1     0.1     0.0
    -0.0     0.1     0.1     0.2     0.2     0.0     0.2     0.1     0.1     0.3
    -0.2    -0.0     0.2    -0.1     0.2    -0.0     0.1     0.3    -0.1     0.3
     0.1     0.0     0.3     0.0     0.2     0.1     0.1     0.1     0.1     0.2
     0.1     0.1     0.2     0.0     0.0     0.1     0.1     0.1     0.1     0.1
    -0.1     0.1     0.1    -0.0     0.2     0.1     0.1     0.2     0.0     0.1
     0.3     0.1     0.1     0.1     0.0     0.0     0.2     0.2    -0.1     0.3
     0.2    -0.1     0.4     0.1    -0.1     0.2    -0.0     0.1     0.3    -0.0
    -0.1     0.3    -0.1     0.0     0.2     0.0     0.3    -0.0     0.1     0.2
    -0.0     0.1     0.2     0.1    -0.0     0.1     0.2     0.0     0.1     0.1
     0.1     0.2    -0.0     0.1     0.0     0.3     0.3    -0.1     0.3     0.1
     0.2     0.4    -0.0     0.0     0.3     0.1    -0.1     0.3    -0.1     0.0
     0.2     0.1     0.2     0.0     0.2     0.2     0.2     0.2    -0.1     0.1
     0.0     0.1     0.1     0.1     0.0     0.1     0.2     0.2     0.4     0.2
     0.2     0.1    -0.1     0.2    -0.1     0.1     0.2     0.1     0.2    -0.0
     0.4     0.2     0.1     0.1    -0.0     0.3     0.2     0.1    -0.1     0.0
     0.2     0.1     0.1     0.0     0.3     0.2    -0.1     0.3     0.1     0.1
     0.1     0.1     0.2    -0.1     0.1     0.1     0.1     0.3     0.1     0.3
     0.2    -0.0    -0.0     0.1     0.1     0.0     0.0     0.1     0.1     0.1
     0.2     0.0     0.0     0.2     0.1     0.2     0.1     0.0     0.2     0.1
    -0.1     0.2     0.1     0.0     0.3    -0.1     0.1     0.1    -0.1     0.3
     0.1     0.1     0.2     0.1     0.2    -0.1     0.0     0.5    -0.0     0.2
     0.3    -0.1     0.2     0.2     0.1     0.1     0.1     0.2    -0.0     0.1
     0.2     0.1     0.1     0.1     0.2     0.2     0.0     0.1     0.2     0.2
     0.0     0.1     0.1     0.2     0.1    -0.0     0.2     0.2     0.2     0.1
     0.1     0.2    -0.2     0.3     0.3    -0.1     0.4     0.0     0.1     0.3
     0.1     0.1     0.2     0.2     0.0     0.1     0.1     0.2     0.2    -0.0
     0.2     0.0    -0.0     0.2     0.0     0.3     0.2    -0.2     0.3     0.1
     0.0     0.2     0.0     0.3     0.0    -0.0     0.1     0.2     0.2     0.1
     0.2    -0.0    -0.0     0.3     0.2     0.1     0.2     0.2    -0.0    -0.0
     0.1     0.2     0.0     0.2     0.1     0.0     0.2     0.3     0.2    -0.0
     0.0     0.2     0.1     0.0     0.2     0.1     0.1     0.3     0.1     0.1
     0.1     0.0     0.2    -0.1     0.2     0.3     0.1     0.2     0.2     0.1
     0.0     0.3     0.1     0.2     0.1    -0.1     0.5     0.1    -0.1     0.3
     0.0    -0.0     0.0     0.3     0.2     0.0     0.1     0.1     0.1     0.2
     0.3    -0.1    -0.0     0.3     0.1     0.1     0.1     0.2     0.1     0.2
     0.2     0.0     0.1     0.0     0.1     0.2     0.1     0.1     0.1     0.1
    -0.1     0.1     0.1     0.0     0.3    -0.0     0.0     0.3     0.1     0.1
     0.1     0.1    -0.1     0.1     0.2     0.1     0.0     0.0     0.2    -0.1
     0.2     0.2    -0.2     0.4     0.1    -0.0     0.3     0.2     0.0    -0.0
     0.3     0.1    -0.1     0.0     0.3     0.2     0.0     0.2     0.0    -0.1
     0.2     0.2    -0.0     0.2     0.2     0.1     0.4     0.2     0.0     0.2
     0.2     0.1     0.0     0.1     0.2     0.1     0.0     0.2     0.1     0.1
     0.2     0.1     0.2     0.0     0.3     0.3     0.2     0.1     0.1     0.2
     0.0     0.1     0.1     0.3     0.2     0.0     0.1     0.2     0.1     0.2
     0.3     0.0     0.2     0.2     0.0     0.2     0.1     0.2     0.2    -0.1
     0.1     0.0    -0.0     0.4     0.3    -0.2     0.2     0.3     0.1     0.2
    -0.0     0.2     0.2    -0.1     0.4     0.3    -0.2     0.1     0.2     0.2
     0.3     0.2     0.1     0.3     0.1     0.1     0.3    -0.1     0.1     0.5
    -0.0     0.2     0.1    -0.0     0.3     0.0     0.1     0.1    -0.1     0.3
     0.2    -0.0     0.2     0.2    -0.0     0.2     0.2     0.2     0.1    -0.0
     0.3     0.2     0.1     0.1     0.1     0.1     0.2     0.1    -0.1     0.1
     0.3     0.3    -0.0     0.1     0.1    -0.1     0.2     0.1     0.1    -0.0
     0.1     0.3    -0.1     0.1     0.1     0.1     0.2     0.0     0.2     0.0
     0.2     0.2     0.0     0.2     0.1     0.1     0.0     0.2     0.2     0.1
     0.1     0.1     0.2     0.2     0.3     0.1     0.1     0.2     0.1     0.3
    -0.0     0.1     0.2    -0.1     0.1    -0.1     0.1     0.2     0.0     0.3
     0.1    -0.1     0.1     0.2    -0.0     0.2     0.1    -0.1     0.1     0.1
     0.2     0.2    -0.0     0.3    -0.0     0.0     0.4    -0.0     0.3     0.3
     0.0     0.2    -0.0     0.2     0.2     0.1     0.1    -0.1     0.2     0.2
     0.0     0.2     0.0     0.1     0.2     0.1     0.4     0.1     0.0     0.4
    -0.0    -0.0     0.1     0.0     0.2     0.1     0.1     0.2     0.2     0.2
     0.1     0.1     0.1     0.0     0.2     0.1    -0.0     0.2     0.0    -0.0
     0.1     0.1     0.1     0.2    -0.0    -0.0     0.3     0.1     0.2     0.3
    -0.0     0.2     0.2     0.1     0.1     0.1     0.1     0.0     0.0     0.2
     0.2     0.1     0.0     0.1     0.1     0.0     0.1     0.2     0.2     0.1
     0.1     0.2    -0.1     0.0     0.2     0.0     0.1     0.2     0.2     0.1
     0.2     0.2     0.0     0.2     0.2     0.0     0.2     0.3     0.0     0.4
     0.2    -0.1     0.2    -0.1     0.2     0.3     0.1     0.1    -0.1     0.3
     0.1     0.2     0.2    -0.0     0.2     0.3     0.3     0.1     0.2     0.1
     0.2     0.3     0.3     0.2     0.0     0.4     0.1     0.4     0.2    -0.1
     0.4     0.0     0.2     0.2     0.2     0.4     0.1     0.2     0.4     0.1
     0.0     0.4     0.1     0.1     0.3     0.3     0.1    -0.1     0.3     0.2
     0.1     0.2     0.0     0.1     0.1     0.2     0.3     0.2     0.1     0.3
     0.2     0.1     0.1     0.0     0.3    -0.1     0.2     0.3    -0.0     0.2
     0.1     0.2     0.0     0.3     0.2     0.1     0.2     0.0     0.2     0.3
     0.1     0.2     0.4    -0.1     0.2     0.3    -0.1     0.3     0.1     0.2
     0.1     0.1     0.4     0.2    -0.0     0.2     0.4    -0.0     0.1     0.0
    -0.0     0.3    -0.1     0.3     0.1     0.0     0.3     0.1     0.2     0.0
     0.3     0.1     0.0     0.3    -0.2     0.2     0.2    -0.1     0.3     0.3
     0.1    -0.0     0.2     0.1     0.0     0.2    -0.0     0.2     0.3     0.0
    -0.0    -0.0     0.4     0.1    -0.1     0.3     0.1     0.1     0.1     0.2
     0.1     0.0     0.5     0.0    -0.1     0.1     0.2     0.2    -0.0     0.3
    -0.0     0.1     0.1     0.0     0.2     0.0     0.3     0.1    -0.0     0.3
     0.1    -0.1     0.2     0.2    -0.2     0.2     0.3    -0.1     0.1     0.1
     0.2     0.2     0.1     0.1     0.1    -0.0     0.2     0.3     0.0     0.1
    -0.1     0.3     0.2    -0.1     0.4     0.1    -0.2     0.2     0.3     0.0
     0.1     0.0    -0.1     0.4     0.2    -0.0     0.2     0.2     0.2     0.1
    -0.0     0.2     0.2     0.0     0.1     0.1     0.0     0.3     0.1     0.0
     0.2     0.0     0.1     0.2    -0.0     0.3     0.2     0.0     0.2     0.1
     0.1     0.3     0.1     0.0     0.2     0.0     0.2     0.2    -0.1     0.1
     0.2     0.1     0.1     0.1     0.2     0.1     0.3     0.3     0.0     0.2
     0.1    -0.0     0.3     0.2    -0.0     0.1     0.2     0.1     0.0     0.1
     0.1     0.3     0.2     0.1     0.2     0.0     0.1     0.1     0.2     0.3
     0.1     0.1     0.1     0.1     0.1     0.1     0.2     0.2     0.1     0.1
     0.3    -0.1     0.1     0.3     0.1     0.3     0.0     0.2     0.1     0.1
     0.2    -0.0     0.2     0.1     0.1     0.2     0.2     0.2     0.2     0.3
     0.2     0.3     0.2     0.2    -0.1     0.0     0.4    -0.1     0.2     0.2
    -0.1     0.3     0.2     0.2     0.2     0.1     0.1     0.1     0.2     0.2
     0.1     0.2     0.2     0.1     0.1     0.3     0.2    -0.2     0.3     0.1
    -0.1     0.4     0.0     0.1     0.2     0.1     0.1     0.1     0.2     0.1
     0.1     0.1     0.1     0.1     0.1     0.3     0.0     0.1     0.3     0.1
     0.1     0.1     0.1     0.2    -0.0     0.0     0.2     0.1     0.3     0.1
     0.1     0.1     0.0     0.3     0.0     0.3     0.3    -0.1     0.1     0.3
     0.0     0.2     0.4    -0.0     0.3     0.0    -0.1     0.5     0.1     0.2
     0.0     0.1     0.2    -0.0     0.3     0.0     0.2     0.3     0.1     0.1
     0.0     0.3     0.2    -0.1     0.0     0.3     0.0     0.0     0.3    -0.2
