Uncorrected accelerogram 20161113_110256_LHBS_20 GNS Science
Site LHBS      41 11 48S  174 53 32E     Cusp file:  20161113_110332_LHBS
Lower Hutt Normandale
Instrument Cusp_42212
Resolution: 18-bit   Instr Period: 0.0050 s   Damping: 0.700
Accelerogram 20161113_110256_LHBS_20                 Processed 2016 December 09
5 km south-west of Waiau
2016 November 13         11:02:56 UT
Epicentre  42 41 33S 173 01 19E  Bearing S42W  Dist  227km  Depth   15km Mw 7.82
Number of points  50835    Duration 254.17 s
Raw readings in units of 1.00 mm/s/s  at intervals of 0.005 s
Data is unfiltered
Component N10W
Acceleration:  Peak  -1051.1 mm/s/s at 107.55 s     RMS    81.53 mm/s/s
Velocity record unevaluated
Displacement record unevaluated
    2016      11      13      11       2     560       0       0    2016      11
      42      41      33     173       1      19      15       0      13      11
      41      11      48     174      53      32     350     350     222     227
   50835       0       0   50835       0       0       0       0       2   52869
   200.0    0.70    0.00   0.000  0.0000   0.000   0.000   1.000     0.0    0.00
  41.197 174.892  42.693 173.022    7.82    0.00    0.00    0.00      0.      0.
  254.17    0.00    0.00  254.17  0.0050  0.0050      0.      0.      0.  9806.6
 -1051.1  107.55    81.5      0.      0.     0.0    0.00     0.0     0.0   0.000
    0.00    0.00    0.00    0.00   0.000    0.00    0.00    0.00    0.00   0.000
   0.000   0.000   0.000      0.      0.   0.000   0.000   0.000      0.      0.
    -0.0     0.0     0.1     0.1     0.0     0.2     0.2     0.1     0.2     0.0
     0.2     0.1    -0.0     0.3     0.1     0.1     0.3     0.0     0.1     0.2
     0.1    -0.0     0.0     0.1     0.0     0.1     0.2     0.2     0.3     0.3
     0.2     0.2     0.0     0.0     0.2     0.1     0.1     0.1     0.1     0.2
     0.1     0.1     0.1     0.0     0.2     0.2     0.1     0.2     0.1    -0.0
    -0.1     0.0     0.2     0.2     0.2    -0.1     0.1     0.3     0.1     0.2
     0.1     0.0     0.2     0.2     0.2     0.1     0.1     0.1     0.2     0.2
     0.1     0.1     0.2     0.2     0.1     0.0    -0.0     0.0     0.1     0.2
     0.2     0.2     0.3     0.1    -0.0     0.2     0.1     0.1     0.1    -0.0
     0.2     0.2     0.0     0.0    -0.0     0.2     0.3     0.2     0.1     0.1
     0.1     0.1     0.1     0.1    -0.1    -0.0     0.1     0.0     0.1    -0.0
    -0.1    -0.0     0.1     0.0     0.1     0.1     0.1     0.3     0.1    -0.0
     0.2     0.2     0.1     0.0    -0.0    -0.0     0.0     0.1    -0.0    -0.0
     0.1     0.2     0.0    -0.1     0.0     0.1     0.1     0.0     0.0     0.2
     0.2    -0.1     0.0     0.1     0.0    -0.1     0.1     0.2     0.1     0.0
    -0.1     0.2     0.2     0.0     0.0    -0.2    -0.0     0.1     0.1     0.2
    -0.0     0.0     0.1    -0.0     0.1    -0.0    -0.1     0.1     0.2     0.2
     0.3     0.2     0.1     0.1     0.1     0.1     0.1    -0.0     0.1     0.2
     0.0    -0.1    -0.0     0.1    -0.1    -0.0     0.1    -0.0     0.0     0.1
     0.1     0.1     0.0    -0.1    -0.1     0.0     0.0     0.0     0.1     0.1
     0.1    -0.1     0.0     0.1     0.0     0.1     0.1    -0.1     0.0     0.2
     0.0     0.1     0.2     0.1     0.2     0.0    -0.1     0.1    -0.0    -0.2
     0.0    -0.1    -0.1    -0.1    -0.2    -0.1    -0.0     0.0     0.0    -0.0
     0.1     0.1     0.2    -0.0    -0.3     0.0     0.0     0.0     0.1     0.1
     0.0    -0.0    -0.1    -0.1    -0.1    -0.1    -0.0    -0.1    -0.1    -0.0
     0.0     0.1     0.1     0.1     0.2     0.1     0.1     0.0     0.0     0.1
     0.1     0.1     0.1    -0.0     0.0     0.0     0.2     0.1    -0.1     0.2
     0.1    -0.1     0.1     0.1    -0.1    -0.1     0.1     0.0    -0.0    -0.0
    -0.1     0.0    -0.0    -0.2     0.0    -0.1     0.1     0.1    -0.2    -0.2
     0.0     0.1     0.0     0.1     0.1    -0.1     0.1     0.2     0.1     0.1
    -0.1    -0.2     0.1     0.1    -0.0     0.0     0.1     0.1     0.1     0.0
     0.1     0.1     0.1     0.0    -0.1    -0.0     0.0    -0.2    -0.1     0.1
    -0.0    -0.1     0.1     0.2     0.0     0.1    -0.0    -0.3    -0.0     0.0
    -0.1     0.1     0.0    -0.1     0.0     0.1    -0.1    -0.0     0.1    -0.0
    -0.2    -0.0     0.2     0.1     0.2     0.1    -0.0    -0.0    -0.1     0.1
     0.1     0.0    -0.0    -0.0     0.0    -0.1    -0.1    -0.1     0.0     0.1
     0.1     0.0     0.0     0.1    -0.0    -0.0    -0.1    -0.0     0.0    -0.1
     0.0     0.0    -0.0     0.0    -0.0     0.1     0.0    -0.0     0.1    -0.0
    -0.0     0.1     0.2     0.1     0.0     0.1     0.0     0.0     0.2     0.1
    -0.1    -0.0     0.0     0.1     0.1     0.1    -0.0    -0.1    -0.1     0.1
     0.1     0.3     0.3     0.0     0.1     0.1     0.1     0.3     0.2     0.0
     0.1     0.2     0.2     0.1     0.2     0.3     0.0     0.1     0.1     0.1
     0.1     0.0     0.0     0.1     0.2     0.1    -0.0     0.1     0.1    -0.0
    -0.1     0.1     0.1    -0.1     0.0    -0.0    -0.1     0.1    -0.0    -0.0
    -0.0    -0.1     0.0     0.2     0.1     0.1     0.0    -0.2    -0.0    -0.1
    -0.1     0.1     0.0     0.3     0.0    -0.1     0.2     0.1     0.1    -0.0
    -0.1     0.0    -0.0    -0.0    -0.1    -0.1     0.1     0.1    -0.1    -0.2
    -0.1     0.1    -0.0    -0.1     0.1     0.1    -0.0     0.1    -0.1    -0.1
     0.1     0.0     0.1     0.0    -0.1     0.1     0.1     0.2     0.1    -0.2
    -0.0     0.0     0.0    -0.0    -0.0     0.0    -0.1    -0.1     0.0     0.1
     0.1     0.0     0.1     0.0    -0.2    -0.1    -0.0     0.0    -0.1    -0.2
    -0.1     0.0    -0.0     0.1     0.1     0.0    -0.1    -0.2     0.1     0.1
    -0.2    -0.1     0.1     0.1     0.0     0.0    -0.0    -0.2    -0.2    -0.2
    -0.0     0.0    -0.1     0.1     0.1     0.0     0.1     0.2    -0.1     0.1
     0.2    -0.1    -0.1     0.0     0.1     0.0    -0.3     0.0     0.2     0.1
     0.0    -0.1     0.1    -0.2    -0.1     0.1    -0.0     0.2     0.1    -0.1
    -0.0     0.0     0.3     0.1    -0.1     0.0     0.0     0.0    -0.2     0.0
     0.1     0.0     0.1     0.0     0.1     0.0     0.0     0.1     0.1     0.1
     0.0    -0.0     0.0    -0.0    -0.0    -0.1    -0.1    -0.0    -0.1    -0.0
     0.1    -0.0     0.0     0.1     0.0    -0.1    -0.2    -0.0     0.0     0.0
     0.1    -0.1    -0.1     0.1     0.1    -0.0    -0.1     0.2     0.1    -0.1
    -0.0     0.1     0.2     0.1    -0.2    -0.1     0.1     0.0     0.1    -0.0
    -0.0     0.0    -0.1     0.1     0.1    -0.0     0.1     0.0    -0.1    -0.1
    -0.2    -0.3    -0.1    -0.1    -0.1     0.1    -0.1    -0.1    -0.0    -0.1
    -0.0    -0.2    -0.2     0.1     0.1     0.0     0.1     0.1    -0.1     0.1
    -0.0    -0.1     0.1    -0.1    -0.0    -0.2    -0.2     0.1    -0.1    -0.1
     0.0    -0.1    -0.1    -0.1     0.0    -0.1    -0.1     0.1    -0.1    -0.1
     0.0    -0.1    -0.1    -0.1    -0.1    -0.1    -0.0     0.0     0.0     0.1
    -0.0     0.1     0.1     0.0     0.0     0.0     0.0     0.0     0.1     0.1
     0.0     0.0     0.1     0.2     0.1    -0.0     0.0     0.1     0.1     0.0
     0.0     0.0     0.0    -0.0     0.1     0.1    -0.1     0.1    -0.0    -0.0
     0.0    -0.1    -0.1    -0.0    -0.1     0.1     0.2     0.1     0.1     0.1
     0.1    -0.0    -0.1     0.1     0.1    -0.1    -0.1    -0.0     0.0     0.0
    -0.0     0.0     0.0    -0.1     0.1     0.1     0.0     0.0    -0.1    -0.0
     0.0     0.0     0.0     0.0     0.1    -0.1    -0.2    -0.2    -0.1    -0.1
    -0.1     0.0     0.0     0.0    -0.0    -0.2    -0.0     0.1     0.1     0.1
     0.2    -0.0    -0.1     0.1    -0.0    -0.1     0.1    -0.0    -0.0     0.1
    -0.1     0.0     0.1    -0.0     0.0    -0.0     0.0     0.1     0.0     0.1
    -0.0    -0.0     0.1     0.0    -0.0     0.0     0.1     0.2     0.1    -0.1
    -0.0    -0.0    -0.0     0.1    -0.1    -0.1     0.1     0.0     0.1    -0.1
    -0.1     0.1     0.0    -0.1    -0.1     0.1    -0.1    -0.1     0.0     0.0
     0.2     0.1    -0.1     0.1     0.0     0.0     0.2    -0.0    -0.0     0.1
     0.0     0.1     0.0    -0.0     0.1     0.1     0.1    -0.1     0.1     0.1
    -0.0     0.1     0.1     0.1     0.2     0.2     0.0     0.1     0.0    -0.1
    -0.0    -0.2    -0.1     0.2    -0.0    -0.1    -0.0    -0.0    -0.0    -0.1
    -0.1     0.0     0.0    -0.0     0.1     0.1     0.0    -0.1     0.0     0.0
    -0.0    -0.0    -0.0    -0.1    -0.1     0.1    -0.2    -0.3    -0.0    -0.0
    -0.0    -0.1    -0.1    -0.0    -0.1     0.1     0.1    -0.1    -0.1    -0.1
     0.0    -0.1    -0.3    -0.1     0.1     0.1    -0.1     0.0     0.1     0.0
    -0.1    -0.1     0.1     0.0    -0.1    -0.0     0.1     0.0    -0.1     0.1
     0.0    -0.0     0.1    -0.1    -0.2    -0.1    -0.1     0.0    -0.0     0.0
     0.2    -0.1    -0.0     0.0    -0.1     0.0    -0.2    -0.2     0.0     0.0
     0.1     0.2     0.0    -0.2     0.1     0.1    -0.1     0.0    -0.0     0.0
    -0.0    -0.1    -0.1    -0.1     0.1     0.0     0.1     0.1    -0.2    -0.2
    -0.2    -0.2    -0.0    -0.0    -0.0    -0.1    -0.1    -0.1     0.0     0.1
     0.0     0.0    -0.0    -0.1    -0.1     0.0     0.0    -0.0    -0.1    -0.1
     0.1     0.1     0.1     0.1     0.0     0.0    -0.0     0.1     0.1     0.1
     0.0    -0.0    -0.1    -0.1     0.0     0.0    -0.0     0.1    -0.0     0.1
    -0.0    -0.1     0.1    -0.1    -0.2    -0.0     0.1     0.0    -0.1    -0.1
    -0.0    -0.1    -0.1    -0.1    -0.1     0.0     0.0    -0.1     0.0     0.0
    -0.1     0.0    -0.0    -0.1    -0.1     0.0     0.2     0.0    -0.0     0.1
    -0.0     0.0     0.1     0.0    -0.0    -0.1    -0.0    -0.0    -0.2    -0.1
     0.0    -0.1    -0.1    -0.1     0.1     0.0    -0.2    -0.0    -0.1     0.1
     0.3     0.1    -0.1    -0.0     0.0     0.1     0.0    -0.1    -0.0     0.1
     0.0    -0.0    -0.1    -0.1     0.0     0.1    -0.0    -0.1     0.0     0.1
     0.1     0.1    -0.1    -0.1    -0.0     0.1     0.1     0.1     0.0     0.1
     0.1    -0.3    -0.1     0.0    -0.1    -0.1    -0.1     0.0    -0.0    -0.0
    -0.0    -0.1    -0.1    -0.1     0.1     0.0    -0.1     0.1     0.1     0.1
     0.1    -0.0     0.0     0.0     0.1    -0.1    -0.1     0.0    -0.1    -0.1
    -0.0     0.0     0.1    -0.0    -0.0    -0.0    -0.1    -0.2    -0.2     0.1
     0.1    -0.2    -0.1     0.2     0.0    -0.0     0.1     0.0    -0.1    -0.0
    -0.0     0.0     0.0    -0.2    -0.1     0.0    -0.1    -0.1    -0.2    -0.1
    -0.1    -0.2     0.0    -0.0    -0.1     0.0     0.0     0.0     0.0    -0.0
    -0.0     0.2     0.0    -0.1     0.1     0.1     0.0     0.1     0.2     0.1
     0.1     0.2     0.1     0.0     0.1     0.1     0.2     0.0     0.1    -0.0
    -0.2     0.1     0.2     0.1     0.1    -0.0     0.0     0.1     0.1    -0.0
    -0.1     0.1     0.2     0.1    -0.1     0.0     0.1     0.1     0.0    -0.1
    -0.1    -0.1    -0.1    -0.1    -0.1     0.1     0.0    -0.1     0.1     0.1
    -0.1    -0.2    -0.2    -0.1     0.0    -0.1    -0.1    -0.1    -0.2     0.1
     0.2     0.0     0.1    -0.0     0.1    -0.1    -0.1     0.3     0.1     0.0
     0.1    -0.1    -0.0     0.0    -0.1     0.2     0.1    -0.0     0.1    -0.1
    -0.2    -0.0    -0.0    -0.0    -0.0    -0.0    -0.0     0.1     0.1    -0.2
    -0.1     0.0    -0.1    -0.0     0.1     0.0     0.2     0.1     0.0     0.0
    -0.1    -0.1    -0.1    -0.0     0.0    -0.0    -0.1    -0.0     0.2     0.0
    -0.2     0.0     0.0     0.1     0.1     0.1     0.1     0.1     0.1    -0.0
    -0.0     0.1     0.1     0.0    -0.1    -0.0     0.1     0.0     0.1     0.1
     0.0     0.2     0.2    -0.1     0.1     0.1     0.0     0.0    -0.0     0.1
     0.1    -0.1     0.1     0.3     0.1    -0.2    -0.1     0.1     0.1     0.0
    -0.1     0.2     0.0    -0.1     0.0    -0.1     0.0     0.0     0.1    -0.0
    -0.1     0.1     0.0     0.1     0.1    -0.1     0.1     0.1     0.0    -0.0
    -0.1    -0.1     0.1     0.1    -0.2    -0.0    -0.0    -0.0     0.2    -0.2
    -0.2     0.1    -0.1     0.1     0.2    -0.1    -0.1     0.0     0.1     0.1
     0.1    -0.0     0.0     0.0     0.0     0.1    -0.0     0.0     0.0    -0.0
     0.1    -0.1    -0.0     0.1     0.0    -0.0    -0.1     0.0    -0.0     0.0
     0.1     0.1     0.4     0.2     0.2     0.1    -0.1     0.1    -0.1     0.0
     0.1    -0.2    -0.1     0.0     0.0     0.1     0.0     0.1     0.1    -0.0
     0.1    -0.0    -0.2    -0.0     0.1     0.1     0.0    -0.1    -0.1     0.1
     0.1     0.0     0.1     0.2     0.1    -0.1    -0.1     0.1     0.1     0.0
    -0.0    -0.1    -0.1     0.1    -0.0     0.0     0.3    -0.2    -0.2     0.1
    -0.0    -0.0    -0.1    -0.1    -0.1    -0.1    -0.0     0.0    -0.1    -0.2
    -0.1    -0.1    -0.2     0.0     0.0     0.1     0.1     0.1     0.2     0.2
     0.0    -0.0     0.1     0.1     0.1     0.1    -0.0     0.1     0.1     0.1
    -0.0    -0.1     0.1     0.0     0.1     0.0    -0.2     0.1    -0.1    -0.1
    -0.1    -0.1     0.1     0.1     0.0     0.0    -0.0     0.1     0.2     0.0
     0.1     0.2     0.0     0.2     0.1    -0.1     0.1    -0.1    -0.1     0.1
     0.0     0.0     0.0    -0.1     0.1     0.2     0.1     0.1     0.1     0.1
    -0.0     0.2     0.1    -0.2    -0.1    -0.1    -0.0     0.1     0.0     0.1
     0.2     0.1     0.1     0.1     0.1     0.1    -0.0    -0.2    -0.1    -0.1
    -0.0     0.2     0.0     0.0     0.1    -0.2    -0.0     0.1    -0.0     0.1
    -0.1    -0.1     0.2     0.0    -0.0    -0.0     0.0     0.0    -0.1    -0.0
    -0.1    -0.0     0.0    -0.2     0.0     0.2    -0.1    -0.1    -0.1     0.0
     0.2     0.1     0.1     0.1     0.1     0.1    -0.0     0.0     0.1     0.0
    -0.0     0.1     0.1    -0.2     0.1     0.2    -0.0     0.2     0.1    -0.2
    -0.1    -0.0     0.0    -0.0     0.1    -0.1    -0.2    -0.0     0.0     0.1
     0.1     0.1     0.1     0.1     0.1    -0.1    -0.0     0.0     0.1     0.2
    -0.0    -0.0     0.2     0.3     0.2     0.1     0.1    -0.0    -0.0    -0.1
    -0.1     0.1     0.1    -0.0     0.1    -0.0    -0.2    -0.0    -0.1    -0.1
    -0.0    -0.1     0.1     0.0    -0.1     0.0     0.0    -0.1    -0.1     0.1
     0.1    -0.1    -0.3    -0.0    -0.1    -0.0     0.1    -0.0     0.1     0.1
    -0.1     0.0    -0.0     0.0     0.1    -0.3    -0.3    -0.1    -0.0     0.0
     0.0     0.0    -0.0     0.0     0.1     0.1     0.1     0.0    -0.0    -0.1
    -0.0    -0.0    -0.1    -0.1    -0.0     0.1    -0.1    -0.1     0.0    -0.1
     0.0    -0.1    -0.1     0.1     0.0     0.0     0.2     0.2     0.2     0.1
     0.0     0.0    -0.0     0.1     0.0    -0.1     0.0     0.0     0.0    -0.0
     0.1     0.0    -0.1     0.1    -0.1    -0.1     0.1    -0.0     0.0    -0.0
    -0.1    -0.0     0.1     0.1     0.1     0.0    -0.2     0.1     0.2     0.1
     0.2     0.1     0.0     0.0    -0.0    -0.1    -0.1     0.0    -0.1     0.0
     0.1     0.1     0.2     0.1    -0.0     0.2     0.3     0.1     0.1     0.1
    -0.0     0.1     0.1     0.1     0.2     0.2     0.2     0.1     0.1     0.1
    -0.1     0.0     0.3     0.0     0.0     0.2    -0.0    -0.1    -0.1     0.2
     0.2    -0.1     0.2     0.2     0.0     0.3     0.2     0.1     0.1     0.0
     0.0    -0.0     0.1     0.2    -0.1     0.1     0.1    -0.1     0.1     0.1
    -0.1     0.0    -0.0     0.1     0.0    -0.1     0.1     0.1     0.1     0.0
    -0.2    -0.1    -0.0     0.1    -0.1    -0.1     0.0     0.0    -0.0     0.0
    -0.0     0.0     0.1     0.1     0.1     0.1     0.2     0.1    -0.0     0.1
    -0.1    -0.0     0.1    -0.1     0.1     0.1     0.0     0.0     0.0     0.1
     0.0     0.0     0.2     0.1    -0.1    -0.0     0.0    -0.0     0.1     0.0
    -0.1    -0.2    -0.1     0.1    -0.1    -0.1     0.0    -0.1    -0.2     0.1
     0.2     0.0    -0.1    -0.0     0.1     0.2     0.1    -0.0    -0.2    -0.1
    -0.0    -0.0     0.1     0.1     0.1     0.0    -0.1     0.0     0.1     0.1
     0.0    -0.0     0.1     0.1    -0.1    -0.1     0.1     0.1     0.2     0.1
    -0.1     0.1     0.2     0.1     0.0     0.1     0.1    -0.0    -0.1    -0.1
     0.3     0.1    -0.1     0.0     0.0     0.0    -0.0     0.0     0.1     0.0
     0.3     0.2    -0.0     0.1     0.1     0.0    -0.0     0.1     0.1    -0.1
     0.1    -0.0     0.0     0.2     0.1     0.1    -0.0    -0.1    -0.0     0.1
     0.0    -0.2    -0.1     0.1     0.2     0.1     0.0    -0.0     0.1    -0.0
    -0.2     0.1     0.1    -0.1     0.0     0.0     0.1     0.0    -0.0     0.1
     0.1     0.2     0.1     0.1     0.1     0.1     0.3     0.1     0.1     0.1
     0.1     0.2     0.1     0.0     0.1     0.1     0.1     0.0     0.1    -0.0
     0.2     0.2     0.0     0.2     0.0    -0.0    -0.0    -0.0     0.2     0.1
    -0.1     0.1     0.3     0.1    -0.1    -0.1     0.1     0.1    -0.1     0.3
     0.3     0.0     0.1     0.0     0.1    -0.0    -0.0     0.1    -0.0     0.0
     0.1    -0.0    -0.2    -0.2     0.1    -0.0    -0.1     0.1    -0.0    -0.1
     0.1     0.2     0.0     0.1     0.1    -0.0     0.1     0.1     0.0     0.1
     0.1     0.2     0.1    -0.1     0.2     0.2    -0.1    -0.1     0.0     0.1
    -0.0    -0.0     0.0    -0.2    -0.1     0.1     0.0     0.1     0.1    -0.0
     0.1     0.0     0.0     0.1     0.1     0.0     0.1     0.0    -0.3     0.1
     0.2    -0.2    -0.1    -0.0    -0.2    -0.1    -0.1    -0.0     0.0    -0.0
    -0.1     0.1     0.2     0.1     0.0     0.1     0.1    -0.0     0.1    -0.1
    -0.1     0.1    -0.0     0.2     0.1     0.0     0.2     0.1     0.2     0.1
     0.0    -0.1    -0.0     0.2     0.1     0.1     0.2     0.1     0.2     0.0
    -0.0     0.2     0.2     0.1    -0.1    -0.0     0.1     0.1     0.1     0.1
    -0.1     0.1     0.3     0.1    -0.1     0.1     0.1     0.0     0.1    -0.0
     0.1     0.0    -0.3    -0.1     0.2     0.0    -0.0    -0.0     0.0     0.2
     0.2     0.1     0.1     0.2     0.2     0.1     0.1     0.0    -0.0     0.1
     0.1     0.2     0.2     0.1     0.0     0.1     0.1     0.1     0.2     0.1
     0.2     0.1    -0.0     0.2     0.2     0.1     0.1     0.1     0.2     0.2
     0.1     0.0    -0.1    -0.0     0.1     0.0     0.0     0.1    -0.0    -0.1
     0.1     0.2     0.1     0.2     0.3     0.1     0.1     0.2     0.1     0.0
    -0.0    -0.0    -0.1    -0.0     0.1     0.1     0.1     0.1    -0.1    -0.0
     0.1    -0.0    -0.1    -0.0     0.0     0.0     0.1     0.1    -0.0    -0.0
     0.2     0.3     0.1     0.1     0.1     0.1    -0.0    -0.1     0.2     0.0
    -0.0     0.1     0.1     0.1     0.2     0.1     0.0    -0.1     0.0     0.1
    -0.1    -0.2     0.0     0.0    -0.0     0.1     0.0    -0.0    -0.1     0.0
     0.2     0.0     0.1     0.1    -0.2    -0.2     0.1     0.1     0.0     0.1
     0.0     0.3     0.2    -0.1    -0.1    -0.1     0.1    -0.1    -0.0     0.1
    -0.1     0.1     0.1     0.1     0.1    -0.0     0.0    -0.2    -0.1     0.1
    -0.1     0.1     0.2     0.1    -0.1    -0.1     0.1     0.1     0.1    -0.1
    -0.1     0.1     0.0     0.1    -0.1     0.0     0.1    -0.0     0.1     0.0
    -0.0     0.2     0.0     0.1     0.1    -0.1     0.1    -0.0     0.1     0.0
     0.1     0.2    -0.0     0.1     0.0    -0.1     0.0    -0.1     0.1     0.0
     0.0     0.1    -0.1    -0.0    -0.1    -0.1     0.1     0.0     0.0    -0.1
    -0.1    -0.0    -0.2    -0.2    -0.1    -0.0    -0.0     0.1     0.1    -0.0
    -0.1    -0.1     0.1     0.0     0.1     0.1    -0.1    -0.0     0.1     0.0
     0.1     0.3     0.2     0.1     0.3     0.1     0.1     0.3     0.1     0.1
     0.1     0.1    -0.1    -0.0     0.1    -0.1     0.0     0.1     0.0     0.1
     0.1     0.1     0.0     0.1     0.0     0.1     0.2     0.0     0.1     0.1
