Uncorrected accelerogram 20161113_110256_FKPS_20 GNS Science
Site FKPS      41 17 17S  174 46 44E     Cusp file:  20161113_110333_FKPS
Wellington Frank Kitts Park
Instrument Cusp_42250
Resolution: 18-bit   Instr Period: 0.0050 s   Damping: 0.700
Accelerogram 20161113_110256_FKPS_20                 Processed 2016 December 09
5 km south-west of Waiau
2016 November 13         11:02:56 UT
Epicentre  42 41 33S 173 01 19E  Bearing S42W  Dist  213km  Depth   15km Mw 7.82
Number of points  55466    Duration 277.32 s
Raw readings in units of 1.00 mm/s/s  at intervals of 0.005 s
Data is unfiltered
Component S81W
Acceleration:  Peak   1578.9 mm/s/s at 110.59 s     RMS   144.39 mm/s/s
Velocity record unevaluated
Displacement record unevaluated
    2016      11      13      11       2     560       0       0    2016      11
      42      41      33     173       1      19      15       0      13      11
      41      17      17     174      46      44     261     261     222     213
   55466       0       0   55466       0       0       0       0       2   53053
   200.0    0.70    0.00   0.000  0.0000   0.000   0.000   1.000     0.0    0.00
  41.288 174.779  42.693 173.022    7.82    0.00    0.00    0.00      0.      0.
  277.32    0.00    0.00  277.32  0.0050  0.0050      0.      0.      0.  9806.6
  1578.9  110.59   144.4      0.      0.     0.0    0.00     0.0     0.0   0.000
    0.00    0.00    0.00    0.00   0.000    0.00    0.00    0.00    0.00   0.000
   0.000   0.000   0.000      0.      0.   0.000   0.000   0.000      0.      0.
    -0.5    -0.3    -0.5    -0.5    -0.2    -0.3    -0.2    -0.4    -0.5    -0.3
    -0.5    -0.5    -0.4    -0.7    -0.4    -0.4    -0.6    -0.3    -0.3    -0.5
    -0.5    -0.5    -0.4    -0.4    -0.3    -0.4    -0.5    -0.4    -0.4    -0.4
    -0.3    -0.4    -0.6    -0.3    -0.2    -0.5    -0.4    -0.4    -0.4    -0.2
    -0.3    -0.4    -0.4    -0.4    -0.6    -0.5    -0.3    -0.5    -0.4    -0.5
    -0.6    -0.3    -0.5    -0.5    -0.5    -0.5    -0.4    -0.4    -0.5    -0.5
    -0.3    -0.3    -0.5    -0.4    -0.4    -0.6    -0.5    -0.3    -0.2    -0.2
    -0.4    -0.4    -0.5    -0.4    -0.4    -0.3    -0.3    -0.4    -0.2    -0.2
    -0.4    -0.4    -0.3    -0.2    -0.2    -0.6    -0.6    -0.3    -0.3    -0.3
    -0.4    -0.3    -0.2    -0.5    -0.5    -0.4    -0.5    -0.3    -0.4    -0.4
    -0.5    -0.5    -0.4    -0.6    -0.5    -0.4    -0.5    -0.4    -0.3    -0.2
    -0.4    -0.4    -0.4    -0.6    -0.3    -0.3    -0.4    -0.2    -0.3    -0.3
    -0.4    -0.5    -0.3    -0.3    -0.3    -0.3    -0.3    -0.5    -0.5    -0.5
    -0.4    -0.2    -0.3    -0.3    -0.3    -0.4    -0.4    -0.4    -0.4    -0.3
    -0.2    -0.3    -0.2    -0.2    -0.3    -0.2    -0.2    -0.5    -0.4    -0.2
    -0.3    -0.3    -0.3    -0.3    -0.3    -0.5    -0.5    -0.2    -0.3    -0.2
    -0.2    -0.5    -0.6    -0.3    -0.2    -0.5    -0.4    -0.4    -0.6    -0.2
    -0.3    -0.6    -0.3    -0.3    -0.4    -0.3    -0.3    -0.4    -0.5    -0.4
    -0.2    -0.3    -0.6    -0.4    -0.3    -0.5    -0.3    -0.3    -0.5    -0.3
    -0.4    -0.4    -0.4    -0.5    -0.4    -0.5    -0.4    -0.5    -0.4    -0.2
    -0.4    -0.4    -0.4    -0.4    -0.3    -0.4    -0.4    -0.5    -0.5    -0.3
    -0.3    -0.3    -0.3    -0.3    -0.4    -0.5    -0.3    -0.3    -0.3    -0.6
    -0.5    -0.4    -0.5    -0.3    -0.3    -0.5    -0.3    -0.4    -0.5    -0.4
    -0.4    -0.4    -0.4    -0.3    -0.1    -0.4    -0.3    -0.3    -0.5    -0.3
    -0.3    -0.5    -0.5    -0.4    -0.5    -0.5    -0.3    -0.3    -0.3    -0.3
    -0.5    -0.5    -0.4    -0.5    -0.5    -0.5    -0.4    -0.2    -0.3    -0.4
    -0.3    -0.5    -0.4    -0.2    -0.3    -0.4    -0.3    -0.4    -0.5    -0.5
    -0.4    -0.4    -0.4    -0.4    -0.4    -0.4    -0.4    -0.4    -0.4    -0.4
    -0.1    -0.4    -0.5    -0.3    -0.4    -0.4    -0.4    -0.3    -0.1    -0.4
    -0.3    -0.3    -0.4    -0.3    -0.4    -0.5    -0.5    -0.3    -0.3    -0.3
    -0.3    -0.4    -0.3    -0.3    -0.4    -0.4    -0.3    -0.4    -0.4    -0.2
    -0.2    -0.2    -0.1    -0.3    -0.4    -0.4    -0.2    -0.2    -0.3    -0.4
    -0.4    -0.3    -0.4    -0.4    -0.2    -0.2    -0.4    -0.3    -0.2    -0.4
    -0.3    -0.1    -0.2    -0.2    -0.4    -0.2    -0.4    -0.4    -0.1    -0.2
    -0.3    -0.2    -0.3    -0.4    -0.4    -0.2    -0.2    -0.4    -0.4    -0.3
    -0.5    -0.5    -0.3    -0.3    -0.1    -0.3    -0.5    -0.4    -0.3    -0.4
    -0.4    -0.1    -0.3    -0.4    -0.1    -0.1    -0.4    -0.5    -0.3    -0.3
    -0.3    -0.3    -0.5    -0.2    -0.3    -0.5    -0.4    -0.4    -0.4    -0.3
    -0.3    -0.4    -0.5    -0.5    -0.3    -0.4    -0.4    -0.3    -0.3    -0.3
    -0.4    -0.4    -0.3    -0.4    -0.4    -0.2    -0.3    -0.2    -0.1    -0.2
    -0.1    -0.3    -0.4    -0.2    -0.3    -0.3    -0.4    -0.5    -0.4    -0.4
    -0.6    -0.6    -0.6    -0.5    -0.5    -0.6    -0.5    -0.3    -0.3    -0.5
    -0.4    -0.4    -0.6    -0.6    -0.3    -0.4    -0.6    -0.4    -0.3    -0.4
    -0.3    -0.3    -0.3    -0.2    -0.3    -0.4    -0.4    -0.4    -0.4    -0.4
    -0.5    -0.4    -0.5    -0.5    -0.5    -0.6    -0.6    -0.4    -0.6    -0.5
    -0.2    -0.4    -0.4    -0.2    -0.4    -0.5    -0.3    -0.3    -0.4    -0.2
    -0.3    -0.6    -0.4    -0.2    -0.4    -0.3    -0.3    -0.4    -0.2    -0.2
    -0.4    -0.3    -0.2    -0.3    -0.4    -0.4    -0.4    -0.4    -0.4    -0.2
    -0.2    -0.3    -0.3    -0.3    -0.4    -0.4    -0.5    -0.5    -0.3    -0.3
    -0.4    -0.4    -0.3    -0.2    -0.3    -0.4    -0.3    -0.1    -0.3    -0.4
    -0.4    -0.3    -0.3    -0.5    -0.4    -0.2    -0.4    -0.3    -0.2    -0.5
    -0.4    -0.2    -0.4    -0.4    -0.5    -0.5    -0.2    -0.3    -0.3    -0.4
    -0.5    -0.3    -0.3    -0.3    -0.2    -0.4    -0.4    -0.4    -0.4    -0.3
    -0.2    -0.2    -0.3    -0.3    -0.5    -0.4    -0.2    -0.3    -0.3    -0.3
    -0.3    -0.5    -0.3    -0.4    -0.4    -0.2    -0.5    -0.5    -0.4    -0.5
    -0.5    -0.5    -0.5    -0.5    -0.3    -0.2    -0.4    -0.3    -0.4    -0.5
    -0.5    -0.5    -0.4    -0.4    -0.4    -0.3    -0.2    -0.3    -0.4    -0.4
    -0.3    -0.2    -0.3    -0.5    -0.4    -0.4    -0.2     0.0    -0.1    -0.2
    -0.2    -0.3    -0.4    -0.4    -0.2    -0.3    -0.4    -0.3    -0.6    -0.5
    -0.2    -0.2    -0.2    -0.3    -0.4    -0.3    -0.4    -0.5    -0.4    -0.4
    -0.5    -0.4    -0.3    -0.4    -0.3    -0.3    -0.4    -0.2    -0.3    -0.4
    -0.4    -0.3    -0.3    -0.4    -0.4    -0.2    -0.3    -0.4    -0.4    -0.4
    -0.4    -0.3    -0.4    -0.3    -0.4    -0.3    -0.4    -0.4    -0.2    -0.3
    -0.6    -0.5    -0.4    -0.4    -0.4    -0.4    -0.4    -0.5    -0.4    -0.4
    -0.4    -0.2    -0.2    -0.3    -0.4    -0.3    -0.3    -0.5    -0.4    -0.4
    -0.4    -0.4    -0.4    -0.3    -0.3    -0.3    -0.3    -0.5    -0.3    -0.2
    -0.3    -0.2    -0.3    -0.3    -0.3    -0.4    -0.5    -0.3    -0.3    -0.4
    -0.4    -0.3    -0.2    -0.4    -0.5    -0.4    -0.5    -0.5    -0.4    -0.3
    -0.3    -0.3    -0.3    -0.3    -0.3    -0.5    -0.5    -0.4    -0.3    -0.3
    -0.3    -0.3    -0.4    -0.3    -0.3    -0.4    -0.4    -0.2    -0.6    -0.6
    -0.3    -0.5    -0.4    -0.4    -0.5    -0.5    -0.4    -0.3    -0.4    -0.4
    -0.5    -0.5    -0.4    -0.4    -0.5    -0.5    -0.3    -0.5    -0.6    -0.5
    -0.4    -0.6    -0.6    -0.3    -0.4    -0.5    -0.3    -0.5    -0.3    -0.3
    -0.5    -0.4    -0.4    -0.3    -0.4    -0.5    -0.3    -0.3    -0.5    -0.5
    -0.3    -0.3    -0.4    -0.3    -0.1    -0.2    -0.3    -0.4    -0.4    -0.4
    -0.4    -0.3    -0.4    -0.4    -0.4    -0.4    -0.5    -0.5    -0.5    -0.4
    -0.3    -0.5    -0.5    -0.3    -0.3    -0.3    -0.4    -0.4    -0.4    -0.3
    -0.4    -0.4    -0.3    -0.4    -0.6    -0.4    -0.3    -0.6    -0.5    -0.2
    -0.4    -0.6    -0.5    -0.4    -0.4    -0.4    -0.3    -0.2    -0.3    -0.4
    -0.4    -0.3    -0.2    -0.3    -0.4    -0.4    -0.5    -0.5    -0.4    -0.4
    -0.4    -0.4    -0.5    -0.5    -0.3    -0.3    -0.3    -0.4    -0.3    -0.3
    -0.4    -0.4    -0.3    -0.3    -0.3    -0.3    -0.3    -0.3    -0.3    -0.3
    -0.2    -0.2    -0.3    -0.4    -0.4    -0.3    -0.4    -0.5    -0.5    -0.4
    -0.4    -0.4    -0.4    -0.4    -0.3    -0.4    -0.4    -0.3    -0.2    -0.2
    -0.3    -0.4    -0.5    -0.2    -0.3    -0.4    -0.2    -0.3    -0.2    -0.1
    -0.4    -0.4    -0.4    -0.4    -0.4    -0.5    -0.4    -0.4    -0.4    -0.3
    -0.4    -0.3    -0.3    -0.3    -0.3    -0.3    -0.4    -0.5    -0.3    -0.3
    -0.4    -0.2    -0.4    -0.4    -0.4    -0.6    -0.5    -0.3    -0.3    -0.4
    -0.5    -0.4    -0.5    -0.4    -0.3    -0.3    -0.2    -0.4    -0.5    -0.4
    -0.4    -0.4    -0.3    -0.4    -0.5    -0.5    -0.4    -0.4    -0.4    -0.4
    -0.4    -0.3    -0.3    -0.3    -0.4    -0.3    -0.3    -0.4    -0.4    -0.4
    -0.3    -0.5    -0.4    -0.2    -0.4    -0.4    -0.4    -0.3    -0.4    -0.5
    -0.3    -0.4    -0.4    -0.2    -0.3    -0.2    -0.2    -0.4    -0.3    -0.2
    -0.3    -0.3    -0.3    -0.3    -0.3    -0.5    -0.3    -0.1    -0.4    -0.4
    -0.3    -0.3    -0.4    -0.4    -0.3    -0.3    -0.4    -0.5    -0.4    -0.4
    -0.3    -0.3    -0.4    -0.5    -0.3    -0.3    -0.5    -0.4    -0.3    -0.3
    -0.5    -0.5    -0.5    -0.4    -0.3    -0.5    -0.4    -0.2    -0.3    -0.4
    -0.4    -0.3    -0.2    -0.3    -0.3    -0.4    -0.4    -0.2    -0.3    -0.2
    -0.3    -0.4    -0.3    -0.3    -0.3    -0.3    -0.2    -0.3    -0.3    -0.2
    -0.3    -0.3    -0.4    -0.4    -0.2    -0.2    -0.4    -0.2    -0.4    -0.4
    -0.3    -0.5    -0.4    -0.1    -0.2    -0.4    -0.3    -0.3    -0.3    -0.3
    -0.3    -0.3    -0.3    -0.2    -0.2    -0.3    -0.4    -0.3    -0.3    -0.3
    -0.3    -0.3    -0.3    -0.4    -0.4    -0.4    -0.3    -0.1    -0.3    -0.3
    -0.2    -0.4    -0.4    -0.3    -0.4    -0.3    -0.2    -0.3    -0.3    -0.3
    -0.3    -0.5    -0.5    -0.3    -0.4    -0.4    -0.4    -0.5    -0.3    -0.3
    -0.4    -0.4    -0.3    -0.3    -0.3    -0.3    -0.3    -0.3    -0.4    -0.4
    -0.4    -0.4    -0.3    -0.3    -0.3    -0.5    -0.5    -0.4    -0.5    -0.5
    -0.3    -0.3    -0.3    -0.2    -0.4    -0.5    -0.3    -0.4    -0.4    -0.5
    -0.4    -0.3    -0.4    -0.4    -0.3    -0.3    -0.3    -0.3    -0.4    -0.3
    -0.2    -0.3    -0.3    -0.3    -0.3    -0.3    -0.3    -0.3    -0.5    -0.5
    -0.4    -0.5    -0.3    -0.2    -0.3    -0.2    -0.4    -0.5    -0.4    -0.4
    -0.3    -0.3    -0.4    -0.3    -0.4    -0.3    -0.3    -0.2    -0.2    -0.2
    -0.3    -0.4    -0.4    -0.4    -0.3    -0.3    -0.3    -0.5    -0.4    -0.1
    -0.2    -0.3    -0.3    -0.4    -0.3    -0.4    -0.4    -0.3    -0.4    -0.4
    -0.4    -0.4    -0.3    -0.4    -0.3    -0.4    -0.5    -0.5    -0.5    -0.4
    -0.2    -0.1    -0.3    -0.4    -0.4    -0.2    -0.3    -0.3    -0.2    -0.3
    -0.3    -0.2    -0.2    -0.3    -0.3    -0.1    -0.2    -0.4    -0.3    -0.3
    -0.1     0.0    -0.1    -0.2    -0.3    -0.3    -0.2    -0.2    -0.4    -0.3
    -0.1    -0.3    -0.4    -0.3    -0.2    -0.2    -0.4    -0.4    -0.4    -0.4
    -0.3    -0.3    -0.5    -0.4    -0.4    -0.5    -0.2    -0.2    -0.3    -0.2
    -0.2    -0.3    -0.3    -0.2    -0.2    -0.2    -0.2    -0.2    -0.3    -0.2
    -0.3    -0.4    -0.3    -0.3    -0.3    -0.3    -0.3    -0.3    -0.2    -0.3
    -0.3    -0.4    -0.4    -0.2    -0.4    -0.3    -0.1    -0.3    -0.3    -0.3
    -0.3    -0.3    -0.3    -0.4    -0.4    -0.4    -0.4    -0.4    -0.4    -0.1
    -0.1    -0.3    -0.3    -0.3    -0.5    -0.2    -0.3    -0.3    -0.3    -0.4
    -0.3    -0.3    -0.2    -0.2    -0.5    -0.4    -0.3    -0.3    -0.2    -0.4
    -0.3    -0.3    -0.3    -0.2    -0.4    -0.3    -0.2    -0.4    -0.4    -0.3
    -0.3    -0.2    -0.2    -0.3    -0.2    -0.3    -0.4    -0.2    -0.3    -0.4
    -0.3    -0.3    -0.3    -0.3    -0.3    -0.4    -0.2    -0.4    -0.5    -0.2
    -0.5    -0.6    -0.4    -0.4    -0.4    -0.3    -0.4    -0.5    -0.4    -0.4
    -0.3    -0.2    -0.5    -0.5    -0.2    -0.5    -0.3    -0.2    -0.5    -0.2
    -0.1    -0.2    -0.1    -0.2    -0.3    -0.4    -0.4    -0.4    -0.3    -0.4
    -0.6    -0.5    -0.6    -0.4    -0.3    -0.3    -0.1    -0.2    -0.4    -0.4
    -0.3    -0.2    -0.3    -0.4    -0.3    -0.3    -0.3    -0.3    -0.3    -0.2
    -0.2    -0.3    -0.4    -0.3    -0.2    -0.3    -0.3    -0.3    -0.3    -0.2
    -0.2    -0.3    -0.2    -0.2    -0.2    -0.2    -0.3    -0.2    -0.2    -0.5
    -0.3    -0.2    -0.3    -0.4    -0.3    -0.2    -0.4    -0.3    -0.1    -0.6
    -0.4    -0.2    -0.4    -0.3    -0.4    -0.3    -0.2    -0.3    -0.3    -0.4
    -0.2    -0.3    -0.5    -0.2    -0.3    -0.4    -0.3    -0.4    -0.4    -0.4
    -0.4    -0.4    -0.4    -0.5    -0.4    -0.3    -0.5    -0.3    -0.2    -0.3
    -0.1    -0.3    -0.5    -0.4    -0.5    -0.3    -0.2    -0.4    -0.4    -0.4
    -0.4    -0.2    -0.3    -0.3    -0.4    -0.4    -0.4    -0.5    -0.4    -0.3
    -0.4    -0.5    -0.4    -0.3    -0.5    -0.4    -0.2    -0.4    -0.4    -0.5
    -0.6    -0.5    -0.4    -0.3    -0.3    -0.3    -0.3    -0.4    -0.3    -0.3
    -0.5    -0.3    -0.2    -0.5    -0.5    -0.3    -0.4    -0.4    -0.3    -0.4
    -0.4    -0.4    -0.5    -0.3    -0.2    -0.3    -0.3    -0.4    -0.5    -0.3
    -0.3    -0.3    -0.3    -0.3    -0.2    -0.4    -0.4    -0.4    -0.5    -0.4
    -0.3    -0.5    -0.4    -0.2    -0.4    -0.4    -0.3    -0.5    -0.3    -0.3
    -0.4    -0.2    -0.4    -0.4    -0.3    -0.3    -0.3    -0.4    -0.4    -0.5
    -0.4    -0.2    -0.3    -0.3    -0.3    -0.4    -0.4    -0.3    -0.2    -0.3
    -0.5    -0.4    -0.4    -0.2    -0.4    -0.6    -0.3    -0.3    -0.4    -0.2
    -0.4    -0.5    -0.4    -0.4    -0.3    -0.3    -0.4    -0.5    -0.6    -0.4
    -0.3    -0.5    -0.5    -0.3    -0.3    -0.5    -0.5    -0.5    -0.4    -0.2
    -0.4    -0.4    -0.3    -0.3    -0.3    -0.3    -0.5    -0.5    -0.3    -0.5
    -0.5    -0.3    -0.4    -0.5    -0.5    -0.4    -0.4    -0.6    -0.4    -0.4
    -0.5    -0.4    -0.4    -0.3    -0.3    -0.5    -0.5    -0.3    -0.3    -0.4
    -0.3    -0.2    -0.4    -0.4    -0.5    -0.4    -0.2    -0.4    -0.5    -0.4
    -0.3    -0.5    -0.4    -0.3    -0.5    -0.3    -0.4    -0.3    -0.2    -0.3
    -0.3    -0.5    -0.4    -0.4    -0.4    -0.3    -0.4    -0.3    -0.1    -0.1
    -0.2    -0.4    -0.3    -0.3    -0.3    -0.3    -0.4    -0.3    -0.3    -0.5
    -0.5    -0.4    -0.3    -0.1    -0.3    -0.4    -0.4    -0.3    -0.2    -0.4
    -0.4    -0.3    -0.5    -0.4    -0.2    -0.6    -0.7    -0.5    -0.4    -0.3
    -0.3    -0.5    -0.4    -0.3    -0.3    -0.2    -0.4    -0.5    -0.3    -0.5
    -0.4    -0.2    -0.3    -0.3    -0.2    -0.4    -0.5    -0.3    -0.3    -0.4
    -0.4    -0.4    -0.4    -0.4    -0.3    -0.2    -0.2    -0.3    -0.4    -0.5
    -0.4    -0.4    -0.5    -0.5    -0.5    -0.3    -0.2    -0.3    -0.2    -0.3
    -0.3    -0.3    -0.3    -0.3    -0.2    -0.2    -0.4    -0.4    -0.5    -0.4
    -0.2    -0.5    -0.4    -0.3    -0.5    -0.5    -0.4    -0.3    -0.5    -0.5
    -0.3    -0.3    -0.4    -0.4    -0.4    -0.5    -0.6    -0.4    -0.4    -0.4
    -0.4    -0.4    -0.4    -0.5    -0.4    -0.4    -0.5    -0.3    -0.4    -0.4
    -0.4    -0.4    -0.5    -0.5    -0.4    -0.3    -0.3    -0.5    -0.4    -0.3
    -0.4    -0.4    -0.4    -0.4    -0.4    -0.5    -0.6    -0.4    -0.3    -0.5
    -0.3    -0.2    -0.3    -0.3    -0.5    -0.4    -0.5    -0.6    -0.4    -0.5
    -0.5    -0.3    -0.3    -0.3    -0.4    -0.3    -0.4    -0.5    -0.3    -0.4
    -0.5    -0.4    -0.4    -0.4    -0.4    -0.4    -0.3    -0.3    -0.3    -0.3
    -0.4    -0.4    -0.5    -0.5    -0.5    -0.5    -0.4    -0.4    -0.4    -0.3
    -0.4    -0.6    -0.4    -0.3    -0.3    -0.3    -0.4    -0.4    -0.3    -0.3
    -0.3    -0.3    -0.3    -0.4    -0.3    -0.3    -0.4    -0.3    -0.4    -0.4
    -0.2    -0.4    -0.4    -0.4    -0.5    -0.4    -0.5    -0.5    -0.4    -0.4
    -0.4    -0.5    -0.3    -0.2    -0.3    -0.3    -0.3    -0.3    -0.4    -0.3
    -0.4    -0.5    -0.3    -0.4    -0.4    -0.2    -0.5    -0.4    -0.2    -0.3
    -0.2    -0.2    -0.4    -0.2    -0.5    -0.4    -0.2    -0.3    -0.4    -0.5
    -0.4    -0.3    -0.5    -0.5    -0.5    -0.3    -0.2    -0.4    -0.4    -0.4
    -0.4    -0.3    -0.2    -0.2    -0.3    -0.3    -0.3    -0.2    -0.4    -0.5
    -0.4    -0.6    -0.4    -0.3    -0.4    -0.2    -0.4    -0.4    -0.1    -0.4
    -0.5    -0.4    -0.3    -0.3    -0.2    -0.3    -0.4    -0.3    -0.6    -0.5
    -0.3    -0.5    -0.5    -0.4    -0.3    -0.4    -0.5    -0.4    -0.3    -0.5
    -0.5    -0.3    -0.3    -0.3    -0.4    -0.4    -0.3    -0.5    -0.4    -0.4
    -0.5    -0.4    -0.4    -0.4    -0.4    -0.4    -0.3    -0.3    -0.2    -0.3
    -0.4    -0.5    -0.6    -0.5    -0.2    -0.3    -0.4    -0.3    -0.4    -0.2
    -0.3    -0.4    -0.4    -0.4    -0.4    -0.4    -0.3    -0.3    -0.4    -0.2
    -0.4    -0.5    -0.2    -0.4    -0.4    -0.3    -0.5    -0.4    -0.4    -0.4
    -0.4    -0.5    -0.2    -0.1    -0.4    -0.3    -0.3    -0.2    -0.3    -0.4
    -0.3    -0.5    -0.5    -0.4    -0.4    -0.4    -0.6    -0.4    -0.3    -0.5
    -0.4    -0.5    -0.4    -0.2    -0.4    -0.2    -0.3    -0.4    -0.2    -0.2
    -0.3    -0.3    -0.4    -0.2    -0.4    -0.4    -0.2    -0.4    -0.5    -0.4
    -0.5    -0.4    -0.2    -0.4    -0.5    -0.4    -0.5    -0.3    -0.5    -0.4
    -0.1    -0.4    -0.4    -0.2    -0.5    -0.3    -0.3    -0.4    -0.2    -0.3
    -0.3    -0.3    -0.4    -0.4    -0.4    -0.5    -0.5    -0.3    -0.2    -0.3
    -0.4    -0.3    -0.4    -0.4    -0.3    -0.5    -0.5    -0.3    -0.3    -0.4
    -0.4    -0.3    -0.4    -0.4    -0.4    -0.2    -0.3    -0.4    -0.3    -0.4
    -0.4    -0.5    -0.5    -0.4    -0.4    -0.2    -0.3    -0.5    -0.6    -0.4
    -0.4    -0.5    -0.5    -0.4    -0.5    -0.6    -0.6    -0.5    -0.3    -0.4
    -0.3    -0.3    -0.4    -0.4    -0.5    -0.4    -0.3    -0.4    -0.4    -0.4
    -0.3    -0.2    -0.3    -0.4    -0.4    -0.3    -0.4    -0.3    -0.2    -0.4
    -0.5    -0.5    -0.5    -0.4    -0.3    -0.3    -0.3    -0.1    -0.3    -0.5
    -0.6    -0.5    -0.2    -0.3    -0.3    -0.3    -0.4    -0.4    -0.2    -0.4
    -0.5    -0.3    -0.4    -0.4    -0.3    -0.3    -0.3    -0.2    -0.2    -0.3
    -0.4    -0.4    -0.5    -0.4    -0.5    -0.5    -0.5    -0.3    -0.3    -0.4
    -0.4    -0.5    -0.5    -0.4    -0.3    -0.3    -0.5    -0.4    -0.5    -0.5
    -0.5    -0.5    -0.4    -0.4    -0.2    -0.1    -0.5    -0.5    -0.4    -0.6
    -0.6    -0.4    -0.3    -0.4    -0.4    -0.3    -0.5    -0.4    -0.3    -0.5
    -0.4    -0.4    -0.4    -0.3    -0.4    -0.4    -0.3    -0.4    -0.4    -0.4
    -0.3    -0.4    -0.4    -0.3    -0.3    -0.4    -0.4    -0.4    -0.5    -0.5
    -0.5    -0.4    -0.3    -0.5    -0.5    -0.4    -0.4    -0.4    -0.4    -0.3
    -0.4    -0.4    -0.3    -0.3    -0.2    -0.3    -0.4    -0.2    -0.1    -0.3
    -0.4    -0.4    -0.4    -0.3    -0.3    -0.4    -0.4    -0.4    -0.5    -0.3
    -0.4    -0.5    -0.4    -0.3    -0.4    -0.5    -0.4    -0.4    -0.5    -0.3
    -0.4    -0.5    -0.3    -0.5    -0.5    -0.2    -0.3    -0.4    -0.4    -0.4
    -0.4    -0.6    -0.6    -0.4    -0.3    -0.4    -0.6    -0.4    -0.3    -0.4
    -0.5    -0.6    -0.4    -0.3    -0.4    -0.5    -0.5    -0.5    -0.4    -0.3
    -0.3    -0.4    -0.5    -0.4    -0.3    -0.4    -0.4    -0.4    -0.5    -0.3
    -0.4    -0.5    -0.4    -0.5    -0.3    -0.5    -0.6    -0.3    -0.3    -0.4
    -0.4    -0.5    -0.3    -0.4    -0.5    -0.3    -0.3    -0.4    -0.4    -0.5
    -0.4    -0.5    -0.6    -0.3    -0.4    -0.5    -0.3    -0.3    -0.4    -0.5
    -0.4    -0.2    -0.3    -0.2    -0.3    -0.5    -0.4    -0.2    -0.4    -0.4
    -0.4    -0.3    -0.3    -0.5    -0.5    -0.4    -0.2    -0.4    -0.4    -0.2
