Uncorrected accelerogram 20161113_110256_LHES_20 GNS Science
Site LHES      41 12 42S  174 54 12E     Cusp file:  20161113_110333_LHES
Lower Hutt Emergency Management Office
Instrument Cusp_42214
Resolution: 18-bit   Instr Period: 0.0050 s   Damping: 0.700
Accelerogram 20161113_110256_LHES_20                 Processed 2016 December 09
5 km south-west of Waiau
2016 November 13         11:02:56 UT
Epicentre  42 41 33S 173 01 19E  Bearing S43W  Dist  227km  Depth   15km Mw 7.82
Number of points  56044    Duration 280.22 s
Raw readings in units of 1.00 mm/s/s  at intervals of 0.005 s
Data is unfiltered
Component S72E
Acceleration:  Peak   1645.2 mm/s/s at 106.85 s     RMS   140.94 mm/s/s
Velocity record unevaluated
Displacement record unevaluated
    2016      11      13      11       2     560       0       0    2016      11
      42      41      33     173       1      19      15       0      13      11
      41      12      42     174      54      12     108     108     223     227
   56044       0       0   56044       0       0       0       0       2   53563
   200.0    0.70    0.00   0.000  0.0000   0.000   0.000   1.000     0.0    0.00
  41.212 174.903  42.693 173.022    7.82    0.00    0.00    0.00      0.      0.
  280.22    0.00    0.00  280.22  0.0050  0.0050      0.      0.      0.  9806.6
  1645.2  106.85   140.9      0.      0.     0.0    0.00     0.0     0.0   0.000
    0.00    0.00    0.00    0.00   0.000    0.00    0.00    0.00    0.00   0.000
   0.000   0.000   0.000      0.      0.   0.000   0.000   0.000      0.      0.
     0.1     0.1     0.4     0.1     0.0     0.1     0.1     0.4     0.4     0.2
     0.1     0.1     0.0     0.1     0.0     0.2     0.2     0.2     0.2     0.1
     0.2     0.1     0.2     0.3     0.1     0.2     0.3     0.3     0.1     0.1
     0.3     0.1     0.1     0.1     0.0     0.1     0.2     0.2     0.1     0.1
     0.3     0.1    -0.0    -0.1    -0.0     0.3     0.3     0.1    -0.0     0.2
     0.2     0.1     0.2     0.1     0.2     0.4     0.2     0.2     0.3     0.2
     0.2     0.1    -0.1     0.1     0.2    -0.0     0.2     0.2     0.1     0.1
     0.0     0.1     0.1     0.1     0.3     0.3     0.4     0.2     0.0     0.1
    -0.0     0.1     0.2    -0.0     0.2     0.3     0.2     0.4     0.3     0.2
     0.2     0.0     0.2     0.2     0.0     0.2     0.4     0.4     0.2     0.2
     0.2     0.2     0.2     0.1     0.2     0.3     0.1     0.2     0.1    -0.1
    -0.1     0.3     0.3     0.1     0.3     0.2     0.1     0.2     0.1     0.0
     0.2     0.2     0.1     0.1     0.3     0.2     0.0     0.3     0.3     0.2
     0.2     0.1     0.2     0.2     0.2     0.1    -0.0     0.2     0.2     0.2
     0.1     0.2     0.2    -0.1     0.0     0.3     0.2     0.2     0.2     0.2
     0.3     0.3     0.0     0.1     0.1    -0.1     0.2     0.2     0.2     0.1
     0.2     0.3     0.2     0.1     0.1     0.2     0.2     0.3     0.5     0.2
     0.1     0.2     0.1     0.3     0.3     0.1     0.1     0.2     0.4     0.2
     0.1     0.3     0.1     0.1     0.1     0.1     0.1     0.1     0.3     0.2
     0.1     0.2     0.1     0.2     0.3     0.3     0.3     0.3     0.3     0.2
     0.2     0.1     0.2     0.3     0.2     0.3     0.3     0.2     0.2     0.2
     0.0    -0.1     0.1     0.2     0.1     0.1     0.3     0.1     0.1     0.3
     0.3    -0.0     0.1     0.4     0.2     0.1     0.2     0.2     0.2     0.3
     0.2     0.2     0.2     0.2     0.1     0.4     0.4     0.1     0.0     0.2
     0.1    -0.0     0.3     0.3     0.3     0.3     0.0     0.1     0.2    -0.0
     0.0     0.2     0.2     0.2     0.2     0.1     0.2     0.2     0.1     0.1
     0.2     0.2     0.1     0.2     0.4     0.2     0.2     0.2     0.2     0.2
     0.2     0.1     0.3     0.3     0.1     0.2     0.2     0.3     0.1     0.1
     0.3    -0.0    -0.0     0.2     0.3     0.3     0.2     0.1     0.1     0.3
     0.2     0.1     0.2     0.1     0.2     0.1     0.0     0.3     0.2     0.1
     0.1     0.1     0.1     0.2     0.1     0.2     0.2     0.2     0.3     0.1
     0.2     0.1    -0.0     0.1     0.2     0.2     0.1     0.2     0.2     0.2
     0.1     0.3     0.3     0.1     0.2     0.2     0.2     0.2     0.3     0.3
     0.2     0.1     0.0     0.2     0.2     0.2     0.4     0.3     0.2     0.3
     0.2     0.1     0.1     0.1     0.2     0.1     0.2     0.3     0.2     0.1
     0.1     0.1     0.0    -0.0     0.2     0.2     0.2     0.3     0.2     0.1
     0.1     0.1    -0.1     0.0     0.2     0.1     0.3     0.3     0.1    -0.1
    -0.1     0.1     0.1     0.1     0.2     0.0     0.0     0.2    -0.1    -0.1
     0.3     0.0    -0.1     0.3     0.3     0.0     0.1     0.3     0.2     0.2
     0.2     0.1     0.3     0.2     0.2     0.4     0.1     0.2     0.2    -0.1
     0.1     0.1     0.1     0.2     0.1     0.0     0.0     0.1     0.2     0.1
     0.1     0.2     0.2     0.1     0.3     0.3     0.1     0.1     0.0     0.1
     0.2     0.1     0.1     0.3     0.2     0.2     0.1     0.1     0.2     0.2
     0.1     0.1     0.1     0.1     0.1     0.1     0.0     0.0     0.3     0.2
     0.1     0.3     0.3     0.2     0.2     0.1     0.1     0.3     0.2     0.0
     0.2     0.3     0.2     0.3     0.2     0.1     0.1     0.1     0.1     0.1
     0.1     0.1     0.1     0.2     0.2     0.1    -0.0     0.0     0.0     0.1
     0.2    -0.0     0.0     0.1     0.0     0.2     0.3     0.2     0.1     0.2
     0.1    -0.0     0.1     0.0    -0.0     0.2     0.1     0.2     0.1    -0.0
     0.2     0.1     0.1     0.3     0.1     0.1     0.4     0.2     0.0    -0.0
     0.2     0.1     0.0     0.2     0.1     0.2     0.3     0.2     0.2     0.1
     0.0     0.1     0.1     0.1     0.1     0.0    -0.0     0.0    -0.0     0.1
     0.1    -0.1    -0.0     0.2     0.2     0.1     0.2     0.1     0.0     0.3
     0.3     0.2     0.0     0.2     0.3     0.4     0.1    -0.0     0.1    -0.2
    -0.2     0.2     0.1     0.1     0.3     0.1     0.1     0.0    -0.0     0.1
    -0.1     0.2     0.2     0.1     0.3     0.3     0.2     0.2     0.1     0.1
     0.1     0.1     0.1     0.2     0.2     0.2     0.1     0.2     0.3     0.1
     0.2     0.2     0.1     0.3     0.2     0.0     0.2    -0.1     0.1     0.3
     0.0     0.3     0.3     0.1     0.3     0.0    -0.0     0.1    -0.0     0.1
     0.1    -0.0     0.2     0.1    -0.0     0.0    -0.2     0.1     0.2    -0.0
     0.1     0.1     0.0     0.2     0.1    -0.0     0.1     0.1     0.1    -0.0
     0.1     0.0     0.0     0.1    -0.2     0.0     0.3     0.2     0.1     0.2
     0.1     0.0     0.0    -0.1     0.1     0.1    -0.1     0.1     0.2     0.0
     0.1     0.1    -0.1     0.1     0.2     0.1     0.3     0.1     0.1    -0.0
    -0.1    -0.0     0.2     0.2    -0.0     0.1     0.2     0.1     0.1    -0.0
     0.0     0.1    -0.2    -0.1     0.2     0.1     0.1     0.1    -0.0    -0.2
     0.0     0.0    -0.2     0.3     0.3     0.1     0.2     0.0     0.1     0.0
    -0.1    -0.0     0.1     0.2     0.1     0.2     0.1     0.0     0.1    -0.0
     0.1     0.1    -0.1     0.1     0.1     0.0     0.2    -0.0    -0.1     0.1
     0.0     0.1     0.2     0.2     0.2     0.2     0.2     0.1     0.2     0.3
     0.1     0.2     0.2    -0.0     0.0     0.1     0.0    -0.1     0.0    -0.0
     0.0     0.1     0.1     0.1     0.1     0.2     0.1     0.2     0.3     0.1
     0.1     0.2     0.1     0.3     0.1     0.1     0.1     0.0     0.1     0.1
     0.1     0.3     0.2     0.1     0.3     0.3     0.1     0.0     0.0     0.1
    -0.1     0.1     0.2    -0.0     0.3     0.2    -0.2     0.2     0.0    -0.1
     0.3     0.2     0.0     0.2     0.1     0.2     0.3     0.0     0.1     0.3
     0.1    -0.0     0.1     0.3     0.1     0.0     0.3     0.3     0.2    -0.1
     0.1     0.1     0.1     0.2    -0.0     0.1     0.2     0.0     0.3     0.2
     0.1     0.2     0.0     0.2     0.2     0.3     0.4     0.1     0.3     0.2
     0.1     0.4     0.1     0.2     0.3     0.2     0.3     0.2     0.1     0.1
    -0.0     0.2     0.0     0.1     0.3    -0.1    -0.0     0.1     0.0     0.1
     0.1     0.2    -0.0    -0.0     0.2     0.3     0.3     0.2     0.3     0.2
    -0.1     0.3     0.5     0.1     0.1     0.3     0.3     0.1     0.2     0.3
     0.1     0.1     0.1     0.2     0.2     0.3     0.2     0.0     0.1     0.1
     0.0     0.2     0.3     0.3     0.3     0.2    -0.1    -0.0     0.1     0.0
     0.2     0.2     0.2     0.2     0.2     0.3     0.1    -0.2     0.1     0.3
     0.1     0.2     0.2     0.3     0.4     0.1     0.1    -0.1    -0.0     0.3
     0.2     0.3     0.2     0.0     0.2     0.2     0.2     0.1     0.2     0.3
     0.0     0.1     0.3     0.3     0.2     0.2     0.1     0.2     0.2     0.1
     0.1     0.3     0.3     0.2     0.0    -0.0     0.1     0.3     0.2     0.1
     0.3     0.4     0.2     0.1     0.1     0.1     0.1     0.2     0.2     0.3
     0.3     0.1     0.1     0.1     0.1     0.2     0.2     0.0    -0.1     0.1
     0.2     0.1     0.1     0.2     0.1     0.2     0.2     0.1     0.1     0.1
    -0.0     0.1     0.3     0.1     0.2     0.3     0.1     0.1     0.0     0.0
     0.1     0.0     0.2     0.1     0.1     0.3     0.0     0.2     0.1    -0.1
     0.0    -0.0     0.1     0.0     0.1     0.2    -0.0     0.2     0.1     0.0
     0.4     0.2     0.1     0.2     0.2     0.3     0.2    -0.0     0.1    -0.2
    -0.1    -0.0     0.0     0.2     0.2     0.3     0.4     0.1     0.1     0.1
     0.1     0.1     0.3     0.3     0.2     0.4     0.3     0.0     0.1     0.1
     0.0     0.0     0.0     0.1     0.1     0.2     0.1    -0.0     0.2     0.2
     0.3     0.2     0.1     0.4     0.3     0.2     0.1     0.1     0.1     0.1
     0.3     0.0     0.1     0.4     0.4     0.2    -0.0     0.0     0.1     0.1
     0.1     0.1     0.4     0.4     0.3     0.2     0.1     0.2     0.2     0.2
     0.1     0.2     0.2     0.1     0.2     0.2     0.1     0.1     0.2     0.3
     0.2     0.1     0.1     0.0     0.1     0.2     0.1     0.0     0.2     0.2
     0.2     0.1     0.1     0.1     0.0     0.0     0.1     0.1     0.1     0.1
     0.2     0.2     0.2     0.2     0.1     0.1     0.1     0.1     0.0     0.1
     0.1     0.1     0.2     0.2     0.2     0.2     0.1     0.2     0.1     0.1
     0.2     0.1     0.0     0.1     0.3     0.0     0.2     0.3     0.0     0.0
     0.1    -0.0    -0.0     0.3     0.3     0.1     0.2     0.3     0.2     0.0
     0.1     0.0     0.0     0.2     0.2     0.2     0.2     0.1    -0.1     0.1
     0.1     0.2     0.3     0.3     0.2     0.0     0.2     0.1     0.1     0.2
     0.2     0.3     0.3     0.3     0.3     0.2     0.1     0.1     0.1     0.1
     0.3     0.1     0.1     0.2     0.0     0.2     0.1    -0.1     0.1     0.2
     0.2     0.3     0.3     0.2     0.3     0.2     0.1     0.1     0.1     0.2
     0.3     0.2     0.3     0.4     0.2     0.1     0.1     0.0     0.0     0.2
     0.1     0.2     0.4     0.0     0.1     0.2     0.0     0.1     0.0     0.2
     0.2     0.1     0.4     0.1     0.1     0.3     0.2     0.2     0.2     0.2
     0.1     0.2     0.3     0.3     0.1    -0.1     0.0     0.1     0.2     0.1
     0.1     0.2     0.2     0.1     0.3     0.1     0.0     0.3     0.1     0.0
     0.3     0.1     0.1     0.3     0.0     0.1     0.3     0.1     0.3     0.3
     0.3     0.4     0.3     0.2     0.2     0.2     0.2     0.3     0.1     0.1
     0.1     0.1     0.1     0.2     0.3     0.2    -0.0     0.0     0.3     0.2
     0.1     0.2     0.1     0.1     0.2     0.2     0.1     0.1     0.1     0.1
     0.1     0.0     0.1     0.2     0.2     0.2     0.1     0.0    -0.0    -0.1
    -0.1     0.1     0.2     0.3     0.0    -0.1     0.4     0.3     0.1     0.1
     0.1     0.3     0.1     0.1     0.1     0.2     0.2     0.0    -0.0    -0.1
    -0.0     0.1     0.2     0.3     0.2     0.2     0.3     0.2     0.2     0.1
    -0.0     0.3     0.1    -0.1     0.2     0.1    -0.0     0.1    -0.0     0.2
     0.2     0.1     0.1     0.1     0.3     0.0    -0.1     0.2     0.2     0.1
     0.1     0.2     0.1     0.3     0.2     0.0     0.3     0.1    -0.0     0.1
     0.2     0.4     0.3     0.2     0.0     0.0     0.1     0.1     0.0     0.1
     0.3     0.1     0.1     0.3     0.1     0.1     0.1    -0.0     0.1     0.0
     0.2     0.3     0.1     0.2     0.3     0.2     0.3     0.2     0.1     0.1
     0.3     0.2     0.1     0.1     0.1     0.1    -0.0    -0.1     0.1     0.1
     0.2     0.2     0.1     0.2     0.2     0.1     0.2    -0.0    -0.0     0.2
     0.0     0.2     0.2     0.1     0.2     0.2     0.3     0.1     0.2     0.2
     0.2     0.1     0.0     0.1    -0.1     0.1     0.3     0.1     0.1    -0.1
     0.0     0.1     0.1     0.3     0.1     0.1     0.2     0.0    -0.0    -0.0
    -0.1     0.1     0.2     0.2     0.2     0.2     0.1     0.0     0.1     0.2
     0.1    -0.0     0.1     0.2     0.2     0.0    -0.1     0.1     0.1     0.0
    -0.0     0.1     0.3     0.1    -0.0     0.0     0.1     0.1    -0.0     0.1
     0.2     0.2     0.2     0.2     0.1     0.1     0.1    -0.2    -0.0     0.1
     0.1     0.1     0.1     0.2     0.1    -0.1     0.1     0.0     0.1     0.2
     0.2     0.4     0.2     0.2     0.3    -0.1     0.1     0.0    -0.2     0.1
     0.1     0.1     0.2     0.0     0.2     0.1    -0.2    -0.0     0.0    -0.0
     0.1     0.1     0.1     0.3     0.3     0.1     0.1     0.2     0.3     0.2
     0.2     0.2     0.2     0.1     0.1     0.2     0.1     0.2     0.3    -0.0
     0.2     0.2     0.1    -0.0    -0.0     0.1    -0.1     0.1     0.4     0.3
     0.1     0.1     0.1    -0.1    -0.1     0.1     0.0     0.3     0.2     0.1
     0.2     0.2     0.2     0.0    -0.0     0.1     0.1     0.2     0.2     0.1
     0.1     0.2     0.2     0.1     0.0    -0.0    -0.0     0.1     0.3     0.2
     0.1     0.2     0.1     0.3     0.3     0.1     0.2     0.1     0.1     0.3
     0.2     0.2     0.1     0.0     0.3     0.3     0.3     0.4     0.3     0.1
    -0.1    -0.0     0.3     0.2     0.3     0.2     0.1     0.1     0.1     0.2
    -0.1    -0.1     0.1     0.1     0.2     0.1     0.2     0.3    -0.1     0.1
     0.1     0.1     0.3     0.2     0.2     0.2     0.1     0.2    -0.0     0.1
     0.3     0.1     0.4     0.4     0.2     0.4     0.1     0.1     0.2     0.1
     0.2     0.2     0.1     0.2     0.1     0.2     0.1     0.1    -0.0    -0.0
     0.1     0.2     0.2     0.2     0.2     0.0    -0.0     0.1     0.1     0.3
     0.2     0.0     0.2     0.0     0.2     0.2    -0.0     0.0     0.1     0.3
     0.1     0.0     0.0    -0.1     0.1     0.1    -0.0     0.0     0.1     0.1
     0.1     0.1     0.1     0.0    -0.2    -0.1     0.2     0.3     0.0    -0.0
     0.2     0.2     0.3     0.2    -0.1    -0.2    -0.0     0.0    -0.1     0.0
     0.1    -0.1     0.2     0.2    -0.0     0.0    -0.1    -0.1    -0.1     0.1
     0.3     0.1     0.1     0.2     0.0     0.0     0.2    -0.0    -0.1     0.3
     0.2     0.0     0.2     0.1     0.1     0.1     0.0     0.1     0.2     0.3
     0.2     0.0     0.0     0.0     0.1     0.1     0.1     0.1     0.1     0.1
    -0.0    -0.1     0.0     0.1     0.2     0.1     0.0    -0.1    -0.0     0.0
     0.1     0.2     0.0     0.0     0.1     0.2     0.1     0.0     0.1     0.1
     0.1     0.2     0.2     0.1     0.1     0.1     0.2     0.1    -0.0    -0.0
     0.1     0.2     0.2     0.1    -0.1    -0.0     0.1     0.1     0.1     0.2
     0.3     0.2     0.2     0.0     0.0     0.2     0.2     0.1     0.1     0.1
     0.2     0.2     0.2     0.1     0.1     0.3     0.0    -0.0     0.1     0.2
     0.2     0.2     0.4     0.3     0.0     0.1     0.1     0.3     0.2     0.1
     0.4     0.3     0.1     0.1     0.0     0.1     0.3     0.2     0.2    -0.0
    -0.0     0.2     0.1     0.1     0.2     0.0     0.0    -0.1     0.1     0.2
     0.1     0.1     0.2     0.2     0.0    -0.2     0.1     0.3     0.1     0.2
     0.3    -0.1     0.1     0.2    -0.0     0.1     0.2     0.1     0.0     0.1
     0.2     0.2     0.1    -0.0     0.0     0.1     0.1     0.1     0.2     0.1
     0.2     0.1     0.1     0.3     0.0     0.1     0.4     0.2     0.1     0.4
     0.2     0.1     0.3     0.2     0.1     0.2     0.1     0.1     0.2     0.2
     0.3     0.2    -0.0     0.1     0.2     0.1     0.2     0.3     0.2     0.4
     0.2    -0.0     0.1    -0.0     0.1     0.2     0.2     0.3     0.2     0.2
     0.1    -0.0     0.1     0.2     0.2     0.2     0.2     0.1     0.1     0.2
     0.1     0.1     0.2     0.2     0.2     0.2     0.1     0.1     0.2     0.2
     0.3     0.3     0.2     0.1     0.1     0.1     0.1     0.2     0.3     0.2
     0.2     0.3    -0.1     0.1     0.2    -0.0     0.1     0.1    -0.1     0.3
     0.2     0.2     0.1     0.1     0.3    -0.1    -0.1     0.1     0.1     0.1
     0.1     0.2     0.2     0.1     0.1     0.0     0.1     0.1     0.3     0.3
     0.1     0.3     0.3    -0.0     0.1     0.1     0.1     0.1    -0.0     0.2
     0.2     0.2     0.1     0.0    -0.0    -0.1     0.1    -0.0    -0.1     0.1
     0.1     0.0     0.1     0.2     0.0     0.0     0.3     0.1     0.1     0.3
     0.2     0.2     0.1     0.2     0.1    -0.0     0.3     0.2     0.0     0.3
     0.2     0.0     0.1     0.2     0.2     0.0     0.1     0.2     0.2     0.2
     0.0     0.0     0.2     0.0    -0.0     0.1     0.0     0.1     0.2     0.2
     0.3     0.2    -0.1    -0.0     0.3     0.2     0.1     0.1     0.1     0.3
     0.2     0.2     0.2     0.1     0.3     0.2     0.0     0.3     0.2     0.1
     0.1     0.1     0.2     0.3     0.2     0.0     0.1     0.2     0.2     0.1
     0.0     0.2     0.2     0.2     0.4     0.3     0.1     0.2     0.1    -0.0
     0.2     0.2     0.0    -0.0     0.2     0.1    -0.0     0.2     0.0     0.1
     0.1     0.1     0.0     0.1     0.4    -0.0     0.1     0.2    -0.0     0.2
     0.1     0.2     0.3     0.1     0.1     0.0    -0.1     0.1     0.1     0.1
     0.0     0.1     0.2     0.0    -0.1    -0.2    -0.0     0.2     0.1     0.1
     0.3     0.2    -0.0    -0.1     0.1     0.1     0.1     0.3     0.4     0.2
     0.3     0.2    -0.0     0.1     0.1     0.0     0.1     0.0     0.2     0.1
    -0.0     0.2     0.1     0.2     0.2     0.1     0.2     0.0     0.1     0.3
     0.5     0.3     0.0     0.1    -0.0    -0.0     0.2     0.1     0.2     0.3
     0.3     0.3     0.1     0.1     0.2     0.2     0.1     0.2     0.2     0.1
     0.3     0.3    -0.0    -0.0     0.0     0.0     0.2     0.1     0.1     0.3
     0.0     0.1     0.2     0.2     0.3     0.1     0.3     0.3     0.0     0.1
     0.2     0.1     0.0     0.0     0.1     0.1     0.1     0.2     0.2     0.1
     0.1     0.1     0.2     0.2     0.1     0.0     0.1     0.2     0.3     0.2
     0.2     0.1     0.1     0.2    -0.1     0.1     0.2    -0.0     0.2     0.1
    -0.0     0.1    -0.1     0.0     0.2     0.2     0.0     0.1     0.2     0.2
     0.3     0.2     0.1     0.2     0.1     0.1     0.2     0.2    -0.0     0.0
     0.2     0.1     0.1     0.2     0.1    -0.0     0.1     0.2     0.1     0.2
     0.2     0.3     0.1    -0.1     0.1    -0.0     0.1     0.4     0.1     0.1
     0.4     0.2     0.2     0.2     0.0     0.2     0.1     0.1     0.1     0.1
     0.4     0.2     0.1     0.1    -0.0     0.0     0.0     0.1     0.2     0.3
     0.2     0.0     0.1     0.2     0.0     0.0    -0.0     0.2     0.3     0.0
     0.2     0.5     0.1     0.2     0.4     0.2     0.1     0.3     0.2     0.1
     0.3     0.3     0.1     0.3     0.3     0.2     0.2     0.2     0.2     0.2
     0.2     0.2     0.2     0.0     0.1     0.2     0.3     0.4     0.2     0.2
     0.2     0.2     0.2     0.2     0.1     0.1     0.2     0.2     0.2     0.2
     0.3     0.2    -0.1    -0.0    -0.0    -0.1    -0.1     0.2     0.2     0.1
     0.2     0.1     0.0     0.1     0.2     0.2     0.0     0.1     0.2     0.2
