Uncorrected accelerogram 20161113_110256_TFSS_20 GNS Science
Site TFSS      41 16 32S  174 46 59E     Cusp file:  20161113_110330_TFSS
Wellington Thorndon Fire Station
Instrument Cusp_42239
Resolution: 18-bit   Instr Period: 0.0050 s   Damping: 0.700
Accelerogram 20161113_110256_TFSS_20                 Processed 2016 December 09
5 km south-west of Waiau
2016 November 13         11:02:56 UT
Epicentre  42 41 33S 173 01 19E  Bearing S42W  Dist  215km  Depth   15km Mw 7.82
Number of points  56307    Duration 281.53 s
Raw readings in units of 1.00 mm/s/s  at intervals of 0.005 s
Data is unfiltered
Component N52W
Acceleration:  Peak   1475.5 mm/s/s at 113.12 s     RMS   133.99 mm/s/s
Velocity record unevaluated
Displacement record unevaluated
    2016      11      13      11       2     560       0       0    2016      11
      42      41      33     173       1      19      15       0      13      11
      41      16      32     174      46      59     308     308     222     215
   56307       0       0   56307       0       0       0       0       2   50796
   200.0    0.70    0.00   0.000  0.0000   0.000   0.000   1.000     0.0    0.00
  41.275 174.783  42.693 173.022    7.82    0.00    0.00    0.00      0.      0.
  281.53    0.00    0.00  281.53  0.0050  0.0050      0.      0.      0.  9806.6
  1475.5  113.12   134.0      0.      0.     0.0    0.00     0.0     0.0   0.000
    0.00    0.00    0.00    0.00   0.000    0.00    0.00    0.00    0.00   0.000
   0.000   0.000   0.000      0.      0.   0.000   0.000   0.000      0.      0.
     0.2     0.2     0.4     0.3     0.3     0.2     0.3     0.3     0.2     0.5
     0.3     0.2     0.3     0.3     0.3     0.2     0.2     0.3     0.2     0.2
     0.3     0.2     0.3     0.1     0.2     0.4     0.3     0.4     0.3     0.2
     0.3     0.2     0.2     0.2     0.2     0.2     0.2     0.3     0.3     0.3
     0.3     0.2     0.3     0.5     0.4     0.4     0.4     0.3     0.2     0.3
     0.4     0.3     0.2     0.2     0.4     0.4     0.3     0.4     0.3     0.3
     0.2     0.3     0.2     0.1     0.4     0.4     0.1     0.3     0.3     0.3
     0.3     0.3     0.3     0.2     0.2     0.4     0.5     0.3     0.3     0.3
     0.4     0.4     0.2     0.4     0.3     0.3     0.3     0.1     0.3     0.4
     0.4     0.4     0.4     0.3     0.2     0.2     0.2     0.3     0.3     0.1
     0.2     0.3     0.3     0.3     0.4     0.5     0.3     0.2     0.4     0.4
     0.3     0.2     0.3     0.3     0.2     0.2     0.3     0.2     0.1     0.2
     0.2     0.2     0.3     0.1     0.2     0.3     0.2     0.3     0.3     0.3
     0.4     0.3     0.3     0.3     0.2     0.2     0.3     0.2     0.3     0.3
     0.3     0.3     0.1     0.2     0.3     0.2     0.3     0.2     0.1     0.2
     0.2     0.2     0.3     0.2     0.1     0.3     0.4     0.2     0.4     0.4
     0.3     0.2     0.2     0.2     0.2     0.2     0.4     0.4     0.2     0.2
     0.2     0.3     0.3     0.2     0.3     0.2     0.1     0.2     0.2     0.1
     0.3     0.3     0.3     0.3     0.2     0.1     0.3     0.2     0.2     0.4
     0.3     0.4     0.4     0.3     0.3     0.2     0.2     0.3     0.3     0.4
     0.1     0.2     0.3     0.1     0.2     0.3     0.2     0.4     0.4     0.3
     0.4     0.3     0.2     0.3     0.3     0.4     0.2     0.1     0.3     0.3
     0.3     0.3     0.4     0.5     0.2     0.3     0.3     0.1     0.3     0.3
     0.2     0.3     0.2     0.2     0.4     0.3     0.3     0.4     0.3     0.4
     0.3     0.4     0.4     0.2     0.2     0.3     0.3     0.3     0.3     0.3
     0.2     0.4     0.4     0.1     0.2     0.3     0.2     0.1     0.2     0.3
     0.2     0.5     0.4     0.2     0.3     0.2     0.1     0.1     0.2     0.3
     0.2     0.2     0.2     0.2     0.2     0.3     0.2     0.2     0.3     0.2
     0.3     0.3     0.2     0.1     0.3     0.3     0.3     0.4     0.4     0.3
     0.2     0.2     0.2     0.3     0.4     0.2     0.2     0.3     0.2     0.5
     0.3     0.1     0.4     0.4     0.3     0.3     0.2     0.2     0.4     0.3
     0.2     0.3     0.3     0.4     0.3     0.2     0.3     0.3     0.2     0.2
     0.4     0.5     0.4     0.3     0.2     0.3     0.3     0.2     0.3     0.3
     0.1     0.3     0.3     0.3     0.4     0.3     0.2     0.4     0.4     0.2
     0.2     0.3     0.2     0.2     0.3     0.2     0.2     0.3     0.2     0.3
     0.3     0.4     0.5     0.2     0.1     0.2     0.2     0.4     0.3     0.3
     0.3     0.1     0.2     0.4     0.3     0.2     0.2     0.2     0.1     0.1
     0.2     0.3     0.2     0.3     0.2     0.0     0.2     0.2     0.2     0.2
     0.1     0.2     0.3     0.3     0.5     0.4     0.2     0.2     0.2     0.3
     0.1     0.1     0.3     0.2     0.1     0.3     0.3     0.2     0.2     0.2
     0.2     0.3     0.2     0.1     0.3     0.0     0.0     0.4     0.3     0.2
     0.2     0.2     0.3     0.2     0.2     0.3     0.1     0.2     0.4     0.3
     0.2     0.2     0.1     0.2     0.3     0.3     0.2     0.2     0.1     0.1
     0.1     0.3     0.4     0.2     0.2     0.4     0.3     0.3     0.3     0.1
     0.2     0.3     0.3     0.3     0.3     0.2     0.2     0.3     0.2     0.3
     0.3     0.1     0.1     0.2     0.2     0.3     0.2     0.1     0.2     0.3
     0.4     0.4     0.3     0.0     0.2     0.5     0.3     0.2     0.2     0.2
     0.2     0.2     0.3     0.2     0.1     0.4     0.3     0.3     0.4     0.3
     0.4     0.3     0.2     0.3     0.3     0.4     0.4     0.3     0.2     0.4
     0.3     0.1     0.2     0.3     0.4     0.3     0.3     0.4     0.3     0.3
     0.3     0.3     0.3     0.4     0.4     0.3     0.4     0.3     0.1     0.0
     0.2     0.4     0.2     0.2     0.3     0.3     0.2     0.2     0.3     0.3
     0.0     0.1     0.3     0.3     0.1     0.1     0.2     0.2     0.1     0.1
     0.0     0.2     0.4     0.3     0.1     0.1     0.2     0.3     0.2     0.2
     0.3     0.2     0.2     0.2     0.1     0.2     0.3     0.1     0.3     0.2
     0.1     0.2     0.3     0.3     0.3     0.3     0.3     0.2     0.2     0.3
     0.3     0.4     0.3    -0.0     0.1     0.2     0.2     0.3     0.3     0.3
     0.3     0.2     0.1     0.3     0.4     0.1     0.3     0.2     0.1     0.3
     0.3     0.2     0.2     0.2     0.2     0.2     0.2     0.2     0.2     0.3
     0.2     0.2     0.3     0.2     0.2     0.3    -0.0     0.0     0.3     0.3
     0.2     0.2     0.3     0.1    -0.0     0.1     0.1     0.1     0.3     0.3
     0.2     0.1     0.2     0.2     0.2     0.2     0.1     0.2     0.3     0.1
     0.1     0.2     0.3     0.2     0.3     0.2    -0.0     0.3     0.2    -0.1
     0.3     0.1     0.1     0.3     0.2     0.2     0.2     0.2     0.3     0.2
     0.3     0.3     0.3     0.2     0.1     0.1     0.2     0.2     0.1     0.2
     0.2     0.1     0.2     0.2     0.1     0.2     0.3     0.2     0.2     0.3
     0.2     0.1     0.3     0.3     0.2     0.3     0.2     0.1     0.3     0.2
     0.2     0.2     0.1     0.1     0.0     0.1     0.1     0.3     0.4    -0.0
     0.2     0.5     0.4     0.2     0.3     0.3     0.0     0.2     0.3     0.2
     0.3     0.4     0.3     0.2     0.2     0.3     0.3     0.3     0.1     0.2
     0.4     0.2     0.3     0.1     0.1     0.4     0.4     0.3     0.1     0.2
     0.2     0.2     0.1     0.1     0.3     0.2     0.0     0.3     0.4     0.3
     0.3     0.3     0.2     0.3     0.3     0.4     0.5     0.2     0.3     0.4
     0.2     0.3     0.3     0.2     0.3     0.4     0.3     0.2     0.4     0.4
     0.2     0.2     0.1     0.0     0.2     0.3     0.3     0.3     0.3     0.3
     0.3     0.3     0.3     0.3     0.4     0.4     0.2     0.1     0.3     0.3
     0.3     0.3     0.3     0.3     0.3     0.2     0.1     0.1     0.1     0.3
     0.4     0.2     0.3     0.4     0.3     0.3     0.2     0.2     0.2     0.1
     0.2     0.2     0.3     0.2     0.3     0.4     0.2     0.3     0.3     0.1
     0.3     0.3     0.3     0.3     0.2     0.4     0.3     0.1     0.2     0.1
     0.2     0.3     0.2     0.3     0.3     0.3     0.4     0.3     0.3     0.3
     0.4     0.3     0.2     0.3     0.4     0.3     0.1     0.3     0.4     0.3
     0.2     0.2     0.3     0.3     0.2     0.4     0.2     0.3     0.3     0.1
     0.2     0.3     0.3     0.0     0.2     0.4     0.1     0.2     0.2     0.2
     0.2     0.2     0.4     0.5     0.3     0.3     0.3     0.3     0.3     0.3
     0.2     0.3     0.4     0.3     0.4     0.5     0.4     0.3     0.1     0.1
     0.3     0.2     0.0     0.3     0.4     0.3     0.3     0.0     0.1     0.3
     0.0     0.1     0.3     0.3     0.3     0.3     0.3     0.3     0.4     0.4
     0.4     0.6     0.3     0.3     0.5     0.3     0.3     0.3     0.3     0.3
     0.3     0.3     0.3     0.4     0.4     0.2     0.2     0.3     0.3     0.4
     0.3     0.3     0.3     0.2     0.3     0.3     0.1     0.4     0.4     0.2
     0.4     0.3     0.3     0.3     0.2     0.2     0.3     0.2     0.3     0.2
     0.3     0.3     0.2     0.3     0.3     0.3     0.3     0.2     0.2     0.2
     0.3     0.2     0.3     0.4     0.3     0.4     0.1     0.2     0.4     0.2
     0.3     0.3     0.3     0.3     0.2     0.3     0.2     0.2     0.3     0.4
     0.3     0.1     0.3     0.2     0.1     0.2     0.3     0.4     0.3     0.3
     0.3     0.2     0.1     0.2     0.2     0.1     0.1     0.4     0.3     0.2
     0.2     0.0     0.2     0.3     0.2     0.2     0.1     0.1     0.2     0.2
     0.3     0.4     0.3     0.1     0.3     0.3     0.1     0.1     0.3     0.1
     0.1     0.3     0.1     0.0     0.2     0.3     0.2     0.3     0.4     0.2
     0.2     0.4     0.3     0.4     0.3     0.3     0.5     0.3     0.3     0.3
     0.2     0.2     0.2     0.2     0.2     0.3     0.2     0.2     0.3     0.1
     0.1     0.4     0.4     0.4     0.3     0.4     0.4     0.3     0.3     0.3
     0.3     0.4     0.4     0.3     0.1     0.2     0.2     0.3     0.4     0.3
     0.3     0.5     0.3     0.2     0.4     0.3     0.1     0.2     0.3     0.3
     0.2     0.3     0.6     0.4     0.4     0.4     0.3     0.3     0.3     0.2
     0.1     0.2     0.3     0.2     0.2     0.3     0.4     0.3     0.3     0.3
     0.3     0.4     0.3     0.4     0.4     0.3     0.3     0.4     0.4     0.2
     0.3     0.5     0.4     0.2     0.2     0.4     0.4     0.2     0.2     0.3
     0.2     0.4     0.6     0.3     0.3     0.3     0.4     0.4     0.3     0.2
     0.4     0.3     0.3     0.2     0.0     0.4     0.5     0.3     0.2     0.3
     0.4     0.3     0.3     0.3     0.2     0.3     0.3     0.3     0.3     0.2
     0.3     0.2     0.2     0.3     0.4     0.4     0.3     0.3     0.3     0.3
     0.3     0.3     0.5     0.4     0.3     0.3     0.3     0.4     0.4     0.4
     0.4     0.4     0.3     0.3     0.4     0.3     0.3     0.4     0.4     0.3
     0.3     0.2     0.2     0.2     0.2     0.4     0.4     0.4     0.5     0.4
     0.4     0.3     0.3     0.5     0.3     0.3     0.3     0.1     0.2     0.2
     0.1     0.2     0.1     0.1     0.3     0.2     0.1     0.2     0.3     0.3
     0.3     0.2     0.3     0.3     0.3     0.3     0.3     0.2     0.3     0.3
     0.2     0.2     0.4     0.4     0.4     0.3     0.3     0.4     0.4     0.2
     0.1     0.2     0.3     0.4     0.4     0.3     0.4     0.5     0.3     0.2
     0.2     0.1     0.3     0.2     0.2     0.2     0.2     0.5     0.6     0.2
     0.3     0.4     0.5     0.7     0.5     0.4     0.4     0.3     0.3     0.2
     0.3     0.4     0.2     0.3     0.4     0.3     0.2     0.2     0.3     0.4
     0.3     0.3     0.3     0.3     0.2     0.2     0.3     0.4     0.4     0.3
     0.2     0.3     0.4     0.1     0.3     0.4     0.2     0.4     0.4     0.5
     0.4     0.3     0.4     0.2     0.3     0.3     0.2     0.4     0.4     0.3
     0.4     0.3     0.3     0.3     0.3     0.3     0.1     0.4     0.3     0.2
     0.5     0.3     0.3     0.5     0.4     0.2     0.2     0.5     0.5     0.5
     0.4     0.5     0.3     0.1     0.3     0.3     0.3     0.3     0.3     0.3
     0.3     0.5     0.3     0.3     0.4     0.2     0.4     0.3     0.2     0.4
     0.4     0.4     0.3     0.4     0.4     0.4     0.4     0.2     0.4     0.3
     0.2     0.4     0.3     0.3     0.4     0.3     0.4     0.4     0.2     0.2
     0.3     0.1     0.2     0.2     0.3     0.3     0.3     0.3     0.3     0.3
     0.2     0.3     0.4     0.2     0.2     0.2     0.3     0.3     0.1     0.3
     0.2    -0.0     0.1     0.2     0.2     0.3     0.2     0.2     0.3     0.2
     0.3     0.4     0.2     0.3     0.3     0.2     0.1     0.3     0.3     0.2
     0.3     0.3     0.3     0.2     0.1     0.2     0.2     0.2     0.3     0.3
     0.2     0.1     0.4     0.3     0.3     0.3     0.1     0.3     0.3     0.1
     0.3     0.4     0.2     0.4     0.4     0.4     0.4     0.3     0.3     0.3
     0.2     0.3     0.4     0.2     0.3     0.4     0.2     0.2     0.3     0.2
     0.2     0.2     0.1     0.3     0.4     0.3     0.2     0.3     0.3     0.3
     0.3     0.2     0.1     0.1     0.1     0.3     0.3     0.1     0.3     0.3
     0.3     0.2     0.0     0.2     0.3     0.2     0.3     0.2     0.2     0.5
     0.3     0.2     0.4     0.3     0.2     0.3     0.2     0.2     0.4     0.3
     0.2     0.3     0.3     0.3     0.3     0.1    -0.0     0.3     0.3     0.1
     0.2     0.2     0.2     0.3     0.3     0.2     0.1     0.2     0.3     0.3
     0.2     0.0     0.2     0.4     0.3     0.3     0.4     0.2     0.2     0.3
     0.2     0.5     0.5     0.2     0.2     0.2     0.4     0.3     0.3     0.3
     0.2     0.3     0.2     0.2     0.3     0.3     0.3     0.2     0.3     0.4
     0.2     0.3     0.3     0.3     0.3     0.3     0.2     0.2     0.3     0.4
     0.2     0.3     0.3     0.3     0.3     0.2     0.1     0.3     0.3     0.3
     0.2     0.3     0.3     0.0     0.1     0.1     0.2     0.5     0.4     0.3
     0.4     0.4     0.2     0.1     0.2    -0.0     0.1     0.3     0.5     0.4
     0.2     0.4     0.3     0.2     0.2     0.3     0.3     0.1     0.2     0.3
     0.3     0.3     0.1     0.2     0.2     0.2     0.3     0.2     0.1     0.1
     0.3     0.2     0.1     0.3     0.3     0.4     0.3     0.2     0.5     0.3
    -0.1     0.2     0.4     0.2     0.3     0.5     0.2     0.3     0.2     0.3
     0.4     0.2     0.3     0.5     0.4     0.4     0.4     0.4     0.4     0.2
     0.0     0.3     0.3     0.3     0.4     0.1     0.4     0.4     0.1     0.3
     0.2     0.2     0.3    -0.1     0.2     0.3     0.1     0.3     0.2     0.1
     0.3     0.1     0.3     0.4     0.1     0.2     0.3     0.4     0.4     0.2
     0.4     0.2     0.1     0.4     0.3     0.2     0.4     0.3     0.3     0.4
     0.3     0.4     0.3     0.1     0.2     0.2     0.2     0.1     0.2     0.2
     0.3     0.2     0.1     0.3     0.2     0.3     0.5     0.3     0.3     0.3
     0.1     0.1     0.3     0.3     0.2     0.2     0.3     0.2     0.3     0.3
     0.2     0.3     0.3     0.2     0.3     0.5     0.3     0.3     0.4     0.1
     0.2     0.3     0.1     0.2     0.2     0.1     0.3     0.4     0.3     0.3
     0.4     0.1     0.0     0.4     0.4     0.3     0.3     0.3     0.3     0.2
     0.3     0.3     0.3     0.5     0.3     0.1     0.2     0.2     0.3     0.4
     0.3     0.4     0.5     0.4     0.4     0.4     0.2     0.3     0.3     0.2
     0.2     0.3     0.4     0.1     0.2     0.4     0.1     0.2     0.4     0.3
     0.2     0.3     0.3     0.3     0.4     0.3     0.4     0.3     0.3     0.3
     0.3     0.2    -0.0     0.2     0.3     0.2     0.4     0.2     0.2     0.3
     0.3     0.2     0.2     0.4     0.4     0.3     0.2     0.1     0.3     0.3
     0.3     0.3     0.2     0.3     0.4     0.2     0.3     0.4     0.3     0.4
     0.3     0.0     0.2     0.1     0.1     0.4     0.3     0.2     0.4     0.3
     0.1     0.2     0.4     0.2     0.1     0.1     0.2     0.2     0.1     0.0
     0.3     0.2     0.2     0.4     0.3     0.1     0.3     0.2     0.2     0.2
     0.3     0.3     0.3     0.2     0.2     0.2     0.1     0.0     0.3     0.2
    -0.0     0.2     0.3     0.4     0.3     0.1     0.2     0.1     0.2     0.1
     0.0     0.3     0.2     0.3     0.3     0.3     0.3     0.2     0.3     0.3
     0.3     0.2     0.0     0.2     0.3     0.2     0.1     0.2     0.4     0.3
     0.2     0.3     0.3     0.3     0.4     0.3     0.1     0.2     0.1     0.1
     0.1     0.2     0.4     0.2     0.2     0.4     0.4     0.3     0.2     0.3
     0.4     0.4     0.4     0.4     0.2     0.1     0.2     0.3     0.2     0.3
     0.4     0.1     0.1     0.3     0.1     0.2     0.4     0.4     0.3     0.2
     0.3     0.3     0.2     0.2     0.3     0.3     0.2     0.3     0.3     0.2
     0.3     0.2     0.4     0.3     0.1     0.3     0.4     0.2     0.3     0.3
     0.3     0.2     0.3     0.2     0.0     0.2     0.2     0.3     0.5     0.3
     0.2     0.3     0.2     0.2     0.3     0.3     0.2     0.3     0.2     0.1
     0.2     0.2     0.1     0.1     0.2     0.1     0.3     0.2     0.2     0.2
     0.1     0.4     0.2     0.1     0.6     0.2    -0.0     0.1     0.1     0.3
     0.2     0.3     0.3    -0.0     0.3     0.4     0.2     0.3     0.3     0.3
     0.4     0.3     0.2     0.2     0.2     0.1     0.2     0.2     0.2     0.3
     0.3     0.2     0.1     0.2     0.1     0.2     0.4     0.3     0.2     0.2
     0.3     0.3     0.4     0.4     0.3     0.2     0.3     0.3     0.3     0.4
     0.3     0.2     0.3     0.3     0.4     0.3     0.3     0.4     0.4     0.5
     0.3     0.3     0.5     0.3     0.3     0.4     0.3     0.4     0.3     0.3
     0.4     0.3     0.3     0.4     0.3     0.2     0.3     0.3     0.3     0.4
     0.3     0.3     0.3     0.3     0.3     0.4     0.3     0.2     0.3     0.1
     0.1     0.3     0.2     0.2     0.2     0.3     0.3     0.2     0.4     0.4
     0.2     0.2     0.3     0.3     0.3     0.3     0.2     0.2     0.2     0.2
     0.2     0.2     0.3     0.4     0.4     0.3     0.3     0.3     0.2     0.1
     0.2     0.3     0.3     0.3     0.4     0.3     0.3     0.2     0.2     0.2
     0.0     0.1     0.3     0.2     0.3     0.2     0.2     0.2     0.2     0.2
     0.2     0.3     0.4     0.2     0.1     0.1     0.2     0.2     0.2     0.2
     0.3     0.3     0.1     0.2     0.2     0.2     0.4     0.3     0.1     0.1
     0.3     0.4     0.2     0.3     0.5     0.4     0.4     0.3     0.3     0.2
     0.1     0.1     0.4     0.3     0.1     0.2    -0.0     0.1     0.5     0.4
     0.1     0.1     0.2     0.3     0.2     0.3     0.3     0.3     0.2     0.3
     0.3     0.2     0.1     0.1     0.2     0.3     0.3     0.3     0.4     0.2
     0.2     0.2     0.2     0.3     0.2     0.1     0.2     0.4     0.3     0.2
     0.2     0.1     0.1     0.3     0.0     0.0     0.2     0.2     0.3     0.4
     0.2     0.1     0.5     0.4     0.3     0.3     0.2     0.3     0.3     0.2
     0.2     0.2     0.1     0.3     0.3     0.3     0.5     0.4     0.3     0.3
     0.3     0.3     0.5     0.4     0.3     0.3     0.4     0.3     0.3     0.3
     0.3     0.4     0.3     0.3     0.3     0.3     0.2     0.1     0.3     0.3
     0.2     0.2     0.3     0.4     0.1     0.3     0.4     0.2     0.2     0.2
     0.3     0.4     0.2     0.3     0.3     0.2     0.2     0.3     0.4     0.3
     0.3     0.3     0.3     0.3     0.3     0.3     0.3     0.3     0.1     0.2
     0.3     0.3     0.3     0.3     0.3     0.3     0.3     0.1     0.3     0.5
     0.4     0.3     0.3     0.3     0.3     0.3     0.2     0.3     0.4     0.2
     0.3     0.3     0.4     0.4     0.3     0.3     0.1     0.1     0.2     0.3
     0.3     0.3     0.3     0.1     0.4     0.2    -0.0     0.3     0.2     0.3
     0.2     0.1     0.4     0.3     0.2     0.1     0.1     0.3     0.3     0.2
     0.2     0.1     0.2     0.2     0.3     0.2     0.1     0.3     0.3     0.2
