Uncorrected accelerogram 20161113_110256_TAIS_20 GNS Science
Site TAIS      41 10 49S  174 57 17E     Cusp file:  20161113_110332_TAIS
Taita Central School
Instrument Cusp_42079
Resolution: 18-bit   Instr Period: 0.0050 s   Damping: 0.700
Accelerogram 20161113_110256_TAIS_20                 Processed 2016 December 09
5 km south-west of Waiau
2016 November 13         11:02:56 UT
Epicentre  42 41 33S 173 01 19E  Bearing S43W  Dist  232km  Depth   15km Mw 7.82
Number of points  49873    Duration 249.36 s
Raw readings in units of 1.00 mm/s/s  at intervals of 0.005 s
Data is unfiltered
Component S15W
Acceleration:  Peak  -1073.7 mm/s/s at 107.86 s     RMS    87.84 mm/s/s
Velocity record unevaluated
Displacement record unevaluated
    2016      11      13      11       2     560       0       0    2016      11
      42      41      33     173       1      19      15       0      13      11
      41      10      49     174      57      17     195     195     223     232
   49873       0       0   49873       0       0       0       0       2   52997
   200.0    0.70    0.00   0.000  0.0000   0.000   0.000   1.000     0.0    0.00
  41.180 174.955  42.693 173.022    7.82    0.00    0.00    0.00      0.      0.
  249.36    0.00    0.00  249.36  0.0050  0.0050      0.      0.      0.  9806.6
 -1073.7  107.86    87.8      0.      0.     0.0    0.00     0.0     0.0   0.000
    0.00    0.00    0.00    0.00   0.000    0.00    0.00    0.00    0.00   0.000
   0.000   0.000   0.000      0.      0.   0.000   0.000   0.000      0.      0.
     0.1     0.1     0.2     0.0    -0.0    -0.0    -0.1    -0.0     0.0     0.1
     0.1     0.0     0.0     0.0    -0.0    -0.1     0.0     0.1     0.1     0.0
    -0.0     0.0     0.0     0.0     0.1     0.1     0.1     0.1     0.0     0.1
     0.1     0.1     0.0     0.0     0.1     0.1     0.0     0.1     0.0    -0.1
     0.1     0.1    -0.1    -0.1    -0.1    -0.1    -0.0     0.1     0.0     0.0
    -0.0    -0.1    -0.0     0.0    -0.0    -0.0    -0.1    -0.2    -0.1     0.0
    -0.0    -0.1     0.1     0.1     0.1     0.1     0.1     0.1    -0.0     0.0
     0.0     0.0     0.1     0.0     0.1     0.1     0.0     0.2     0.2     0.1
     0.1     0.1    -0.0     0.1     0.1     0.0     0.1    -0.0     0.1     0.1
    -0.1     0.0     0.0    -0.1    -0.1    -0.1    -0.1     0.0    -0.1     0.1
     0.1    -0.0     0.1    -0.0    -0.0     0.1     0.0     0.0    -0.0    -0.0
     0.0    -0.1    -0.1    -0.1    -0.1    -0.1    -0.1     0.0     0.1     0.1
     0.0    -0.1     0.0    -0.0    -0.1    -0.1    -0.0    -0.0    -0.0     0.0
     0.0     0.0     0.0    -0.1    -0.1    -0.1    -0.0    -0.0    -0.1    -0.1
    -0.0    -0.0    -0.1    -0.1    -0.0    -0.0    -0.0     0.0     0.0     0.1
    -0.0    -0.1    -0.0    -0.0    -0.1    -0.0     0.0    -0.1    -0.1    -0.1
    -0.0     0.0    -0.1    -0.1    -0.1    -0.2    -0.1    -0.0    -0.0    -0.0
    -0.0    -0.1    -0.1    -0.0     0.0    -0.1    -0.1     0.2     0.2    -0.0
     0.2     0.0     0.0     0.1     0.0     0.1     0.0     0.0    -0.0     0.0
     0.1    -0.1    -0.0     0.0    -0.0    -0.1    -0.1     0.0    -0.0     0.0
    -0.0    -0.3    -0.1     0.1    -0.0    -0.1    -0.1     0.1     0.2     0.1
     0.1    -0.0     0.0     0.1    -0.0    -0.1    -0.1     0.1    -0.0    -0.1
    -0.0    -0.0     0.0    -0.1    -0.0     0.1    -0.1     0.1     0.1    -0.0
     0.0     0.0     0.1     0.1    -0.0     0.0     0.0    -0.1    -0.0     0.0
     0.0     0.1    -0.0    -0.1    -0.0    -0.0     0.0     0.1    -0.0    -0.1
    -0.1    -0.1    -0.0    -0.1    -0.1    -0.1    -0.1    -0.1     0.0    -0.0
    -0.0     0.1    -0.0     0.1     0.1    -0.1    -0.0    -0.1    -0.1    -0.0
    -0.2    -0.1    -0.1    -0.1    -0.1    -0.0     0.0    -0.0     0.0    -0.0
     0.1     0.0    -0.0     0.1    -0.0     0.1     0.0    -0.0     0.1    -0.0
    -0.1     0.0    -0.1    -0.1    -0.1    -0.1    -0.0    -0.0     0.0     0.1
    -0.1    -0.1    -0.1    -0.2    -0.1    -0.1    -0.1    -0.2    -0.1    -0.1
    -0.2    -0.1    -0.1    -0.1     0.1     0.0     0.0    -0.1    -0.1    -0.0
    -0.1    -0.0     0.1    -0.1    -0.0     0.1     0.0    -0.0    -0.0    -0.0
     0.0     0.1     0.0     0.0     0.0    -0.0     0.1     0.1     0.0     0.0
    -0.0    -0.1    -0.1     0.0     0.1    -0.0     0.1    -0.0    -0.1     0.0
    -0.1    -0.1     0.1     0.1     0.0    -0.0    -0.0     0.1     0.0    -0.0
     0.1     0.0    -0.1    -0.0    -0.1    -0.1    -0.2    -0.1    -0.1    -0.1
    -0.0     0.0     0.1     0.1     0.0    -0.1    -0.0     0.1    -0.0    -0.0
    -0.0    -0.0     0.0     0.0     0.1    -0.0     0.1     0.1    -0.0     0.1
     0.1    -0.0    -0.2    -0.2     0.0     0.0    -0.2    -0.1     0.1     0.0
    -0.1     0.0    -0.0    -0.1     0.1     0.1    -0.0     0.0     0.1    -0.1
    -0.2    -0.1     0.0    -0.0     0.1    -0.1    -0.3    -0.0     0.0    -0.0
    -0.1    -0.0     0.0    -0.2    -0.2    -0.1    -0.0    -0.0    -0.1     0.0
    -0.0    -0.1     0.0    -0.0     0.1     0.1    -0.0     0.1     0.1     0.1
     0.1    -0.0    -0.0    -0.0     0.0    -0.0    -0.0     0.1     0.1    -0.0
     0.0     0.1    -0.1    -0.2    -0.1     0.1     0.2    -0.0     0.0     0.1
     0.0     0.1    -0.1    -0.1    -0.1    -0.1    -0.1    -0.0     0.1     0.1
    -0.0     0.1     0.1     0.1     0.1     0.0     0.0    -0.0    -0.0     0.1
     0.0    -0.1    -0.0    -0.0     0.0     0.1    -0.0     0.0     0.1     0.0
     0.0     0.0     0.1     0.2     0.1     0.1     0.1     0.1     0.2     0.1
     0.1     0.1     0.0     0.0     0.0     0.1     0.1     0.0     0.2     0.2
     0.0     0.1     0.1    -0.0     0.0    -0.1    -0.2     0.1     0.1    -0.0
    -0.1    -0.1    -0.0    -0.0    -0.1    -0.0    -0.1    -0.1    -0.1    -0.1
     0.1     0.1     0.0     0.1     0.1     0.1     0.1     0.3     0.2    -0.1
     0.0     0.1     0.0     0.2     0.1    -0.0     0.1     0.1    -0.0     0.1
     0.1     0.1    -0.1    -0.1     0.0     0.1     0.1    -0.2    -0.0     0.1
    -0.1     0.1     0.2     0.1     0.0    -0.0     0.2     0.2    -0.0    -0.1
    -0.1    -0.1    -0.0     0.1     0.1     0.1     0.1     0.0     0.0     0.1
    -0.0     0.1     0.2     0.1     0.2     0.0     0.0     0.0    -0.1     0.1
     0.1     0.1     0.1     0.1     0.1     0.1     0.1    -0.0     0.0     0.1
     0.0     0.1     0.1     0.1     0.1     0.0     0.0     0.0     0.0     0.1
     0.2     0.1     0.1     0.0     0.0     0.1     0.2     0.1     0.0     0.0
     0.1     0.0    -0.1    -0.0    -0.0    -0.2    -0.1     0.0    -0.1     0.1
     0.1     0.1     0.2     0.1     0.1     0.1     0.0     0.0     0.2     0.2
     0.0     0.0     0.1     0.1     0.1    -0.0     0.1    -0.0    -0.1     0.0
     0.1     0.1     0.0     0.1     0.1     0.0     0.1     0.1     0.0    -0.0
     0.1     0.1     0.1     0.1     0.1     0.1     0.1     0.2     0.2     0.1
    -0.0     0.0     0.1     0.1     0.1     0.1     0.1     0.1    -0.0     0.0
     0.1     0.2     0.0    -0.0     0.1    -0.0     0.0     0.2     0.0    -0.0
     0.0    -0.0     0.1     0.2     0.2     0.2     0.1     0.1     0.1     0.1
     0.1     0.0     0.0     0.1     0.2     0.0    -0.0     0.1    -0.0     0.0
     0.1     0.0     0.0    -0.0    -0.1    -0.1     0.0     0.0     0.0     0.0
     0.1     0.1     0.1     0.0    -0.1    -0.0    -0.1     0.0     0.1     0.0
     0.0     0.0    -0.0     0.0     0.0    -0.1     0.0     0.2     0.0    -0.0
     0.1    -0.1    -0.1     0.0     0.0     0.1     0.1     0.0    -0.1    -0.1
    -0.0    -0.1    -0.1    -0.1    -0.1    -0.1     0.1     0.1     0.1     0.1
     0.1    -0.0    -0.1    -0.1    -0.0     0.0     0.0     0.1     0.1     0.1
     0.0    -0.0     0.0    -0.0    -0.0    -0.0     0.0     0.1    -0.1    -0.0
     0.0    -0.1     0.0    -0.0    -0.1     0.0    -0.0     0.0     0.1    -0.0
     0.0     0.0    -0.0     0.0     0.0    -0.1    -0.0    -0.0    -0.1     0.1
     0.0    -0.2    -0.1    -0.1    -0.1    -0.0     0.0     0.0    -0.0    -0.0
    -0.0    -0.1    -0.1    -0.1     0.0     0.1     0.1    -0.1    -0.1     0.0
     0.0    -0.1    -0.1     0.0     0.0    -0.0    -0.1    -0.1    -0.0     0.1
     0.1     0.0     0.0    -0.1    -0.1    -0.1    -0.1     0.0     0.1     0.0
    -0.1     0.0     0.1     0.0    -0.1    -0.0     0.0    -0.0     0.0     0.2
     0.1    -0.1    -0.0    -0.0    -0.0    -0.1    -0.0    -0.0    -0.1    -0.1
    -0.1    -0.0     0.1     0.1     0.2     0.2    -0.1    -0.0     0.1    -0.1
     0.0     0.1     0.1     0.1     0.1     0.1     0.1     0.1     0.0    -0.0
     0.1     0.0     0.0    -0.0    -0.0    -0.0    -0.0     0.0     0.0     0.1
     0.1     0.1     0.1     0.1     0.1     0.0     0.2     0.0    -0.1     0.1
     0.1     0.0     0.1     0.1     0.1     0.1     0.1     0.1     0.2     0.1
     0.0     0.1     0.1     0.0    -0.0    -0.0     0.1     0.1    -0.1    -0.1
     0.1     0.1     0.0     0.1     0.0     0.1     0.0    -0.0     0.1     0.0
     0.1     0.2     0.1     0.1     0.1     0.1    -0.0    -0.1    -0.2    -0.2
    -0.0    -0.1    -0.1    -0.0    -0.1    -0.1     0.1    -0.0     0.0    -0.0
    -0.1    -0.1    -0.2    -0.0     0.1     0.1     0.0    -0.1     0.2     0.2
     0.1     0.1    -0.0     0.1     0.2    -0.0     0.0     0.1    -0.0     0.0
     0.1     0.1     0.1     0.2     0.2     0.1     0.1     0.2     0.2     0.1
     0.0     0.1     0.2     0.1     0.1     0.1     0.1     0.1    -0.0     0.0
     0.0    -0.0     0.1     0.1     0.1     0.0     0.1     0.2     0.1     0.1
     0.0    -0.0     0.2     0.2    -0.0     0.1     0.1     0.1     0.2     0.1
     0.0    -0.0    -0.0     0.1     0.1     0.1     0.1     0.1     0.1    -0.0
    -0.0     0.1     0.0     0.0     0.0    -0.0     0.1     0.1     0.1     0.0
     0.0     0.0     0.1     0.0    -0.1     0.0     0.0    -0.1     0.0    -0.0
     0.0     0.0    -0.0    -0.0     0.0     0.1     0.0     0.1     0.1     0.0
     0.1    -0.0     0.0     0.1     0.1     0.2     0.0     0.1     0.2     0.0
     0.0    -0.1    -0.0     0.1     0.0    -0.0    -0.1     0.1     0.1    -0.0
    -0.0     0.0     0.1     0.2     0.2     0.1     0.0     0.0    -0.0     0.0
     0.0     0.0     0.2     0.1     0.1     0.0     0.1     0.1     0.1     0.1
     0.1     0.0     0.1    -0.0    -0.1    -0.0    -0.1     0.0     0.0     0.0
     0.0     0.1    -0.0    -0.2    -0.1    -0.0    -0.0    -0.1    -0.1    -0.0
    -0.1    -0.1    -0.0    -0.1     0.0     0.1     0.1     0.1     0.1     0.0
    -0.0     0.0    -0.0     0.0     0.0    -0.2    -0.1     0.1     0.0    -0.0
     0.1     0.1     0.1     0.1     0.1     0.0     0.1     0.1     0.0     0.1
     0.1     0.1     0.1    -0.0     0.1     0.2     0.0    -0.0     0.1    -0.0
    -0.1     0.1    -0.1    -0.1    -0.1    -0.2    -0.0    -0.0    -0.1    -0.1
    -0.1    -0.0     0.0    -0.0    -0.1    -0.1    -0.0    -0.0    -0.0    -0.1
    -0.1    -0.1    -0.1    -0.0     0.0     0.2     0.0    -0.0     0.1     0.0
     0.0     0.1     0.0     0.2     0.1    -0.1     0.0     0.1     0.2     0.1
     0.1     0.2    -0.0     0.0     0.0     0.0     0.1     0.0     0.1     0.1
     0.1     0.1     0.1     0.1     0.0     0.0     0.1     0.1     0.1     0.1
     0.1     0.0     0.1    -0.0     0.0     0.1     0.0     0.1    -0.1    -0.0
     0.2    -0.0    -0.0     0.1    -0.0     0.1     0.1     0.1     0.2     0.1
     0.0     0.1     0.0     0.1     0.0    -0.0     0.1     0.2     0.1     0.0
     0.0     0.1     0.0    -0.1    -0.1    -0.0    -0.1    -0.1    -0.0     0.1
     0.0    -0.1    -0.0    -0.1    -0.1     0.0    -0.1    -0.1     0.0    -0.1
    -0.1    -0.0    -0.1    -0.2    -0.0     0.0    -0.1    -0.1    -0.0    -0.0
    -0.1    -0.2    -0.1    -0.1    -0.1     0.0    -0.1    -0.1     0.0    -0.1
    -0.1    -0.1    -0.1    -0.1    -0.0    -0.1    -0.1    -0.0    -0.1    -0.1
    -0.1    -0.1    -0.1    -0.1    -0.1     0.0    -0.1    -0.2    -0.0    -0.1
    -0.1    -0.0    -0.0     0.1    -0.1    -0.2     0.0    -0.0     0.0    -0.1
    -0.1    -0.0    -0.1     0.0     0.0    -0.1    -0.1    -0.1    -0.1    -0.0
    -0.0    -0.0    -0.2    -0.0     0.1     0.1    -0.1    -0.0     0.1     0.1
     0.1     0.1     0.0    -0.0     0.0     0.1    -0.1    -0.0    -0.0    -0.1
     0.0    -0.0     0.0     0.1     0.1     0.2     0.1    -0.0     0.1     0.0
    -0.0     0.1     0.1     0.0     0.0    -0.0    -0.0     0.1     0.1     0.1
     0.2     0.1    -0.1     0.1     0.1    -0.1    -0.1    -0.1     0.0    -0.0
    -0.1     0.1    -0.0    -0.1     0.1     0.0    -0.0    -0.1    -0.0     0.1
    -0.0     0.0     0.0    -0.1    -0.0     0.1    -0.0    -0.0     0.0    -0.0
    -0.1    -0.1    -0.1    -0.1    -0.1    -0.1     0.1    -0.0    -0.0     0.1
     0.0    -0.0    -0.0     0.0     0.1     0.0     0.1     0.1     0.0     0.1
     0.0    -0.0    -0.0     0.1    -0.0     0.1     0.1    -0.2    -0.0     0.1
    -0.1    -0.0     0.1     0.3     0.1     0.0     0.1     0.0     0.0     0.0
     0.1     0.0     0.0     0.2    -0.0    -0.1     0.1     0.1    -0.0    -0.1
     0.1    -0.0    -0.1     0.1     0.1    -0.0     0.1     0.0    -0.1     0.2
     0.1     0.1     0.2    -0.0    -0.0     0.2    -0.0    -0.0    -0.0    -0.0
     0.0    -0.1     0.0    -0.0    -0.0    -0.1    -0.1     0.1    -0.0    -0.0
     0.1    -0.1     0.1     0.1    -0.0     0.1     0.1     0.0     0.0     0.1
     0.1     0.2     0.2     0.2     0.1     0.2     0.2     0.1     0.2     0.2
     0.1     0.1     0.0     0.1     0.2     0.1    -0.1    -0.1    -0.1    -0.1
    -0.0    -0.2    -0.2    -0.0    -0.1    -0.2    -0.0    -0.1    -0.1     0.0
    -0.0    -0.1     0.0     0.1    -0.0     0.0     0.1    -0.1    -0.1     0.0
    -0.0    -0.0    -0.0    -0.1    -0.1     0.0     0.1    -0.0    -0.1    -0.0
    -0.1    -0.1    -0.1    -0.1    -0.0    -0.1    -0.1    -0.1    -0.1     0.0
     0.0    -0.0     0.0    -0.0     0.1     0.2     0.0     0.0     0.1     0.1
    -0.1    -0.1    -0.0    -0.0     0.0     0.0     0.1     0.2     0.2     0.1
     0.1     0.1     0.1     0.0     0.1     0.1    -0.0    -0.0    -0.0    -0.0
     0.0    -0.0     0.0     0.1     0.1     0.1     0.0    -0.0    -0.1    -0.0
    -0.0    -0.2    -0.2    -0.2    -0.1     0.1    -0.0    -0.1    -0.0     0.1
    -0.0    -0.0    -0.0    -0.1    -0.1    -0.1    -0.1     0.1    -0.0     0.0
     0.1    -0.0     0.0     0.0    -0.0     0.1    -0.0    -0.1     0.1     0.1
    -0.0    -0.0    -0.1    -0.1    -0.1    -0.1    -0.0    -0.0     0.0     0.1
    -0.1    -0.1     0.0    -0.0    -0.0    -0.0    -0.0    -0.1    -0.1    -0.0
     0.1     0.1    -0.0     0.0     0.0     0.1     0.1    -0.0     0.1     0.0
     0.0     0.1    -0.0     0.0     0.0     0.1     0.0     0.0     0.0    -0.2
    -0.0    -0.0    -0.1     0.1     0.1    -0.0     0.0     0.1    -0.1    -0.0
     0.0     0.0     0.1     0.1     0.1     0.0    -0.1    -0.0    -0.1     0.0
     0.0    -0.1     0.0    -0.0    -0.0     0.0    -0.0    -0.1     0.0    -0.0
    -0.1    -0.2    -0.3    -0.0     0.0    -0.2     0.1     0.2     0.0     0.1
     0.0     0.1     0.2     0.1    -0.1     0.1     0.1    -0.0    -0.0    -0.0
     0.1     0.2     0.2     0.1     0.1     0.2     0.1     0.0     0.2     0.1
    -0.0     0.0     0.1     0.1     0.0    -0.0     0.1     0.1    -0.0    -0.1
    -0.1    -0.0     0.1     0.1     0.0     0.1     0.1     0.0     0.0     0.0
     0.0     0.0     0.0     0.0     0.1     0.0    -0.0     0.1     0.2     0.0
     0.0     0.2     0.1     0.0    -0.0     0.1    -0.1     0.0    -0.0    -0.1
     0.0    -0.1    -0.1     0.0     0.1     0.1    -0.1     0.0     0.1     0.0
     0.1    -0.0     0.0     0.0    -0.0    -0.1    -0.1    -0.1    -0.1     0.0
    -0.0    -0.2    -0.1    -0.1    -0.1     0.0     0.0    -0.0    -0.1    -0.1
    -0.1    -0.1    -0.1    -0.1    -0.0     0.0    -0.0    -0.1    -0.1    -0.1
    -0.1    -0.0    -0.0     0.0     0.1    -0.1    -0.1    -0.0    -0.1    -0.1
    -0.1     0.0     0.0    -0.1    -0.1    -0.0    -0.0    -0.1    -0.0     0.1
    -0.1    -0.1    -0.0     0.0     0.0     0.0     0.1     0.0     0.0     0.1
     0.0    -0.0    -0.0    -0.0    -0.0     0.1     0.0    -0.0    -0.0     0.0
     0.1     0.0    -0.0     0.0     0.0    -0.1    -0.1    -0.1    -0.1    -0.0
    -0.0     0.0     0.0    -0.1    -0.0     0.0     0.0     0.0     0.1    -0.0
     0.0     0.2     0.0     0.0     0.2     0.1     0.0     0.0     0.0    -0.0
     0.0    -0.0    -0.0    -0.0    -0.0     0.1     0.1    -0.0     0.0    -0.1
     0.0     0.0    -0.1     0.1     0.1    -0.0     0.0    -0.0    -0.0     0.0
     0.0     0.1     0.0     0.1     0.0     0.0     0.2     0.2     0.2     0.1
     0.0     0.1     0.0     0.1     0.1     0.0     0.0     0.1     0.2     0.0
    -0.1     0.0    -0.0    -0.0     0.0    -0.0     0.1     0.1     0.1     0.2
     0.1    -0.0     0.1    -0.0     0.1     0.1     0.2     0.2    -0.0     0.0
     0.1     0.0     0.1     0.0     0.0    -0.0     0.0     0.0     0.0     0.0
     0.0     0.1     0.1     0.0     0.1     0.1     0.1     0.1     0.2     0.1
    -0.1     0.0     0.0     0.1     0.1    -0.0    -0.0     0.0    -0.1    -0.0
     0.2     0.2     0.1     0.1     0.0     0.1     0.1    -0.1    -0.2    -0.0
     0.1     0.1     0.1     0.1    -0.0    -0.1     0.0     0.1     0.1     0.0
    -0.1     0.1     0.0    -0.1    -0.1    -0.1    -0.1    -0.1    -0.0     0.0
     0.1     0.0     0.0     0.0    -0.1    -0.0     0.0     0.1     0.1    -0.1
     0.0     0.0    -0.1     0.0     0.1     0.1     0.2     0.1     0.0     0.0
     0.0     0.1     0.1     0.1     0.2     0.0     0.0     0.1    -0.0    -0.1
     0.0     0.1    -0.1    -0.0    -0.0    -0.0    -0.0     0.1     0.2     0.1
     0.0     0.1     0.1     0.1     0.1     0.1    -0.0    -0.2    -0.1    -0.0
    -0.0    -0.1    -0.1    -0.2    -0.1     0.0    -0.1     0.1     0.1    -0.1
    -0.0    -0.0    -0.2    -0.1    -0.0    -0.1     0.1     0.1    -0.0    -0.0
    -0.0    -0.1    -0.1    -0.1     0.0    -0.0    -0.2    -0.1     0.1    -0.1
    -0.1    -0.0    -0.0     0.1    -0.1    -0.1     0.1     0.1     0.0     0.2
     0.1    -0.0     0.0     0.1     0.0     0.1     0.1     0.1     0.1    -0.1
    -0.1    -0.1    -0.1    -0.0    -0.1    -0.0    -0.1    -0.0    -0.0    -0.1
    -0.1    -0.0    -0.1    -0.1    -0.1    -0.1    -0.0     0.0    -0.0     0.0
    -0.0    -0.0     0.0    -0.1    -0.0     0.0    -0.1    -0.2    -0.2    -0.1
    -0.1    -0.1    -0.1    -0.1    -0.2    -0.1    -0.1     0.0    -0.0     0.0
    -0.0    -0.2    -0.1    -0.0    -0.1    -0.1    -0.1    -0.1    -0.2    -0.1
    -0.1    -0.1     0.0     0.0     0.0     0.0    -0.0     0.0     0.0    -0.1
     0.1    -0.0    -0.1    -0.0     0.0    -0.0     0.0    -0.0    -0.0     0.1
     0.0    -0.1    -0.1     0.1    -0.0    -0.0     0.0    -0.0     0.0     0.1
     0.0    -0.0    -0.1     0.0     0.1    -0.0    -0.0    -0.1    -0.1     0.2
     0.1     0.0     0.1    -0.0    -0.1    -0.0     0.0     0.1     0.0    -0.1
    -0.0    -0.0     0.0     0.0     0.1    -0.1    -0.1     0.0     0.1     0.0
    -0.2    -0.2    -0.1    -0.1     0.1     0.1    -0.0     0.1     0.1    -0.0
    -0.1    -0.0    -0.1    -0.0     0.0     0.1     0.0    -0.1    -0.1    -0.0
     0.0     0.1     0.0     0.1     0.1    -0.0    -0.0     0.1     0.1     0.1
     0.1     0.1     0.1     0.1     0.0     0.0     0.1    -0.0    -0.1     0.0
     0.1     0.0    -0.1    -0.1     0.1     0.2     0.1    -0.1     0.1     0.1
    -0.1     0.0     0.0    -0.0     0.0    -0.1    -0.3    -0.0     0.0    -0.1
    -0.1    -0.1     0.0     0.1     0.0     0.1     0.0    -0.1     0.1     0.0
    -0.1     0.1     0.1    -0.0    -0.1    -0.0     0.1    -0.0    -0.2    -0.0
