Uncorrected accelerogram 20161113_110256_POLS_20 GNS Science
Site POLS      41 07 53S  174 50 21E     Cusp file:  20161113_110333_POLS
Porirua Library
Instrument Cusp_42229
Resolution: 18-bit   Instr Period: 0.0050 s   Damping: 0.700
Accelerogram 20161113_110256_POLS_20                 Processed 2016 December 09
5 km south-west of Waiau
2016 November 13         11:02:56 UT
Epicentre  42 41 33S 173 01 19E  Bearing S40W  Dist  230km  Depth   15km Mw 7.82
Number of points  56340    Duration 281.69 s
Raw readings in units of 1.00 mm/s/s  at intervals of 0.005 s
Data is unfiltered
Component N22E
Acceleration:  Peak   1341.9 mm/s/s at 108.29 s     RMS    89.72 mm/s/s
Velocity record unevaluated
Displacement record unevaluated
    2016      11      13      11       2     560       0       0    2016      11
      42      41      33     173       1      19      15       0      13      11
      41       7      53     174      50      21      22      22     220     230
   56340       0       0   56340       0       0       0       0       2   53175
   200.0    0.70    0.00   0.000  0.0000   0.000   0.000   1.000     0.0    0.00
  41.131 174.839  42.693 173.022    7.82    0.00    0.00    0.00      0.      0.
  281.69    0.00    0.00  281.69  0.0050  0.0050      0.      0.      0.  9806.6
  1341.9  108.29    89.7      0.      0.     0.0    0.00     0.0     0.0   0.000
    0.00    0.00    0.00    0.00   0.000    0.00    0.00    0.00    0.00   0.000
   0.000   0.000   0.000      0.      0.   0.000   0.000   0.000      0.      0.
     7.1     7.1     7.0     7.0     7.2     7.2     7.2     7.2     7.2     7.1
     7.1     7.1     7.1     7.1     7.1     7.1     7.1     7.2     7.3     7.1
     7.3     7.2     7.0     7.1     7.0     7.1     7.1     7.0     7.1     6.9
     7.0     7.1     7.2     7.2     7.2     7.0     7.0     7.1     7.0     7.0
     7.0     7.0     7.0     7.0     7.1     7.1     7.2     7.2     6.9     7.1
     7.1     7.0     7.1     7.0     7.1     7.2     7.2     7.2     7.1     7.0
     6.9     6.9     7.1     7.2     7.1     7.2     7.2     7.0     7.1     7.0
     6.9     7.2     7.2     7.1     7.0     7.2     7.2     7.2     7.2     7.0
     7.0     6.9     6.8     7.0     6.9     7.0     7.1     7.0     7.2     7.2
     7.0     7.1     7.1     7.1     7.1     7.2     7.1     7.0     7.2     7.2
     7.1     7.1     7.3     7.3     7.0     7.0     7.1     7.3     7.3     7.1
     7.1     7.1     7.1     7.1     7.0     7.0     6.9     7.1     7.2     7.2
     7.3     7.2     7.1     7.1     7.1     7.1     7.1     6.9     7.0     7.1
     7.1     7.2     7.0     7.0     7.2     7.0     7.1     7.2     7.1     7.2
     7.0     7.0     7.1     7.0     7.1     7.2     7.1     7.1     7.1     7.1
     7.1     7.1     7.1     7.1     7.1     7.2     7.2     7.1     7.1     7.1
     7.1     7.2     7.2     7.1     7.2     7.2     7.2     7.1     7.1     7.2
     7.3     7.4     7.4     7.2     7.0     7.2     7.4     7.2     7.2     7.2
     7.1     7.2     7.1     7.1     7.2     7.3     7.2     7.1     7.2     7.3
     7.2     7.2     7.1     7.0     7.2     7.3     7.1     7.0     7.3     7.4
     7.2     7.2     7.2     7.2     7.2     7.3     7.2     7.0     7.0     7.2
     7.1     7.0     7.2     7.2     7.2     7.2     7.1     7.2     7.2     7.0
     7.2     7.2     7.1     7.2     7.3     7.3     7.3     7.2     7.1     7.2
     7.2     7.0     7.2     7.3     7.2     7.2     7.3     7.3     7.3     7.2
     7.2     7.2     7.2     7.2     7.2     7.1     7.1     7.2     7.0     7.2
     7.4     7.1     7.2     7.2     7.0     7.2     7.2     7.1     7.1     7.0
     7.1     7.0     7.0     7.0     7.0     7.1     7.2     7.1     7.1     7.1
     7.0     7.0     7.1     7.1     7.1     7.1     7.1     7.0     6.9     7.0
     7.0     7.1     7.1     7.1     7.1     6.9     6.9     7.1     7.1     7.0
     7.2     7.0     7.0     7.1     7.0     7.0     7.0     7.2     7.2     7.1
     7.1     7.1     7.1     7.1     7.1     7.2     7.1     7.1     7.0     7.0
     7.0     7.1     7.2     7.0     7.2     7.2     7.1     7.2     7.2     7.2
     7.0     7.1     7.2     7.1     7.1     7.1     7.2     7.2     7.0     7.2
     7.2     7.1     7.1     7.1     7.2     7.4     7.1     7.1     7.2     7.1
     7.2     7.2     7.3     7.3     7.2     7.3     7.3     7.1     7.0     7.1
     7.4     7.1     7.0     7.2     7.1     7.1     7.0     7.1     7.2     6.9
     7.1     7.1     7.0     7.0     6.9     7.1     7.2     7.0     7.0     7.1
     7.2     7.0     6.9     7.2     7.2     7.2     7.1     7.0     7.1     7.0
     7.0     7.0     6.9     6.9     6.9     7.1     7.0     6.9     7.1     7.1
     7.0     7.1     7.0     7.0     7.2     7.0     7.1     7.1     7.1     7.3
     7.1     6.9     7.0     7.1     7.1     6.9     7.1     7.1     6.9     7.1
     7.1     7.0     7.2     7.0     7.0     7.1     7.0     7.1     7.0     7.0
     7.2     7.1     7.3     7.2     7.1     7.2     6.9     7.1     7.2     6.9
     7.1     7.2     7.1     6.9     6.9     7.2     7.1     7.0     6.9     6.9
     7.0     7.0     7.0     7.1     7.1     7.1     7.1     6.9     7.0     7.0
     6.9     6.9     7.0     7.1     7.1     7.0     7.2     7.0     7.0     7.2
     7.2     7.2     7.1     7.0     7.1     7.2     7.1     7.0     7.0     7.3
     7.2     7.1     7.3     7.2     7.0     7.1     7.1     6.9     7.0     7.1
     7.0     6.9     7.1     7.3     7.0     7.1     7.1     6.9     7.0     7.1
     7.0     7.0     7.0     7.0     7.0     7.0     7.0     7.1     7.2     7.1
     6.9     7.1     7.1     7.1     7.3     7.2     7.0     7.1     7.0     7.0
     7.1     7.2     7.2     7.2     7.1     7.2     7.2     7.1     7.3     7.2
     7.1     7.3     7.2     7.2     7.2     7.1     7.2     7.1     7.0     7.1
     7.2     7.3     7.1     7.1     7.2     7.0     7.0     7.0     7.0     7.1
     7.1     7.1     7.1     7.2     7.0     7.0     7.0     7.1     7.1     7.1
     7.1     6.9     7.0     7.2     7.1     7.2     7.1     7.0     7.3     7.1
     7.1     7.1     6.8     7.0     7.0     7.0     6.9     6.9     7.1     7.1
     7.2     7.2     7.0     7.2     7.2     7.1     7.1     7.0     7.1     7.1
     7.1     7.2     7.1     7.1     7.1     7.0     7.0     7.0     7.1     7.2
     7.2     7.2     7.1     7.2     7.3     7.1     7.1     7.2     7.1     7.1
     7.2     7.2     7.3     7.4     7.1     7.0     7.1     7.2     7.3     7.3
     7.1     7.2     7.3     7.2     7.1     7.3     7.2     7.2     7.1     7.0
     7.2     7.1     6.9     7.1     7.1     7.1     7.1     7.1     7.0     7.0
     7.2     7.2     7.1     7.0     7.1     7.2     7.1     7.2     7.2     7.2
     7.0     7.1     7.2     7.0     7.1     7.2     7.0     7.1     7.1     7.2
     7.3     7.4     7.2     7.3     7.2     7.1     7.2     7.1     7.2     7.2
     7.1     7.2     7.2     7.3     7.3     7.2     7.3     7.3     7.3     7.2
     7.2     7.0     7.0     7.2     7.2     7.0     7.1     7.2     7.1     7.1
     7.1     7.0     7.1     7.2     7.1     7.1     7.1     6.9     6.9     7.2
     7.0     7.0     7.1     7.0     7.0     7.0     7.0     7.1     7.2     7.1
     7.1     7.2     7.0     6.9     7.1     7.1     7.1     7.1     6.8     7.0
     7.1     7.0     7.0     7.1     7.1     7.0     7.2     7.1     7.0     7.1
     7.1     7.1     7.0     7.1     7.2     7.0     7.1     7.0     7.0     7.0
     6.9     7.2     7.1     7.0     7.0     6.9     7.0     7.1     7.1     7.0
     7.0     6.9     6.9     7.0     6.9     7.0     7.0     7.0     7.1     7.0
     7.1     7.1     7.1     7.2     7.0     7.2     7.1     7.0     7.0     7.0
     6.9     6.9     7.0     7.2     7.1     7.0     7.1     7.2     7.0     6.9
     7.3     7.2     6.9     7.2     7.2     7.1     7.1     7.0     7.1     7.0
     6.9     7.0     7.0     7.0     7.0     6.9     7.0     7.1     7.2     7.1
     7.1     7.2     7.1     7.1     7.2     7.2     7.1     7.2     7.3     7.1
     7.0     7.2     7.2     7.0     7.1     7.1     7.1     7.0     7.1     7.2
     7.2     7.3     7.1     7.1     7.2     7.0     7.2     7.2     6.9     7.1
     7.1     7.1     7.2     7.2     7.1     7.0     7.0     7.2     7.2     7.1
     7.1     7.0     6.9     7.1     7.1     7.1     7.1     7.1     7.1     6.9
     7.1     7.2     7.0     7.0     6.9     7.0     7.2     7.1     7.0     7.0
     7.1     7.2     7.1     7.1     7.0     7.0     7.1     7.1     7.1     7.2
     7.2     7.1     7.1     7.2     7.1     7.2     7.2     7.3     7.2     7.1
     7.1     7.1     7.2     7.1     7.0     7.2     7.1     7.0     7.0     7.1
     7.1     6.9     7.1     7.1     7.1     7.2     7.1     7.1     7.1     7.0
     7.0     7.0     7.1     7.2     7.2     7.2     7.0     7.1     7.1     7.1
     7.1     7.0     7.1     7.2     7.1     7.0     7.1     7.2     7.1     7.1
     7.0     7.0     7.0     6.9     7.0     7.0     7.2     7.1     7.0     7.2
     7.1     7.1     7.1     7.0     7.1     7.1     7.0     7.0     7.1     7.0
     7.0     7.2     7.1     7.3     7.1     7.1     7.3     7.0     7.1     7.3
     7.2     7.1     7.1     7.0     6.8     6.9     7.0     7.0     7.1     7.1
     7.1     7.1     7.1     7.0     7.1     7.1     6.9     7.1     7.2     7.2
     7.1     7.0     7.1     7.1     7.1     7.1     7.1     7.1     7.0     7.1
     7.1     7.1     7.3     7.0     7.1     7.1     6.9     7.2     7.2     7.1
     7.1     7.2     7.1     7.1     7.1     7.1     7.1     7.1     7.1     7.1
     7.1     7.3     7.1     6.9     7.0     7.1     7.0     7.0     7.0     7.0
     7.1     7.1     7.0     7.0     7.1     7.1     7.2     7.3     7.1     7.2
     7.2     7.2     7.2     7.2     7.2     7.1     7.2     7.2     7.2     7.2
     7.0     7.0     7.1     7.1     7.0     7.2     7.1     7.0     7.1     7.0
     7.1     7.1     7.0     7.2     7.1     7.1     7.2     7.1     7.2     7.2
     7.0     7.1     7.0     6.9     7.0     7.0     7.1     7.2     7.2     7.2
     7.0     7.0     6.9     7.0     7.0     6.9     7.1     7.1     7.1     7.1
     6.9     7.0     7.0     7.2     7.2     7.0     7.2     7.1     6.8     7.1
     7.1     6.9     7.1     7.0     6.9     7.2     7.1     7.0     7.0     6.9
     6.9     7.1     7.2     7.0     7.0     7.1     7.1     7.2     7.2     7.1
     7.2     7.3     7.2     7.1     7.3     7.3     7.2     7.2     7.1     7.1
     7.2     7.1     7.0     7.0     7.0     7.0     7.0     7.2     7.2     7.1
     7.1     7.1     7.1     7.2     7.2     7.2     7.1     7.0     7.0     7.0
     7.1     7.3     7.2     7.1     7.1     7.0     6.9     7.1     7.1     7.1
     7.2     7.2     7.1     7.1     6.9     7.0     7.2     7.1     7.0     7.0
     7.0     7.1     7.1     6.9     7.0     7.1     7.2     7.1     7.1     7.1
     7.1     7.1     7.0     7.2     7.2     7.1     7.2     7.1     7.1     7.1
     6.9     7.1     7.0     6.8     7.1     7.2     7.0     7.1     7.2     7.1
     7.2     7.3     7.2     7.1     7.1     7.2     7.3     7.3     7.2     7.2
     7.2     7.2     7.2     7.1     7.2     7.2     7.2     7.2     7.1     7.2
     7.3     7.2     7.1     7.2     7.2     7.1     7.1     7.2     7.2     7.1
     7.1     7.1     7.2     7.3     7.3     7.2     7.3     7.2     7.2     7.2
     7.2     7.0     7.0     7.1     7.1     7.1     7.1     7.2     7.2     7.0
     7.0     7.1     7.1     7.1     7.1     7.2     7.0     6.9     7.0     7.0
     7.0     7.1     7.1     7.2     7.1     7.0     7.1     6.9     7.1     7.2
     7.2     7.2     7.1     7.1     7.0     7.0     7.1     7.1     7.1     7.0
     7.1     7.2     7.1     7.1     7.2     6.9     7.0     7.1     7.0     7.2
     7.1     7.1     7.1     7.0     7.2     7.3     7.2     7.1     7.1     7.1
     7.2     7.2     7.3     7.2     7.1     7.3     7.2     7.0     7.2     7.1
     7.1     7.3     7.1     7.2     7.2     7.1     7.2     7.3     7.2     7.1
     7.2     7.2     7.2     7.2     7.0     7.2     7.3     7.3     7.2     7.1
     7.2     7.1     7.1     7.1     7.1     7.2     7.3     7.1     7.0     7.1
     7.2     7.2     7.1     7.2     7.1     7.1     7.2     7.1     7.2     7.3
     7.1     7.0     7.1     7.2     7.0     7.2     7.2     7.0     7.1     7.1
     7.1     7.1     7.0     6.9     7.1     7.2     7.1     7.2     7.2     6.9
     7.1     7.0     7.2     7.3     7.1     7.1     7.0     7.0     7.2     7.1
     7.1     7.1     7.0     7.1     7.0     7.0     7.0     7.0     7.1     7.1
     7.0     7.1     7.2     7.2     7.2     7.1     7.0     7.0     7.2     7.1
     7.0     7.1     7.0     7.2     7.3     7.1     7.2     7.2     7.2     7.4
     7.2     7.1     7.3     7.1     7.2     7.4     7.2     7.0     7.2     7.3
     7.1     7.1     7.2     7.1     7.2     7.2     7.0     7.0     7.1     7.0
     7.0     7.1     7.1     7.1     7.0     7.0     7.1     7.1     7.2     7.2
     6.9     7.0     7.1     7.0     7.1     7.2     6.9     7.2     7.3     6.9
     6.9     7.1     7.0     6.9     7.0     7.1     7.1     7.1     7.2     7.2
     7.1     7.2     7.1     6.8     7.0     7.1     7.0     7.0     6.9     7.0
     7.1     7.1     7.2     7.0     7.2     7.2     7.0     7.2     7.2     7.1
     7.1     7.0     7.0     7.1     6.9     7.2     7.2     7.0     7.1     7.0
     7.1     7.2     7.1     7.2     7.2     7.2     7.1     6.9     6.9     7.1
     7.2     7.0     7.2     7.2     7.1     7.2     7.0     7.1     7.1     7.0
     7.1     7.0     7.2     7.1     6.9     7.1     7.0     7.2     7.2     7.1
     7.2     7.1     7.1     7.1     7.2     7.2     7.2     7.1     7.1     7.3
     7.1     7.2     7.2     7.0     7.3     7.3     7.1     7.1     7.3     7.3
     7.1     7.0     7.1     7.2     7.2     7.2     7.0     7.0     7.1     7.0
     7.0     7.1     7.0     7.2     7.2     7.1     7.2     7.1     7.2     7.2
     7.1     7.2     7.1     7.1     7.0     7.0     7.2     7.1     7.1     7.1
     7.1     7.2     7.3     7.1     7.0     7.2     7.1     7.1     7.2     7.1
     7.1     7.0     7.2     7.3     7.1     7.1     7.1     7.3     7.2     7.1
     7.2     7.2     7.1     6.9     7.1     7.2     7.1     7.2     7.2     7.2
     7.1     7.1     7.3     7.1     7.0     7.1     7.1     7.1     7.1     7.1
     7.2     7.0     7.2     7.3     7.1     7.1     7.3     7.2     7.1     7.1
     7.0     7.2     7.1     7.1     7.2     7.1     7.2     7.1     7.0     7.1
     7.1     7.1     7.1     7.3     7.3     7.1     7.1     7.1     7.2     7.3
     7.3     7.2     7.2     7.1     7.1     7.1     6.9     7.1     7.1     7.1
     7.3     7.3     7.2     7.0     7.0     7.2     7.1     7.1     7.2     7.1
     7.2     7.2     7.3     7.2     7.1     7.3     7.1     7.1     7.4     7.2
     6.9     7.0     7.2     6.9     7.0     7.2     7.2     7.1     7.1     7.3
     7.2     7.0     7.1     7.0     7.2     7.2     7.1     7.0     7.0     7.2
     7.2     7.0     7.1     7.2     7.1     7.2     7.1     7.0     7.3     7.2
     7.2     7.5     7.4     7.1     7.2     7.3     7.2     7.2     7.2     7.2
     7.2     7.2     7.1     7.1     7.2     7.0     7.1     7.4     7.3     7.2
     7.2     7.1     7.2     7.2     7.2     7.0     7.1     7.2     7.0     7.0
     7.1     7.0     7.1     7.1     7.1     7.2     7.1     7.0     6.9     7.1
     7.1     7.1     7.2     7.3     7.3     7.2     7.2     7.2     7.2     7.1
     7.2     7.1     6.9     7.1     7.0     6.9     7.0     7.1     7.0     7.1
     7.2     7.3     7.2     7.1     7.1     7.2     7.2     7.2     7.3     7.2
     7.1     7.3     7.3     7.1     7.1     7.2     7.1     7.3     7.3     7.2
     7.3     7.1     7.1     7.3     7.3     7.3     7.1     7.1     7.2     7.0
     7.0     7.2     7.2     7.2     7.2     7.1     7.0     7.2     7.1     6.9
     7.0     7.1     7.2     7.2     7.2     7.1     7.2     7.2     7.2     7.2
     7.1     7.2     7.2     7.0     7.1     7.2     7.1     7.1     7.2     7.3
     7.2     7.2     7.2     7.1     6.9     7.0     7.2     7.2     7.0     7.1
     7.2     7.1     7.1     7.1     7.0     7.0     7.2     7.1     7.3     7.2
     7.2     7.2     7.1     7.2     7.3     7.3     7.2     6.9     7.1     7.1
     7.1     7.3     7.2     7.2     7.2     7.3     7.3     7.1     7.2     7.3
     7.2     7.3     7.3     7.1     7.2     7.4     7.2     7.1     7.1     7.1
     7.2     7.2     7.1     7.2     7.1     7.2     7.3     7.1     7.1     7.1
     7.0     7.2     7.1     7.0     7.2     7.1     7.1     7.3     7.1     7.1
     7.2     7.2     7.3     7.3     7.3     7.2     7.1     7.2     7.2     7.2
     7.1     7.1     7.2     7.1     7.1     7.1     7.1     7.2     7.2     7.1
     7.2     7.3     7.2     7.2     7.2     7.1     7.2     7.3     7.1     7.1
     7.2     7.1     6.9     7.1     7.2     7.2     7.1     7.1     7.2     7.2
     7.1     7.2     7.2     7.2     7.3     7.2     7.2     7.1     7.2     7.2
     7.1     7.2     7.2     7.1     7.1     7.2     7.2     7.3     7.2     7.0
     7.2     7.2     7.1     7.1     7.0     7.1     7.1     7.3     7.3     7.2
     7.1     7.1     7.3     7.2     7.2     7.2     7.1     7.2     7.1     7.1
     7.2     7.1     7.2     7.2     7.2     7.1     7.1     7.3     7.3     7.1
     7.2     7.1     7.1     7.2     7.2     7.3     7.2     6.9     7.0     7.1
     7.0     7.0     7.1     7.2     7.2     7.1     7.2     7.2     7.0     7.1
     7.2     7.1     7.1     7.1     7.2     7.3     7.3     7.2     7.1     7.2
     7.2     7.1     7.2     7.1     7.1     7.3     7.2     7.0     7.1     7.3
     7.1     6.9     7.1     7.1     7.0     7.1     7.2     7.2     7.2     7.1
     7.1     7.1     7.1     7.1     7.0     7.1     7.2     7.2     7.2     7.1
     7.1     7.0     7.0     7.1     7.1     7.2     7.0     7.0     6.9     6.8
     7.1     7.1     7.1     7.2     7.1     7.0     7.0     7.1     7.1     7.1
     7.1     7.1     6.9     6.9     7.1     7.0     7.0     7.0     7.0     7.1
     7.1     7.0     7.0     7.1     7.2     7.2     7.0     7.0     7.1     7.1
     7.2     7.1     7.0     7.0     7.1     7.1     7.1     7.2     7.1     6.9
     7.0     7.0     7.1     7.2     7.3     7.2     7.1     7.2     7.2     7.1
     7.0     7.0     7.2     7.1     7.0     7.0     7.0     7.2     7.1     7.0
     7.0     7.0     7.0     7.0     7.0     7.0     7.0     7.1     7.2     7.2
     7.2     7.1     7.1     7.2     7.2     7.1     7.1     7.2     7.0     7.0
     7.2     7.0     7.0     7.1     7.0     7.1     7.1     7.2     7.2     7.1
     7.2     7.2     7.3     7.3     7.2     7.0     7.1     7.3     7.1     6.9
     7.0     7.0     7.1     7.3     7.3     7.2     7.1     7.1     7.0     7.1
     7.3     7.2     7.1     7.1     7.3     7.2     7.0     7.2     7.2     7.0
     7.1     7.2     7.0     6.9     7.0     6.9     7.0     7.1     7.0     7.1
     7.0     7.1     7.0     6.9     7.0     7.0     7.1     7.1     7.0     7.1
     7.1     7.0     7.1     7.2     7.1     7.2     7.2     7.1     7.1     7.1
     7.2     7.3     7.2     7.2     7.2     7.1     7.2     7.1     7.2     7.1
     6.9     6.9     7.0     7.1     7.1     7.2     7.1     7.2     7.3     7.2
     7.1     7.1     7.1     7.1     7.0     7.2     7.2     7.2     7.3     7.2
     7.2     7.1     7.1     7.2     7.2     7.1     7.1     7.1     7.2     7.2
     7.1     7.1     7.1     7.0     7.0     7.2     7.3     7.2     7.2     7.1
     7.0     7.2     7.2     7.1     7.2     7.1     7.2     7.3     7.0     7.0
     7.0     7.1     7.2     7.0     7.0     7.1     7.2     7.1     7.1     6.9
     7.0     7.2     7.0     7.1     7.2     7.2     7.1     7.2     7.1     6.9
     7.1     7.2     7.2     7.2     7.0     7.1     7.1     7.0     7.2     7.2
     7.0     7.1     7.2     7.3     7.2     7.2     7.2     7.2     7.2     7.2
