Uncorrected accelerogram 20161113_110256_BMTS_20 GNS Science
Site BMTS      41 11 29S  174 55 34E     Basalt file:  20161113_110332_BMTS
Belmont
Instrument Basalt_2149
Resolution: 24-bit   Instr Period: 0.0050 s   Damping: 0.700
Accelerogram 20161113_110256_BMTS_20                 Processed 2016 December 09
5 km south-west of Waiau
2016 November 13         11:02:56 UT
Epicentre  42 41 33S 173 01 19E  Bearing S43W  Dist  230km  Depth   15km Mw 7.82
Number of points  52400    Duration 262.00 s
Raw readings in units of 1.00 mm/s/s  at intervals of 0.005 s
Data is unfiltered
Component S54W
Acceleration:  Peak  -1075.1 mm/s/s at 114.84 s     RMS    72.92 mm/s/s
Velocity record unevaluated
Displacement record unevaluated
    2016      11      13      11       2     560       0       0    2016      11
      42      41      33     173       1      19      15       0      13      11
      41      11      29     174      55      34     234     234     223     230
   52400       0       0   52400       0       0       0       0       2   52000
   200.0    0.70    0.00   0.000  0.0000   0.000   0.000   1.000     0.0    0.00
  41.191 174.926  42.693 173.022    7.82    0.00    0.00    0.00      0.      0.
  262.00    0.00    0.00  262.00  0.0050  0.0050      0.      0.      0.  9806.6
 -1075.1  114.84    72.9      0.      0.     0.0    0.00     0.0     0.0   0.000
    0.00    0.00    0.00    0.00   0.000    0.00    0.00    0.00    0.00   0.000
   0.000   0.000   0.000      0.      0.   0.000   0.000   0.000      0.      0.
    -0.1    -0.1    -0.0     0.1     0.0    -0.1    -0.0     0.0    -0.1    -0.1
    -0.0     0.1    -0.0    -0.1     0.0     0.1    -0.0    -0.1    -0.1     0.0
    -0.0    -0.1    -0.1     0.1     0.1    -0.1    -0.1     0.0    -0.0    -0.1
    -0.1     0.0     0.0    -0.1    -0.1     0.0     0.1    -0.1    -0.1     0.1
     0.0    -0.0    -0.1    -0.0     0.1    -0.1    -0.1    -0.0     0.1    -0.0
    -0.1     0.0     0.1     0.0    -0.1    -0.0     0.0    -0.1    -0.1    -0.1
     0.0    -0.0    -0.1     0.0     0.1     0.0    -0.1    -0.0     0.1    -0.0
    -0.1    -0.1     0.1     0.0    -0.0    -0.1     0.0     0.0    -0.1    -0.1
    -0.0     0.0    -0.0    -0.1     0.1     0.1    -0.1    -0.1    -0.0     0.1
    -0.0    -0.1     0.0     0.1    -0.0    -0.1    -0.1     0.1    -0.0    -0.2
    -0.0     0.1    -0.0    -0.1    -0.0     0.0    -0.0    -0.1    -0.1     0.1
     0.0    -0.1    -0.1     0.0     0.0    -0.1    -0.1     0.1    -0.0    -0.1
    -0.0     0.0     0.1    -0.1    -0.1     0.1    -0.0    -0.1    -0.1     0.0
     0.1    -0.1    -0.1     0.0     0.1    -0.1    -0.2     0.0     0.1    -0.1
    -0.1     0.0     0.1     0.0    -0.1    -0.0     0.1    -0.1    -0.1    -0.0
     0.0     0.0    -0.1    -0.0     0.1     0.0    -0.2    -0.1     0.0     0.0
    -0.1    -0.0     0.1     0.0    -0.1    -0.1     0.0     0.0    -0.1    -0.1
     0.0     0.0    -0.0    -0.1     0.1     0.0    -0.1    -0.1    -0.0     0.0
    -0.1    -0.1     0.0     0.0    -0.1    -0.1     0.0     0.1    -0.1    -0.1
    -0.0     0.1    -0.0    -0.1    -0.0     0.1    -0.0    -0.1    -0.0     0.1
    -0.0    -0.1     0.0     0.1    -0.0    -0.1    -0.1     0.1     0.0    -0.2
    -0.1     0.1     0.0    -0.1    -0.0     0.0     0.0    -0.1    -0.1     0.1
     0.0    -0.1    -0.1     0.0     0.0    -0.0    -0.1     0.0     0.0    -0.1
    -0.1     0.0     0.1    -0.0    -0.1     0.0     0.0    -0.0    -0.1    -0.0
     0.1    -0.1    -0.1     0.0     0.1     0.0    -0.1    -0.0     0.0    -0.0
    -0.1    -0.1     0.0     0.0    -0.1    -0.0     0.1     0.0    -0.1    -0.1
     0.1    -0.0    -0.1    -0.1     0.0     0.0    -0.1    -0.1     0.0     0.0
    -0.1    -0.1     0.0     0.1    -0.0    -0.1     0.0     0.1    -0.1    -0.1
     0.0     0.1    -0.1    -0.1     0.0     0.1    -0.0    -0.1    -0.1     0.0
    -0.1    -0.2     0.0     0.1    -0.0    -0.1    -0.0     0.1    -0.0    -0.1
    -0.1     0.0     0.0    -0.2    -0.0     0.1     0.0    -0.1    -0.1     0.1
    -0.0    -0.1    -0.1     0.1     0.1    -0.1    -0.1     0.0     0.0    -0.1
    -0.1     0.0     0.0    -0.1    -0.1     0.0     0.1    -0.0    -0.1     0.0
     0.0    -0.1    -0.1    -0.0     0.1    -0.0    -0.1    -0.0     0.1     0.0
    -0.2    -0.0     0.1    -0.1    -0.1    -0.0     0.1     0.0    -0.1    -0.0
     0.1    -0.1    -0.1    -0.1     0.0     0.0    -0.1    -0.0     0.1     0.0
    -0.1    -0.0     0.0     0.0    -0.1    -0.1     0.0     0.0    -0.1    -0.1
     0.1     0.1    -0.1    -0.1    -0.0     0.1    -0.1    -0.1     0.1     0.0
    -0.0    -0.2    -0.0     0.1    -0.1    -0.1     0.1     0.1    -0.0    -0.0
    -0.0     0.0    -0.0    -0.1    -0.1     0.0    -0.0    -0.1    -0.0     0.1
     0.0    -0.1    -0.1     0.1    -0.0    -0.2    -0.1     0.1     0.0    -0.1
    -0.1     0.0     0.0    -0.1    -0.1     0.0     0.0    -0.1    -0.1    -0.0
     0.0    -0.0    -0.1    -0.0     0.0    -0.0    -0.1    -0.0     0.1    -0.0
    -0.1     0.0     0.0     0.0    -0.1    -0.0     0.0    -0.0    -0.1    -0.0
     0.1    -0.1    -0.1     0.0     0.1     0.0    -0.1    -0.1     0.1     0.1
    -0.1    -0.1     0.0     0.0    -0.1    -0.1    -0.0     0.1    -0.1    -0.1
     0.1     0.1    -0.1    -0.1    -0.0     0.1    -0.1    -0.1    -0.0     0.0
    -0.0    -0.1     0.0     0.1    -0.1    -0.1     0.0     0.0    -0.1    -0.1
    -0.0     0.1    -0.0    -0.0     0.0     0.1     0.0    -0.1    -0.1     0.0
    -0.0    -0.1    -0.0     0.1     0.0    -0.1    -0.0     0.1     0.0    -0.1
    -0.1     0.0    -0.0    -0.1    -0.1     0.0     0.1    -0.1    -0.1     0.1
     0.0    -0.1    -0.1    -0.0     0.0    -0.1    -0.1     0.1     0.1    -0.0
    -0.1    -0.0     0.0    -0.1    -0.1     0.0     0.1    -0.0    -0.1    -0.0
     0.1    -0.0    -0.1    -0.0     0.0     0.0    -0.1    -0.0     0.1    -0.0
    -0.1    -0.0     0.1     0.0    -0.1    -0.1     0.0     0.0    -0.1    -0.1
     0.1     0.0    -0.1    -0.1     0.0     0.0    -0.1    -0.1     0.0     0.1
    -0.1    -0.1     0.1     0.0    -0.1    -0.1    -0.0     0.0    -0.0    -0.1
    -0.0     0.1    -0.0    -0.1    -0.0     0.1    -0.0    -0.2    -0.0     0.0
    -0.0    -0.1    -0.0     0.1    -0.0    -0.1    -0.1     0.0    -0.0    -0.1
    -0.0     0.1    -0.0    -0.0    -0.1     0.1     0.0    -0.1    -0.1    -0.0
     0.1    -0.1    -0.1     0.1    -0.0    -0.1    -0.1     0.0     0.0    -0.1
    -0.1    -0.0     0.1    -0.1    -0.1     0.1     0.1    -0.0    -0.2    -0.0
     0.1    -0.1    -0.1    -0.1     0.0     0.0    -0.1    -0.0     0.0     0.0
    -0.1    -0.1     0.1    -0.0    -0.1    -0.0     0.1    -0.0    -0.1    -0.1
     0.0     0.0    -0.1    -0.1     0.1     0.0    -0.1    -0.1     0.0     0.0
    -0.1    -0.1     0.0     0.1    -0.1    -0.1     0.0     0.1    -0.0    -0.1
    -0.0     0.1    -0.1    -0.1    -0.0     0.0    -0.0    -0.1     0.0     0.0
    -0.0    -0.1    -0.0     0.1    -0.0    -0.1    -0.1     0.1     0.0    -0.1
    -0.0     0.0     0.0    -0.1    -0.1     0.1    -0.0    -0.1    -0.0     0.0
    -0.0    -0.1    -0.0     0.1     0.0    -0.1    -0.1     0.1     0.0    -0.1
    -0.1     0.0     0.1    -0.1    -0.2    -0.0     0.1    -0.1    -0.1     0.0
    -0.0    -0.1    -0.1     0.0     0.0    -0.1    -0.1     0.0     0.1    -0.1
    -0.1    -0.1     0.1     0.0    -0.2    -0.1     0.0     0.0    -0.1    -0.0
     0.0    -0.0    -0.1    -0.0     0.1    -0.1    -0.1    -0.1     0.1     0.1
    -0.1    -0.1     0.0     0.0     0.0    -0.1    -0.0     0.0    -0.1    -0.0
     0.1     0.0    -0.1    -0.1     0.1     0.1    -0.0    -0.2    -0.0     0.1
    -0.0    -0.1    -0.1     0.0    -0.0    -0.1    -0.0     0.0    -0.1    -0.1
     0.0     0.1     0.0    -0.2    -0.1     0.1     0.0    -0.1    -0.1     0.0
     0.0    -0.1    -0.0     0.0     0.0    -0.1    -0.1     0.1    -0.0    -0.1
    -0.1     0.0     0.1    -0.1    -0.1     0.0     0.0    -0.0    -0.1     0.0
     0.0    -0.1    -0.1     0.0     0.1    -0.1    -0.1    -0.0     0.0    -0.0
    -0.1    -0.0     0.0    -0.1    -0.0     0.0     0.1    -0.0    -0.1    -0.1
     0.1     0.0    -0.1    -0.0     0.0     0.0    -0.0    -0.0     0.1    -0.0
    -0.1    -0.1     0.1     0.0    -0.1    -0.1     0.1     0.1    -0.0    -0.1
    -0.0     0.1    -0.0    -0.1     0.0     0.0    -0.1    -0.1     0.0     0.1
    -0.0    -0.1    -0.0     0.0    -0.0    -0.1    -0.0     0.1    -0.0    -0.1
     0.0     0.1    -0.0    -0.1    -0.0     0.1    -0.0    -0.1    -0.1     0.0
     0.0    -0.1    -0.0     0.1    -0.0    -0.1    -0.1     0.1     0.1    -0.1
    -0.1     0.0     0.0    -0.1    -0.1     0.0     0.0    -0.1    -0.1     0.0
     0.0    -0.1    -0.1     0.0     0.0    -0.0    -0.1    -0.0     0.1    -0.1
    -0.2    -0.0     0.1    -0.0    -0.1    -0.0     0.1    -0.1    -0.1     0.0
     0.0    -0.0    -0.1    -0.1     0.1    -0.0    -0.1    -0.1     0.1    -0.0
    -0.1    -0.1     0.1     0.0    -0.1    -0.1     0.0     0.1    -0.1    -0.1
     0.1     0.0    -0.1    -0.1     0.0     0.0    -0.1    -0.1     0.0     0.1
    -0.1    -0.1     0.0     0.0    -0.0    -0.1    -0.0     0.1    -0.1    -0.1
    -0.0     0.1    -0.0    -0.1    -0.0     0.1    -0.0    -0.1    -0.1     0.0
     0.0    -0.1    -0.0     0.1     0.0    -0.1    -0.1     0.1     0.0    -0.1
    -0.1     0.0     0.0    -0.1    -0.1     0.0     0.0    -0.1    -0.1     0.0
     0.0    -0.1    -0.1     0.0     0.1    -0.1    -0.0    -0.0     0.0     0.0
    -0.2     0.0     0.1    -0.1    -0.1    -0.0     0.1    -0.0    -0.1    -0.0
     0.1    -0.0    -0.1    -0.0     0.0    -0.0    -0.1    -0.1     0.1     0.0
    -0.1    -0.0     0.0    -0.0    -0.1    -0.1     0.1     0.0    -0.1    -0.1
     0.0     0.0    -0.1    -0.1     0.1     0.0    -0.1    -0.1     0.0     0.1
    -0.1    -0.1     0.0     0.1    -0.1    -0.1     0.0     0.1    -0.0    -0.2
     0.0     0.1    -0.1    -0.1    -0.0     0.1    -0.0    -0.1    -0.0     0.1
    -0.0    -0.1    -0.0     0.0    -0.0    -0.1    -0.0     0.1     0.0    -0.1
    -0.1     0.0     0.0    -0.1    -0.1     0.1    -0.0    -0.1    -0.1     0.0
     0.0    -0.1    -0.1     0.1     0.0    -0.1    -0.1     0.0     0.1    -0.0
    -0.1     0.0     0.0    -0.1    -0.1    -0.0     0.1    -0.0    -0.1    -0.0
     0.0    -0.0    -0.1    -0.0     0.1    -0.1    -0.1    -0.0     0.1     0.0
    -0.1    -0.0     0.0    -0.0    -0.1    -0.1     0.1     0.0    -0.1    -0.1
     0.1    -0.0    -0.1    -0.1     0.0     0.0    -0.1    -0.1     0.0     0.1
    -0.1    -0.1     0.0     0.0    -0.0    -0.1     0.0     0.1    -0.1    -0.1
     0.0     0.1    -0.0    -0.1    -0.0     0.1    -0.1    -0.1    -0.0     0.1
    -0.0    -0.1    -0.0     0.1    -0.0    -0.2    -0.0     0.1    -0.1    -0.1
    -0.0     0.0     0.0    -0.1    -0.1     0.1     0.1    -0.1    -0.1     0.0
     0.0    -0.1    -0.1     0.1     0.0    -0.1    -0.1     0.0     0.0    -0.1
    -0.1     0.0     0.0    -0.1    -0.1    -0.0     0.0    -0.0    -0.1    -0.0
     0.0    -0.0    -0.1     0.0     0.1    -0.0    -0.1    -0.0     0.1    -0.0
    -0.1    -0.1     0.1    -0.0    -0.1    -0.0     0.1     0.0    -0.1    -0.1
     0.1     0.0    -0.1    -0.1     0.0     0.0    -0.1    -0.1     0.1     0.0
    -0.1    -0.1     0.0     0.1    -0.1    -0.1     0.0     0.0    -0.1    -0.1
     0.0     0.1    -0.0    -0.1    -0.0     0.1    -0.0    -0.1    -0.0     0.0
    -0.0    -0.1    -0.0     0.1    -0.0    -0.1    -0.0     0.1     0.0    -0.1
    -0.0     0.1     0.0    -0.2    -0.0     0.1    -0.0    -0.1    -0.1     0.0
     0.1    -0.1    -0.1     0.1     0.0    -0.1    -0.1     0.0     0.1    -0.1
    -0.1     0.1     0.1    -0.1    -0.1     0.0     0.1    -0.1    -0.1    -0.0
     0.1    -0.0    -0.1     0.0     0.1    -0.0    -0.1    -0.1     0.1     0.0
    -0.1    -0.0     0.1    -0.0    -0.1    -0.1     0.1    -0.0    -0.1    -0.0
     0.0     0.0    -0.1    -0.1     0.1     0.0    -0.1    -0.1     0.0    -0.0
    -0.1    -0.1     0.0     0.1    -0.1    -0.1     0.0     0.0    -0.0    -0.1
     0.0     0.1    -0.1    -0.1     0.0     0.0    -0.0    -0.1    -0.0     0.1
    -0.0    -0.1    -0.0     0.1    -0.0    -0.1    -0.0     0.0     0.0    -0.1
    -0.0     0.1    -0.0    -0.1    -0.0     0.0    -0.0    -0.1    -0.1     0.1
     0.0    -0.1    -0.0     0.0     0.0    -0.1    -0.1     0.1     0.0    -0.1
    -0.1     0.0     0.1    -0.1    -0.1    -0.0     0.1    -0.1    -0.1     0.0
     0.1    -0.1    -0.1     0.0     0.0    -0.0    -0.1    -0.0     0.1    -0.0
    -0.1    -0.0     0.1    -0.0    -0.1     0.0     0.0     0.0    -0.1    -0.1
     0.1    -0.0    -0.1    -0.0     0.0     0.0    -0.1    -0.1     0.0     0.0
    -0.1    -0.0     0.1    -0.0    -0.1    -0.1     0.0     0.0    -0.1    -0.1
    -0.0     0.1    -0.1    -0.1     0.1     0.0    -0.1    -0.1    -0.0     0.0
    -0.0    -0.1    -0.0     0.1    -0.0    -0.1     0.0     0.1    -0.0    -0.1
    -0.0     0.1    -0.0    -0.1    -0.0     0.1     0.0    -0.1    -0.0     0.0
     0.0    -0.1    -0.1     0.0    -0.0    -0.1    -0.1     0.1     0.0    -0.1
    -0.0     0.1     0.0    -0.1    -0.1     0.0     0.1    -0.1    -0.1     0.0
     0.0    -0.0    -0.1    -0.0     0.1    -0.0    -0.1    -0.0     0.1    -0.0
    -0.1    -0.0     0.1    -0.0    -0.1    -0.0     0.1    -0.0    -0.1    -0.0
     0.0     0.0    -0.1    -0.0     0.1    -0.0    -0.1    -0.1     0.0     0.0
    -0.1    -0.0     0.1     0.0    -0.1    -0.1    -0.0     0.0    -0.0    -0.1
     0.1     0.0    -0.1    -0.1    -0.0     0.1    -0.1    -0.1     0.0     0.0
    -0.0    -0.1     0.0     0.1    -0.1    -0.1    -0.0     0.1    -0.0    -0.1
    -0.0     0.0     0.0    -0.1    -0.1     0.0    -0.0    -0.1    -0.1     0.1
     0.0    -0.1    -0.1     0.0     0.0    -0.1    -0.1     0.0     0.0    -0.1
    -0.1     0.1     0.0    -0.1    -0.1    -0.0     0.1    -0.1    -0.1     0.1
     0.0    -0.1    -0.1     0.0     0.1    -0.0    -0.1    -0.0     0.1    -0.1
    -0.1    -0.0     0.1    -0.0    -0.1    -0.0     0.1     0.0    -0.1    -0.0
     0.1    -0.0    -0.1    -0.0     0.0     0.0    -0.1    -0.1     0.0     0.0
    -0.1    -0.1     0.0     0.0    -0.1    -0.1     0.0     0.0    -0.1    -0.1
     0.0     0.0    -0.1    -0.1     0.0     0.1    -0.1    -0.1     0.0     0.0
    -0.0    -0.1     0.0     0.1    -0.1    -0.1    -0.0     0.1    -0.1    -0.1
    -0.0     0.0     0.0    -0.1    -0.0     0.1    -0.0    -0.1    -0.0     0.1
    -0.0    -0.1    -0.0     0.1     0.0    -0.2    -0.0     0.1    -0.0    -0.1
    -0.1     0.0     0.0    -0.0    -0.1     0.1     0.1    -0.1    -0.0    -0.0
     0.0    -0.0    -0.1     0.1     0.1    -0.0    -0.1     0.0     0.1    -0.1
    -0.1    -0.0     0.1    -0.0    -0.1    -0.0     0.1    -0.0    -0.2     0.0
     0.1    -0.0    -0.1    -0.0     0.0    -0.0    -0.1    -0.0     0.1    -0.0
    -0.1    -0.1    -0.0     0.0    -0.1    -0.1     0.0     0.0    -0.0    -0.1
     0.0     0.0    -0.1    -0.1     0.1     0.1    -0.1    -0.1     0.0     0.0
    -0.1    -0.1     0.0     0.0    -0.1    -0.1    -0.0     0.1    -0.1    -0.1
     0.0     0.0    -0.0    -0.1    -0.0     0.0    -0.0    -0.1    -0.1     0.1
    -0.0    -0.1    -0.0     0.1     0.0    -0.1    -0.1     0.0    -0.0    -0.1
    -0.1     0.1     0.0    -0.1    -0.1     0.0     0.1    -0.0    -0.1     0.1
     0.1    -0.1    -0.1    -0.0     0.0    -0.0    -0.1     0.0     0.0    -0.0
    -0.1     0.0     0.1    -0.0    -0.1    -0.0     0.1    -0.0    -0.1    -0.0
     0.0    -0.0    -0.1    -0.1     0.1     0.0    -0.1    -0.1     0.1     0.0
    -0.1    -0.1     0.1     0.0    -0.1    -0.0     0.1     0.0    -0.1    -0.1
     0.0     0.0    -0.1    -0.1     0.0     0.0    -0.1    -0.1     0.0     0.1
    -0.1    -0.1    -0.0     0.0    -0.1    -0.1     0.0     0.1    -0.0    -0.1
    -0.0     0.1    -0.0    -0.1    -0.0     0.0    -0.0    -0.1    -0.0     0.0
    -0.0    -0.1    -0.1     0.1     0.0    -0.1    -0.0     0.0     0.0    -0.1
    -0.1     0.1     0.0    -0.1    -0.1     0.0     0.0    -0.1    -0.1     0.0
     0.0    -0.0    -0.1     0.0     0.1    -0.1    -0.1     0.0     0.1     0.0
    -0.1    -0.0     0.0    -0.1    -0.1     0.0     0.1    -0.0    -0.1    -0.0
     0.1    -0.0    -0.2     0.0     0.0    -0.0    -0.1    -0.1     0.1     0.0
    -0.1    -0.1     0.1     0.0    -0.1    -0.0     0.0     0.0    -0.1    -0.1
     0.0     0.0    -0.1    -0.1     0.0     0.0    -0.0    -0.1     0.0     0.0
    -0.1    -0.1     0.0     0.0    -0.1    -0.1    -0.0     0.0    -0.0    -0.1
     0.0     0.1    -0.0    -0.1    -0.1     0.0    -0.0    -0.1    -0.1     0.1
    -0.0    -0.1    -0.1     0.0     0.0    -0.1    -0.0     0.0    -0.0    -0.1
    -0.1     0.1    -0.0    -0.1    -0.0     0.0     0.0    -0.1    -0.1    -0.0
     0.0    -0.1    -0.1     0.0     0.1    -0.1    -0.1    -0.0     0.1    -0.1
    -0.1     0.0     0.1    -0.1    -0.1     0.0     0.1    -0.0    -0.1    -0.0
     0.1    -0.1    -0.1    -0.0     0.0    -0.0    -0.1    -0.0     0.1     0.0
    -0.1    -0.0     0.0     0.0    -0.1    -0.1     0.1    -0.0    -0.1    -0.1
     0.1     0.0    -0.2    -0.1     0.0     0.0    -0.1    -0.1     0.0     0.0
    -0.1    -0.1     0.0     0.1    -0.0    -0.1    -0.0     0.0    -0.0    -0.1
     0.0     0.1    -0.1    -0.1     0.0     0.1     0.0    -0.2    -0.1     0.1
    -0.1    -0.1    -0.0     0.1    -0.0    -0.1    -0.0     0.1    -0.0    -0.1
    -0.1     0.0     0.0    -0.1    -0.1     0.1     0.0    -0.1    -0.0    -0.0
     0.1    -0.1    -0.1     0.1     0.0    -0.0    -0.1    -0.0     0.1    -0.1
    -0.1     0.0     0.1    -0.1    -0.1     0.0     0.1    -0.0    -0.1     0.0
     0.1    -0.1    -0.1    -0.0     0.0    -0.0    -0.1    -0.1     0.0     0.0
    -0.1    -0.0     0.1     0.0    -0.1    -0.1     0.1     0.0    -0.1    -0.1
     0.1     0.0    -0.1    -0.1     0.0     0.1    -0.1    -0.1     0.0     0.0
    -0.1    -0.1     0.1     0.0    -0.0    -0.1    -0.0     0.1    -0.1    -0.1
     0.0     0.0    -0.0    -0.1    -0.0     0.0    -0.0    -0.1    -0.0     0.1
    -0.0    -0.1    -0.0     0.1     0.0    -0.1    -0.0     0.0    -0.1    -0.1
    -0.1     0.1     0.1    -0.1    -0.1     0.1    -0.0    -0.1    -0.1     0.0
     0.0    -0.1    -0.1     0.0     0.0    -0.1    -0.1    -0.0     0.1    -0.1
    -0.1     0.0     0.0    -0.0    -0.1     0.0     0.1    -0.0    -0.1    -0.0
     0.1    -0.0    -0.1    -0.0     0.0    -0.0    -0.1    -0.0     0.1    -0.0
    -0.1    -0.1     0.0     0.0    -0.1    -0.1     0.1    -0.0    -0.1    -0.1
     0.0     0.1    -0.1    -0.1     0.0     0.0    -0.0    -0.1     0.0     0.0
    -0.1    -0.1     0.0     0.1    -0.1    -0.1    -0.0     0.1    -0.1    -0.2
     0.0     0.1    -0.0    -0.1    -0.0     0.1    -0.0    -0.1    -0.0     0.1
    -0.0    -0.1    -0.0     0.0    -0.0    -0.1    -0.1     0.1    -0.0    -0.1
    -0.0     0.1    -0.0    -0.1    -0.0     0.0     0.0    -0.1    -0.1     0.0
     0.0    -0.0    -0.1     0.1     0.0    -0.1    -0.1    -0.0     0.1    -0.0
    -0.1     0.0    -0.0    -0.1    -0.1     0.0     0.1    -0.1    -0.1    -0.0
     0.1    -0.0    -0.1    -0.0     0.1    -0.0    -0.1    -0.0     0.1     0.0
    -0.1    -0.1     0.0    -0.0    -0.1    -0.1     0.1     0.0    -0.1    -0.0
     0.0     0.0    -0.1    -0.1     0.1     0.1    -0.0    -0.0    -0.0     0.1
    -0.0    -0.2     0.1     0.1    -0.1    -0.1     0.0     0.1    -0.1    -0.1
    -0.0     0.1     0.0    -0.1    -0.0     0.1    -0.0    -0.1    -0.1     0.1
    -0.0    -0.1     0.0     0.0    -0.0    -0.1    -0.1     0.0     0.0    -0.1
    -0.0     0.0    -0.0    -0.1    -0.1     0.1     0.0    -0.1    -0.1     0.0
     0.0    -0.1    -0.1     0.1    -0.0    -0.1    -0.1     0.1     0.1    -0.1
