Uncorrected accelerogram 20161113_110256_KIKS_20 GNS Science
Site KIKS      42 25 33S  173 40 56E     Basalt file:  20161113_110309_KIKS
Kaikoura
Instrument Basalt_2420
Resolution: 24-bit   Instr Period: 0.0050 s   Damping: 0.700
Accelerogram 20161113_110256_KIKS_20                 Processed 2016 December 09
5 km south-west of Waiau
2016 November 13         11:02:56 UT
Epicentre  42 41 33S 173 01 19E  Bearing S61W  Dist   62km  Depth   15km Mw 7.82
Number of points  65536    Duration 327.68 s
Raw readings in units of 1.00 mm/s/s  at intervals of 0.005 s
Data is unfiltered
Component S24E
Acceleration:  Peak  -2511.8 mm/s/s at  66.10 s     RMS   187.68 mm/s/s
Velocity record unevaluated
Displacement record unevaluated
    2016      11      13      11       2     560       0       0    2016      11
      42      41      33     173       1      19      15       0      13      11
      42      25      33     173      40      56     156     156     241      62
   65536       0       0   65536       0       0       0       0       2   29000
   200.0    0.70    0.00   0.000  0.0000   0.000   0.000   1.000     0.0    0.00
  42.426 173.682  42.693 173.022    7.82    0.00    0.00    0.00      0.      0.
  327.68    0.00    0.00  327.68  0.0050  0.0050      0.      0.      0.  9806.6
 -2511.8   66.10   187.7      0.      0.     0.0    0.00     0.0     0.0   0.000
    0.00    0.00    0.00    0.00   0.000    0.00    0.00    0.00    0.00   0.000
   0.000   0.000   0.000      0.      0.   0.000   0.000   0.000      0.      0.
     2.7     2.8     2.7     2.7     2.7     2.8     2.7     2.7     2.7     2.7
     2.8     2.7     2.7     2.8     2.7     2.7     2.7     2.7     2.7     2.8
     2.7     2.7     2.7     2.7     2.8     2.7     2.7     2.7     2.8     2.7
     2.7     2.7     2.8     2.7     2.7     2.7     2.8     2.7     2.7     2.7
     2.7     2.7     2.7     2.7     2.7     2.7     2.7     2.7     2.7     2.7
     2.7     2.7     2.8     2.7     2.7     2.8     2.7     2.7     2.7     2.7
     2.8     2.7     2.7     2.7     2.7     2.7     2.7     2.7     2.7     2.7
     2.8     2.7     2.7     2.8     2.7     2.8     2.7     2.7     2.8     2.7
     2.7     2.8     2.7     2.7     2.7     2.7     2.7     2.7     2.7     2.7
     2.8     2.7     2.7     2.8     2.7     2.7     2.8     2.7     2.7     2.7
     2.7     2.7     2.7     2.7     2.7     2.8     2.7     2.7     2.7     2.7
     2.7     2.7     2.7     2.8     2.7     2.7     2.8     2.7     2.7     2.7
     2.8     2.8     2.6     2.7     2.7     2.7     2.7     2.7     2.7     2.8
     2.7     2.7     2.7     2.8     2.7     2.7     2.8     2.7     2.8     2.7
     2.7     2.7     2.7     2.8     2.7     2.7     2.7     2.8     2.7     2.7
     2.8     2.7     2.8     2.7     2.7     2.8     2.8     2.7     2.7     2.8
     2.7     2.7     2.7     2.7     2.8     2.7     2.8     2.7     2.7     2.7
     2.8     2.7     2.7     2.7     2.7     2.8     2.7     2.7     2.8     2.8
     2.7     2.7     2.7     2.8     2.7     2.8     2.7     2.8     2.8     2.7
     2.7     2.7     2.8     2.8     2.8     2.7     2.7     2.8     2.7     2.6
     2.7     2.8     2.8     2.6     2.7     2.8     2.8     2.7     2.7     2.8
     2.8     2.7     2.7     2.7     2.8     2.7     2.7     2.7     2.8     2.7
     2.7     2.7     2.7     2.8     2.7     2.7     2.7     2.7     2.8     2.7
     2.7     2.7     2.8     2.8     2.7     2.7     2.8     2.7     2.7     2.7
     2.8     2.7     2.7     2.7     2.8     2.7     2.7     2.8     2.7     2.8
     2.7     2.7     2.8     2.7     2.7     2.7     2.8     2.7     2.7     2.8
     2.7     2.7     2.8     2.8     2.7     2.7     2.7     2.8     2.7     2.7
     2.7     2.7     2.8     2.7     2.7     2.7     2.7     2.8     2.7     2.7
     2.8     2.7     2.7     2.8     2.7     2.7     2.7     2.7     2.7     2.8
     2.8     2.7     2.7     2.8     2.7     2.7     2.7     2.7     2.8     2.7
     2.8     2.7     2.7     2.8     2.7     2.7     2.8     2.7     2.8     2.7
     2.7     2.8     2.7     2.7     2.8     2.7     2.8     2.7     2.7     2.7
     2.7     2.7     2.7     2.7     2.7     2.7     2.7     2.8     2.7     2.7
     2.8     2.7     2.7     2.7     2.8     2.7     2.7     2.7     2.7     2.8
     2.7     2.7     2.8     2.7     2.7     2.7     2.7     2.8     2.7     2.7
     2.7     2.8     2.7     2.7     2.7     2.7     2.8     2.7     2.7     2.7
     2.7     2.8     2.7     2.7     2.8     2.7     2.7     2.7     2.7     2.8
     2.7     2.7     2.7     2.7     2.7     2.7     2.7     2.8     2.7     2.7
     2.7     2.7     2.7     2.7     2.7     2.7     2.7     2.7     2.7     2.7
     2.7     2.7     2.7     2.8     2.7     2.7     2.7     2.7     2.7     2.7
     2.7     2.7     2.7     2.7     2.7     2.7     2.7     2.7     2.7     2.8
     2.7     2.8     2.7     2.7     2.7     2.7     2.8     2.7     2.7     2.7
     2.8     2.7     2.6     2.7     2.8     2.7     2.7     2.7     2.8     2.7
     2.7     2.7     2.7     2.8     2.7     2.7     2.8     2.7     2.7     2.7
     2.7     2.8     2.7     2.7     2.7     2.7     2.7     2.8     2.7     2.7
     2.7     2.8     2.8     2.7     2.7     2.7     2.8     2.7     2.5     2.8
     2.8     2.6     2.7     2.7     2.8     2.7     2.7     2.8     2.8     2.6
     2.7     2.8     2.6     2.7     2.7     2.8     2.7     2.7     2.8     2.7
     2.8     2.7     2.7     2.8     2.7     2.7     2.7     2.8     2.7     2.7
     2.7     2.7     2.8     2.7     2.7     2.7     2.7     2.7     2.8     2.7
     2.7     2.8     2.7     2.7     2.8     2.7     2.7     2.7     2.7     2.8
     2.7     2.7     2.7     2.7     2.8     2.7     2.7     2.7     2.7     2.8
     2.7     2.7     2.8     2.7     2.7     2.7     2.8     2.7     2.7     2.8
     2.7     2.8     2.7     2.7     2.7     2.7     2.8     2.7     2.7     2.7
     2.8     2.7     2.7     2.8     2.8     2.7     2.7     2.7     2.8     2.7
     2.7     2.8     2.6     2.7     2.8     2.7     2.7     2.7     2.8     2.7
     2.6     2.7     2.7     2.8     2.7     2.7     2.7     2.7     2.8     2.7
     2.8     2.7     2.7     2.8     2.8     2.7     2.7     2.8     2.7     2.7
     2.7     2.7     2.8     2.7     2.7     2.7     2.7     2.8     2.7     2.7
     2.8     2.7     2.7     2.7     2.8     2.8     2.7     2.7     2.8     2.7
     2.7     2.7     2.7     2.7     2.8     2.7     2.6     2.8     2.7     2.7
     2.7     2.7     2.8     2.8     2.7     2.7     2.8     2.7     2.7     2.7
     2.7     2.8     2.7     2.7     2.7     2.7     2.8     2.6     2.8     2.9
     2.6     2.6     2.8     2.9     2.6     2.5     2.8     2.9     2.7     2.5
     2.8     2.9     2.6     2.7     2.7     2.7     2.8     2.7     2.6     2.8
     2.8     2.7     2.7     2.7     2.8     2.7     2.7     2.7     2.7     2.8
     2.7     2.6     2.7     2.8     2.8     2.7     2.7     2.8     2.8     2.7
     2.7     2.7     2.8     2.7     2.7     2.7     2.8     2.7     2.7     2.8
     2.7     2.7     2.7     2.7     2.7     2.7     2.7     2.7     2.8     2.7
     2.7     2.7     2.8     2.7     2.7     2.7     2.8     2.7     2.7     2.7
     2.8     2.8     2.5     2.7     2.9     2.8     2.6     2.6     2.9     2.8
     2.7     2.7     2.7     2.9     2.7     2.6     2.7     2.8     2.8     2.7
     2.7     2.7     2.9     2.7     2.6     2.8     2.7     2.7     2.7     2.8
     2.7     2.7     2.9     2.7     2.6     2.7     2.9     2.7     2.6     2.7
     2.8     2.9     2.6     2.6     2.8     2.8     2.8     2.7     2.7     2.8
     2.8     2.7     2.6     2.8     2.8     2.7     2.7     2.6     2.8     2.9
     2.7     2.6     2.8     2.8     2.7     2.7     2.7     2.8     2.8     2.7
     2.6     2.8     2.8     2.7     2.7     2.7     2.7     2.8     2.7     2.7
     2.8     2.8     2.7     2.7     2.7     2.8     2.7     2.7     2.7     2.7
     2.8     2.7     2.7     2.8     2.7     2.7     2.7     2.7     2.7     2.8
     2.8     2.7     2.7     2.7     2.7     2.7     2.7     2.7     2.8     2.7
     2.7     2.8     2.7     2.8     2.7     2.7     2.8     2.7     2.7     2.8
     2.7     2.7     2.8     2.7     2.8     2.7     2.7     2.7     2.7     2.7
     2.7     2.7     2.8     2.7     2.7     2.8     2.7     2.7     2.7     2.7
     2.7     2.8     2.7     2.7     2.7     2.8     2.7     2.7     2.7     2.8
     2.9     2.7     2.5     2.8     2.9     2.8     2.6     2.5     2.9     3.0
     2.6     2.5     2.9     2.9     2.6     2.7     2.6     2.8     2.9     2.5
     2.7     2.8     2.9     2.6     2.7     2.8     2.8     2.8     2.5     2.8
     2.9     2.6     2.7     2.7     2.8     2.8     2.7     2.7     2.8     2.8
     2.7     2.7     2.7     2.7     2.7     2.7     2.7     2.7     2.7     2.8
     2.8     2.7     2.7     2.8     2.7     2.7     2.7     2.7     2.8     2.7
     2.7     2.7     2.7     2.7     2.8     2.7     2.7     2.8     2.8     2.7
     2.6     2.7     2.9     2.7     2.6     2.7     2.8     2.8     2.5     2.7
     2.8     2.8     2.7     2.6     2.8     2.7     2.7     2.7     2.8     2.8
     2.6     2.7     2.8     2.8     2.7     2.7     2.8     2.7     2.7     2.7
     2.7     2.7     2.7     2.7     2.8     2.7     2.6     2.8     2.7     2.7
     2.7     2.7     2.8     2.7     2.7     2.7     2.8     2.8     2.6     2.8
     2.8     2.7     2.7     2.7     2.7     2.7     2.7     2.7     2.7     2.7
     2.7     2.8     2.7     2.7     2.8     2.7     2.7     2.8     2.8     2.7
     2.7     2.8     2.7     2.7     2.7     2.8     2.8     2.7     2.6     2.7
     2.9     2.8     2.6     2.7     2.8     2.8     2.7     2.7     2.7     2.8
     2.6     2.7     3.0     2.6     2.6     2.6     3.1     2.8     2.2     2.7
     3.0     2.9     2.5     2.6     2.9     2.8     2.8     2.5     2.6     3.0
     2.7     2.6     2.8     2.8     2.7     2.7     2.7     2.8     2.8     2.7
     2.6     2.8     2.8     2.7     2.6     2.7     2.8     2.8     2.7     2.7
     2.7     2.8     2.7     2.7     2.7     2.7     2.8     2.7     2.7     2.7
     2.7     2.8     2.8     2.6     2.6     2.8     2.8     2.7     2.6     2.7
     2.8     2.8     2.7     2.6     2.8     2.8     2.7     2.7     2.7     2.8
     2.7     2.7     2.7     2.7     2.8     2.7     2.7     2.8     2.7     2.7
     2.7     2.7     2.8     2.7     2.7     2.7     2.7     2.7     2.8     2.7
     2.7     2.8     2.7     2.7     2.7     2.7     2.7     2.7     2.8     2.7
     2.7     2.8     2.8     2.7     2.7     2.7     2.8     2.8     2.7     2.7
     2.8     2.8     2.7     2.7     2.7     2.8     2.8     2.7     2.7     2.8
     2.8     2.7     2.7     2.7     2.8     2.8     2.6     2.7     2.8     2.7
     2.7     2.7     2.7     2.8     2.8     2.6     2.7     2.8     2.8     2.7
     2.7     2.7     2.8     2.8     2.6     2.7     2.8     2.8     2.7     2.6
     2.8     2.8     2.7     2.7     2.8     2.7     2.7     2.7     2.7     2.8
     2.8     2.7     2.7     2.8     2.7     2.8     2.7     2.7     2.8     2.7
     2.7     2.8     2.7     2.7     2.8     2.7     2.7     2.7     2.7     2.7
     2.8     2.7     2.7     2.8     2.7     2.8     2.7     2.7     2.8     2.7
     2.7     2.7     2.7     2.8     2.7     2.7     2.7     2.8     2.7     2.7
     2.7     2.7     2.7     2.8     2.7     2.7     2.7     2.8     2.8     2.6
     2.8     2.8     2.6     2.7     2.7     2.9     2.6     2.6     2.9     2.8
     2.6     2.6     2.9     2.7     2.7     2.7     2.7     3.0     2.6     2.6
     2.9     2.8     2.6     2.7     2.8     2.7     2.7     2.7     2.6     2.8
     2.8     2.7     2.7     2.7     2.7     2.8     2.7     2.6     2.8     2.8
     2.7     2.7     2.7     2.8     2.8     2.6     2.7     2.8     2.7     2.6
     2.8     2.8     2.7     2.7     2.7     2.8     2.7     2.7     2.7     2.8
     2.7     2.7     2.7     2.7     2.8     2.7     2.7     2.8     2.7     2.8
     2.7     2.6     2.8     2.8     2.7     2.7     2.7     2.8     2.8     2.7
     2.6     2.8     2.8     2.7     2.7     2.7     2.8     2.8     2.7     2.7
     2.8     2.8     2.6     2.8     2.8     2.7     2.7     2.7     2.8     2.7
     2.7     2.7     2.8     2.8     2.7     2.7     2.7     2.8     2.7     2.7
     2.7     2.7     2.8     2.7     2.7     2.7     2.7     2.7     2.8     2.7
     2.7     2.8     2.8     2.7     2.7     2.7     2.8     2.8     2.6     2.7
     2.8     2.8     2.7     2.6     2.7     2.8     2.9     2.6     2.5     2.7
     3.1     2.9     2.3     2.6     3.1     3.0     2.5     2.5     3.0     2.8
     2.7     2.6     2.6     3.0     2.7     2.6     2.7     2.8     2.8     2.6
     2.8     2.8     2.7     2.8     2.6     2.7     2.8     2.8     2.6     2.6
     2.8     2.8     2.8     2.6     2.7     2.9     2.7     2.7     2.7     2.7
     2.7     2.8     2.7     2.7     2.7     2.7     2.8     2.7     2.7     2.8
     2.8     2.8     2.6     2.7     2.9     2.7     2.6     2.7     2.8     2.8
     2.7     2.7     2.7     2.8     2.8     2.6     2.7     2.8     2.8     2.8
     2.6     2.7     2.9     2.8     2.6     2.7     2.8     2.7     2.7     2.7
     2.8     2.8     2.7     2.7     2.7     2.8     2.7     2.7     2.8     2.7
     2.7     2.8     2.7     2.7     2.7     2.8     2.8     2.6     2.7     2.7
     2.8     2.7     2.6     2.8     2.8     2.7     2.7     2.7     2.8     2.8
     2.7     2.6     2.8     2.8     2.7     2.7     2.7     2.8     2.8     2.6
     2.7     2.8     2.8     2.7     2.6     2.7     2.9     3.0     2.5     2.5
     2.8     3.0     2.9     2.3     2.5     3.1     2.9     2.5     2.5     3.0
     2.8     2.7     2.7     2.6     2.9     2.7     2.5     2.8     2.9     2.7
     2.6     2.7     2.8     2.8     2.7     2.6     2.8     2.8     2.7     2.6
     2.8     2.7     2.8     2.7     2.7     2.7     2.8     2.8     2.7     2.7
     2.7     2.7     2.8     2.7     2.7     2.8     2.8     2.7     2.7     2.7
     2.7     2.8     2.8     2.7     2.7     2.7     2.8     2.8     2.7     2.6
     2.8     2.8     2.7     2.8     2.6     2.7     2.8     2.7     2.6     2.8
     2.8     2.7     2.7     2.7     2.8     2.7     2.6     2.7     2.8     2.8
     2.7     2.7     2.7     2.8     2.7     2.6     2.7     2.8     2.7     2.7
     2.7     2.8     2.7     2.7     2.7     2.7     2.8     2.8     2.7     2.6
     2.8     2.8     2.7     2.7     2.7     2.8     2.8     2.7     2.6     2.8
     2.8     2.7     2.6     2.7     2.8     2.7     2.7     2.7     2.8     2.8
     2.7     2.7     2.7     2.8     2.8     2.6     2.7     2.8     2.7     2.8
     2.6     2.7     2.9     2.8     2.6     2.7     2.9     2.7     2.7     2.7
     2.7     2.8     2.6     2.7     2.8     2.7     2.7     2.7     2.8     2.8
     2.7     2.6     2.8     2.8     2.6     2.7     2.9     2.6     2.7     2.9
     2.6     2.7     2.8     2.7     2.8     2.7     2.7     2.8     2.8     2.7
     2.7     2.7     2.7     2.7     2.8     2.7     2.7     2.8     2.7     2.8
     2.7     2.7     2.8     2.5     3.1     2.8     2.4     2.5     3.2     3.2
     2.0     2.4     3.3     3.3     2.4     2.1     3.2     2.9     2.7     2.5
     2.5     3.1     2.9     2.4     2.6     2.9     2.8     2.6     2.7     2.7
     2.8     2.8     2.5     2.6     3.1     2.8     2.5     2.7     2.8     2.9
     2.7     2.5     2.7     3.0     2.9     2.5     2.6     2.9     2.8     2.7
     2.6     2.7     2.9     2.8     2.6     2.7     2.8     2.7     2.7     2.8
     2.6     2.8     2.7     2.7     2.9     2.7     2.6     2.8     2.8     2.7
     2.6     2.7     2.8     2.8     2.6     2.7     2.8     2.8     2.7     2.7
     2.8     2.7     2.8     2.8     2.7     2.7     2.8     2.9     2.6     2.6
     2.9     2.8     2.7     2.6     2.8     2.9     2.7     2.5     2.8     3.0
     2.7     2.6     2.7     2.9     2.9     2.6     2.6     2.8     2.8     2.7
     2.6     2.7     2.8     2.8     2.7     2.6     2.8     2.9     2.7     2.6
     2.7     2.9     2.7     2.6     2.7     2.8     2.8     2.6     2.7     2.8
     2.8     2.7     2.7     2.8     2.8     2.7     2.6     2.7     2.8     2.7
     2.7     2.8     2.7     2.7     2.8     2.8     2.7     2.7     2.7     2.8
     2.8     2.6     2.7     2.8     2.7     2.8     2.7     2.6     2.8     2.8
     2.7     2.7     2.7     2.7     2.7     2.8     2.6     2.7     2.9     2.7
     2.6     2.7     2.9     2.7     2.6     2.7     2.8     2.8     2.6     2.7
     2.9     2.7     2.6     2.7     2.9     2.6     2.6     2.9     2.8     2.7
     2.7     2.8     2.7     2.7     2.8     2.7     2.7     2.7     2.8     2.9
     2.6     2.6     2.9     2.8     2.6     2.7     2.8     2.7     2.7     2.7
     2.7     2.8     2.7     2.6     2.8     2.8     2.7     2.7     2.8     2.8
     2.7     2.7     2.7     2.9     2.7     2.6     2.8     2.8     2.7     2.7
     2.8     2.8     2.7     2.7     2.8     2.8     2.7     2.7     2.8     2.8
     2.7     2.6     2.8     2.8     2.7     2.7     2.7     2.7     2.8     2.7
     2.7     2.8     2.7     2.8     2.8     2.6     2.7     2.9     2.7     2.6
     2.7     2.8     2.8     2.7     2.6     2.8     2.8     2.7     2.7     2.7
     2.8     2.8     2.6     2.7     2.8     2.7     2.6     2.8     2.8     2.7
     2.8     2.7     2.7     2.8     2.8     2.7     2.7     2.8     2.8     2.7
     2.7     2.7     2.7     2.8     2.7     2.6     2.8     2.7     2.6     2.8
     2.8     2.7     2.7     2.8     2.7     2.8     2.7     2.7     2.8     2.8
     2.7     2.7     2.7     2.7     2.8     2.6     2.7     2.8     2.7     2.7
     2.8     2.7     2.7     2.8     2.7     2.7     2.8     2.8     2.7     2.7
     2.7     2.7     2.9     2.7     2.6     2.7     2.8     2.8     2.7     2.7
     2.8     2.7     2.8     2.6     2.7     2.8     2.7     2.7     2.7     2.8
     2.8     2.7     2.6     2.7     2.9     2.7     2.7     2.8     2.8     2.7
     2.6     2.7     2.8     2.6     2.6     2.9     2.7     2.6     2.8     2.8
     2.7     2.6     2.7     2.9     2.8     2.5     2.7     2.9     2.7     2.7
     2.6     2.7     2.9     2.7     2.7     2.8     2.8     2.7     2.7     2.8
     2.7     2.7     2.8     2.8     2.7     2.6     2.8     2.8     2.7     2.7
     2.7     2.8     2.8     2.6     2.7     2.9     2.7     2.7     2.8     2.7
     2.7     2.7     2.7     2.8     2.7     2.7     2.8     2.7     2.7     2.8
     2.8     2.6     2.7     2.9     2.6     2.6     2.8     2.9     2.7     2.5
     2.8     2.9     2.8     2.5     2.7     2.8     2.8     2.8     2.5     2.7
     2.9     2.7     2.5     2.8     2.9     2.7     2.6     2.7     2.9     2.8
     2.6     2.5     3.0     2.9     2.5     2.5     3.0     3.0     2.5     2.4
     2.8     3.2     2.7     2.1     2.8     3.2     2.7     2.4     2.7     3.0
     2.8     2.6     2.5     2.7     3.0     2.6     2.5     2.8     2.9     2.7
     2.6     2.8     2.7     2.8     2.7     2.5     2.9     2.8     2.7     2.6
     2.7     2.9     2.7     2.7     2.6     2.8     2.9     2.6     2.6     2.7
     2.9     2.6     2.6     2.8     2.7     2.8     2.7     2.8     2.7     2.8
     2.7     2.5     2.6     3.0     3.1     2.1     2.6     2.8     3.1     3.0
     1.7     3.1     3.0     2.7     2.9     2.2     2.9     2.6     3.1     3.1
     2.0     2.4     3.3     3.4     2.1     2.5     2.9     2.7     3.4     2.3
     2.2     3.2     3.0     2.5     2.5     3.0     2.7     2.6     2.7     2.8
     2.9     2.5     2.3     3.0     3.2     2.5     2.3     2.8     3.0     2.8
     2.5     2.5     2.8     3.0     2.8     2.6     2.5     2.8     3.0     2.7
     2.6     2.6     2.8     2.9     2.9     2.5     2.4     3.0     3.0     2.7
     2.4     2.8     2.9     2.7     2.9     2.5     2.6     2.9     2.8     2.7
     2.7     2.8     2.7     2.8     2.7     2.7     2.8     2.6     2.7     2.8
