Uncorrected accelerogram 20161113_110256_NELS_20 GNS Science
Site NELS      41 17 16S  173 16 27E     Cusp file:  20161113_110322_NELS
Nelson Hospital
Instrument Cusp_42268
Resolution: 18-bit   Instr Period: 0.0050 s   Damping: 0.700
Accelerogram 20161113_110256_NELS_20                 Processed 2016 December 09
5 km south-west of Waiau
2016 November 13         11:02:56 UT
Epicentre  42 41 33S 173 01 19E  Bearing S08W  Dist  157km  Depth   15km Mw 7.82
Number of points  54878    Duration 274.38 s
Raw readings in units of 1.00 mm/s/s  at intervals of 0.005 s
Data is unfiltered
Component N53W
Acceleration:  Peak   -955.3 mm/s/s at 110.73 s     RMS   120.15 mm/s/s
Velocity record unevaluated
Displacement record unevaluated
    2016      11      13      11       2     560       0       0    2016      11
      42      41      33     173       1      19      15       0      13      11
      41      17      16     173      16      27     307     307     188     157
   54878       0       0   54878       0       0       0       0       2   42906
   200.0    0.70    0.00   0.000  0.0000   0.000   0.000   1.000     0.0    0.00
  41.288 173.274  42.693 173.022    7.82    0.00    0.00    0.00      0.      0.
  274.38    0.00    0.00  274.38  0.0050  0.0050      0.      0.      0.  9806.6
  -955.3  110.73   120.1      0.      0.     0.0    0.00     0.0     0.0   0.000
    0.00    0.00    0.00    0.00   0.000    0.00    0.00    0.00    0.00   0.000
   0.000   0.000   0.000      0.      0.   0.000   0.000   0.000      0.      0.
     0.2     0.6     0.5     0.7     0.6     0.5     0.6     0.4     0.7     0.4
     0.6     0.5     0.3     0.6     0.4     0.6     0.4     0.1     0.7     0.6
     0.4     0.6     0.4     0.4     0.7     0.6     0.6     0.4     0.5     0.6
     0.3     0.6     0.7     0.4     0.5     0.6     0.6     0.3     0.7     0.7
     0.2     0.5     0.6     0.4     0.4     0.4     0.5     0.4     0.8     0.5
     0.2     0.5     0.4     0.5     0.4     0.7     0.7     0.2     0.5     0.3
     0.6     0.6     0.2     0.8     0.1     0.3     0.8     0.0     0.7     0.3
     0.4     0.8     0.2     0.7     0.3     0.3     0.6     0.4     0.5     0.2
     0.8     0.7     0.2     0.7     0.2     0.3     0.7     0.3     0.3     0.2
     0.5     0.8     0.3     0.3     0.7     0.3     0.4     0.6     0.4     0.3
     0.1     0.8     0.6     0.1     0.7     0.4     0.4     0.6     0.4     0.6
     0.4     0.5     0.6     0.3     0.5     0.5     0.6     0.4     0.3     0.8
     0.4     0.5     0.4     0.3     0.6     0.4     0.6     0.6     0.4     0.5
     0.3     0.4     0.2     0.6     0.5     0.2     0.7     0.3     0.4     0.6
     0.3     0.5     0.3     0.6     0.8     0.4     0.4     0.6     0.4     0.4
     0.6     0.5     0.5     0.4     0.5     0.7     0.4     0.5     0.5     0.3
     0.3     0.4     0.4     0.4     0.4     0.3     0.5     0.5     0.4     0.5
     0.2     0.5     0.5     0.2     0.4     0.3     0.4     0.4     0.3     0.4
     0.6     0.6     0.4     0.7     0.3     0.4     0.5     0.3     0.6     0.4
     0.6     0.4     0.4     0.5     0.3     0.5     0.2     0.6     0.5     0.3
     0.7     0.3     0.7     0.3     0.4     0.7    -0.0     0.7     0.7     0.3
     0.3     0.2     0.6     0.3     0.7     0.6     0.2     0.5     0.7     0.7
     0.4     0.8     0.5     0.4     0.7     0.2     0.7     0.5     0.3     0.6
     0.3     0.8     0.4     0.4     0.5     0.2     0.6     0.6     0.3     0.4
     0.5     0.5     0.7     0.3     0.3     0.5     0.1     0.6     0.6     0.3
     0.5     0.5     0.6     0.4     0.8     0.3     0.1     0.7     0.3     0.6
     0.6     0.3     0.5     0.3     0.9     0.3     0.4     0.7     0.1     0.7
     0.2     0.5     0.5     0.1     0.8     0.1     0.5     0.6     0.4     0.5
     0.1     1.1     0.4     0.6     1.0     0.2     0.9     0.4     0.6     0.8
     0.4     0.7     0.4     0.8     0.2     0.7     1.0    -0.0     0.9     0.3
     0.2     0.8     0.2     0.6     0.4     0.6     0.5     0.3     0.6     0.1
     0.7     0.5     0.4     0.9     0.5     0.5     0.2     0.7     0.8     0.3
     0.6     0.4     0.4     0.5     0.6     0.5     0.2     0.7     0.4     0.3
     0.5     0.4     0.7     0.2     0.4     0.8     0.3     0.6     0.4     0.6
     0.7     0.5     0.8     0.5     0.5     0.5     0.5     0.5     0.3     0.7
     0.5     0.4     0.4     0.5     0.7     0.4     0.5     0.6     0.5     0.4
     0.5     0.5     0.3     0.6     0.5     0.4     0.6     0.5     0.6     0.4
     0.6     0.6     0.2     0.7     0.4     0.5     0.6     0.3     0.7     0.4
     0.4     0.6     0.1     0.7     0.6     0.2     0.7     0.3     0.5     0.6
     0.1     0.7     0.5     0.7     0.6     0.2     0.9     0.2     0.4     0.6
     0.2     0.9     0.3     0.4     0.5     0.2     0.8     0.5     0.5     0.7
     0.5     0.7     0.4     0.5     0.6     0.2     0.6     0.5     0.2     0.6
     0.4     0.3     0.5     0.3     0.6     0.6     0.5     0.5     0.3     0.6
     0.5     0.3     0.6     0.3     0.5     0.5     0.3     0.7     0.4     0.4
     0.7     0.3     0.7     0.4     0.3     0.9     0.3     0.7     0.7     0.4
     0.7     0.1     0.8     0.6     0.2     0.9     0.3     0.5     0.6     0.4
     0.8     0.3     0.5     0.6     0.6     0.6     0.3     0.5     0.3     0.5
     0.7     0.4     0.3     0.5     0.7     0.4     0.5     0.6     0.4     0.5
     0.7     0.7     0.3     0.6     0.7     0.4     0.5     0.6     0.6     0.4
     0.6     0.6     0.3     0.8     0.5     0.4     0.7     0.2     0.7     0.7
     0.4     0.5     0.1     0.5     0.5     0.5     0.8     0.2     0.3     0.7
     0.5     0.5     0.4     0.3     0.4     0.4     0.7     0.7     0.5     0.5
     0.4     0.4     0.6     0.5     0.5     0.4     0.4     0.6     0.5     0.5
     0.5     0.3     0.4     0.7     0.6     0.5     0.5     0.2     0.5     0.5
     0.4     0.7     0.4     0.4     0.5     0.3     0.6     0.4     0.4     0.5
     0.1     0.4     0.6     0.5     0.5     0.5     0.6     0.3     0.4     0.6
     0.3     0.4     0.6     0.6     0.5     0.5     0.8     0.5     0.5     0.7
     0.3     0.4     0.4     0.4     0.5     0.5     0.8     0.5     0.1     0.6
     0.4     0.2     0.5     0.4     0.5     0.5     0.6     0.5     0.4     0.3
     0.5     0.6     0.3     0.5     0.5     0.4     0.4     0.5     0.7     0.2
     0.4     0.5     0.3     0.4     0.3     0.9     0.4     0.3     0.8     0.3
     0.5     0.6     0.5     0.5     0.5     0.6     0.5     0.4     0.2     0.5
     0.5     0.3     0.6     0.3     0.5     0.5     0.4     0.7     0.3     0.6
     0.5     0.1     0.5     0.4     0.5     0.5     0.3     0.4     0.4     0.6
     0.6     0.5     0.3     0.5     0.7     0.4     0.6     0.5     0.4     0.6
     0.4     0.4     0.4     0.4     0.6     0.5     0.4     0.4     0.6     0.6
     0.3     0.4     0.5     0.4     0.3     0.2     0.5     0.6     0.3     0.5
     0.4     0.4     0.6     0.3     0.4     0.5     0.5     0.3     0.4     0.5
     0.2     0.6     0.1     0.4     0.6    -0.1     0.7     0.3     0.2     0.6
     0.3     0.6     0.3     0.4     0.6     0.3     0.4     0.4     0.5     0.4
     0.4     0.3     0.5     0.5     0.4     0.7     0.2     0.5     0.6     0.4
     0.8     0.2     0.5     0.4     0.3     0.7     0.3     0.6     0.4     0.3
     0.5     0.3     0.8     0.5     0.2     0.6     0.3     0.6     0.4     0.3
     0.5     0.3     0.5     0.3     0.5     0.3     0.1     0.8     0.2     0.3
     0.6     0.1     0.4     0.4     0.5     0.4     0.4     0.5     0.4     0.4
     0.4     0.5     0.3     0.4     0.7     0.3     0.4     0.4     0.4     0.4
     0.6     0.7     0.1     0.5     0.2     0.2     0.8     0.0     0.5     0.3
     0.3     0.6     0.0     0.9     0.3     0.4     0.7    -0.1     1.0     0.4
     0.3     0.5     0.0     0.9     0.3     0.2     0.7     0.3     0.5     0.5
     0.6     0.3     0.4     0.5     0.4     0.6     0.4     0.5     0.3     0.4
     0.6     0.2     0.5     0.3     0.3     0.5     0.2     0.4     0.3     0.5
     0.5     0.1     0.4     0.4     0.3     0.5     0.4     0.5     0.2     0.5
     0.5     0.1     0.6     0.7     0.4     0.4     0.4     0.6     0.6     0.5
     0.6     0.6     0.5     0.7     0.3     0.3     0.7     0.4     0.6     0.3
     0.5     0.6     0.2     0.8     0.3     0.4     0.7     0.2     0.6     0.6
     0.5     0.5     0.4     0.7     0.3     0.4     0.8     0.3     0.4     0.7
     0.2     0.2     0.5     0.6     0.5     0.3     0.5     0.5     0.2     0.5
     0.4     0.3     0.7     0.6     0.6     0.7     0.4     0.4     0.4     0.4
     0.5     0.6     0.5     0.2     0.4     0.6     0.5     0.4     0.4     0.5
     0.4     0.4     0.5     0.7     0.3     0.3     0.5     0.3     0.7     0.4
     0.1     0.7     0.3     0.5     0.5     0.3     0.6     0.2     0.5     0.6
     0.5     0.6     0.4     0.6     0.3     0.6     0.6     0.1     0.7     0.6
     0.4     0.5     0.6     0.6     0.5     0.6     0.3     0.5     0.4     0.5
     0.7     0.1     0.5     0.4     0.3     0.7     0.3     0.5     0.4     0.4
     0.7     0.4     0.6     0.4     0.3     0.4     0.3     0.6     0.4     0.2
     0.6     0.2     0.4     0.6     0.3     0.6     0.4     0.5     0.5     0.5
     1.0     0.5     0.6     0.6     0.3     0.7     0.4     0.4     0.5     0.5
     0.4     0.4     0.5     0.3     0.7     0.4     0.4     0.8     0.3     0.7
     0.6     0.3     0.6     0.3     0.6     0.6     0.4     0.5     0.4     0.4
     0.2     0.3     0.5     0.6     0.5     0.5     0.5     0.3     0.6     0.6
     0.3     0.3     0.6     0.8     0.4     0.3     0.6     0.5     0.6     0.7
     0.4     0.6     0.5     0.5     0.6     0.2     0.5     0.5     0.2     0.4
     0.5     0.4     0.4     0.4     0.4     0.5     0.4     0.6     0.4     0.3
     0.6     0.4     0.6     0.4     0.4     0.6     0.4     0.5     0.5     0.6
     0.2     0.5     0.5     0.1     0.7     0.2     0.5     0.4     0.5     0.8
    -0.0     0.7     0.4     0.3     0.7     0.2     0.5     0.4     0.5     0.7
     0.4     0.4     0.5     0.3     0.3     0.8     0.3     0.5     0.5     0.2
     0.8     0.4     0.7     0.3     0.2     1.0     0.2     0.5     0.4     0.5
     0.8     0.2     0.7     0.4     0.6     0.4     0.4     0.9     0.2     0.5
     0.5     0.5     0.6     0.3     0.6     0.4     0.5     0.3     0.5     0.5
     0.3     0.6     0.2     0.6     0.4     0.4     0.6    -0.0     0.7     0.2
     0.3     0.6     0.3     0.7     0.1     0.6     0.5     0.5     0.8    -0.1
     0.6     0.5     0.5     0.7     0.1     0.6     0.4     0.4     0.5     0.4
     0.4     0.3     0.4     0.2     0.6     0.5     0.2     0.4     0.3     0.6
     0.3     0.3     0.4     0.3     0.6     0.2     0.6     0.7     0.2     0.5
     0.3     0.7     0.6     0.2     0.8     0.4     0.7     0.6     0.1     0.8
     0.4     0.3     0.6     0.3     0.6     0.4     0.3     0.4     0.4     0.6
     0.4     0.6     0.4     0.4     0.4     0.1     0.6     0.4     0.3     0.6
     0.3     0.6     0.3     0.4     0.6     0.2     0.5     0.6     0.5     0.7
     0.3     0.5     0.7     0.2     0.6     0.7     0.5     0.6     0.4     0.6
     0.6     0.3     0.4     0.6     0.5     0.3     0.7     0.4     0.4     0.8
     0.3     0.5     0.8     0.5     0.5     0.3     0.7     0.5     0.2     0.6
     0.3     0.6     0.5     0.2     0.5     0.2     0.4     0.6     0.3     0.6
     0.3     0.4     0.8     0.3     0.5     0.6     0.3     0.6     0.4     0.5
     0.5     0.3     0.7     0.3     0.3     0.7     0.2     0.5     0.4     0.1
     0.7     0.5     0.4     0.7     0.3     0.6     0.5     0.3     0.7     0.3
     0.5     0.5     0.5     0.7     0.3     0.6     0.5     0.4     0.8     0.3
     0.5     0.5     0.4     0.4     0.3     0.5     0.4     0.5     0.5     0.3
     0.6     0.6     0.4     0.4     0.6     0.4     0.5     0.6     0.3     0.7
     0.5     0.3     0.6     0.7     0.7     0.3     0.8     0.5     0.3     0.7
     0.3     0.8     0.5     0.4     0.8     0.3     0.6     0.5     0.6     0.5
     0.4     0.5     0.4     0.6     0.4     0.4     0.4     0.2     0.6     0.5
     0.5     0.6     0.2     0.4     0.5     0.4     0.6     0.5     0.4     0.3
     0.3     0.6     0.5     0.5     0.3     0.3     0.5     0.6     0.4     0.5
     0.6     0.3     0.9     0.5     0.4     0.7     0.2     0.6     0.5     0.5
     0.3     0.4     0.9     0.4     0.6     0.5     0.3     0.7     0.3     0.7
     0.6     0.4     0.7     0.5     0.5     0.6     0.8     0.2     0.5     0.7
     0.2     0.6     0.5     0.4     0.4     0.3     0.5     0.5     0.6     0.4
     0.4     0.7     0.3     0.5     0.8     0.5     0.5     0.5     0.5     0.5
     0.5     0.6     0.5     0.5     0.4     0.6     0.6     0.4     0.8     0.4
     0.5     0.8     0.4     0.5     0.1     0.7     0.4     0.4     0.9     0.1
     0.7     0.3     0.5     0.8     0.1     1.1     0.3     0.4     0.6     0.2
     1.1     0.1     0.6     0.8     0.0     1.2     0.6     0.2     0.5     0.3
     0.7     0.6     0.8     0.4     0.2     0.7     0.5     0.6     0.6     0.5
     0.5     0.5     0.6     0.4     0.7     0.4     0.5     0.7     0.3     0.9
     0.4     0.3     0.9     0.2     0.7     0.6     0.2     0.8     0.3     0.5
     0.7     0.4     0.4     0.3     0.6     0.5     0.5     0.7     0.4     0.7
     0.6     0.2     0.6     0.4     0.3     0.4     0.3     0.6     0.4     0.4
     0.7     0.4     0.5     0.4     0.4     0.4     0.5     0.7     0.4     0.5
     0.4     0.3     0.8     0.4     0.6     0.5     0.3     0.6     0.3     0.6
     0.7     0.5     0.7     0.5     0.5     0.2     0.3     0.5     0.3     0.3
     0.4     0.6     0.3     0.6     0.6     0.3     0.7     0.4     0.6     0.5
     0.4     0.6     0.3     0.6     0.2     0.2     0.5     0.4     0.7     0.3
     0.6     0.8     0.6     1.0     0.5     0.4     0.5     0.6     0.7     0.4
     0.6     0.3     0.4     0.7     0.1     0.4     0.5     0.3     0.3     0.4
     0.3     0.3     0.5     0.5     0.4     0.4     0.6     0.6     0.5     0.6
     0.5     0.6     0.7     0.4     0.4     0.2     0.3     0.6     0.1     0.5
     0.6     0.2     0.5     0.6     0.5     0.6     0.5     0.4     0.5     0.5
     0.5     0.3     0.6     0.4     0.2     0.7     0.4     0.5     0.5     0.3
     0.7     0.3     0.8     0.5     0.3     0.7     0.3     0.6     0.1     0.5
     0.5    -0.0     0.9     0.3     0.5     0.8     0.2     0.6     0.4     0.7
     0.8     0.4     0.5     0.1     0.3     0.7     0.5     0.4     0.2     0.5
     0.8     0.5     0.5     0.6     0.3     0.5     0.6     0.2     0.5     0.5
     0.3     0.4     0.3     0.4     0.6     0.4     0.4     0.5     0.3     0.5
     0.6     0.2     0.5     0.3     0.5     0.7     0.1     0.5     0.6     0.5
     0.6     0.3     0.5     0.4     0.4     0.5     0.5     0.5     0.3     0.3
     0.5     0.6     0.4     0.5     0.6     0.3     0.4     0.5     0.5     0.3
     0.3     0.5     0.4     0.6     0.5     0.4     0.2     0.2     0.7     0.4
     0.6     0.7     0.6     0.5     0.4     0.8     0.3     0.3     0.8     0.2
     0.5     0.3     0.1     0.5     0.4     0.6     0.5     0.5     0.8     0.5
     0.6     0.5     0.4     0.4     0.3     0.3     0.3     0.3     0.3     0.4
     0.3     0.5     0.7     0.4     0.5     0.7     0.5     0.4     0.3     0.5
     0.4     0.4     0.6     0.2     0.3     0.6     0.4     0.5     0.5     0.3
     0.4     0.4     0.6     0.5     0.4     0.6     0.3     0.4     0.7     0.5
     0.2     0.3     0.5     0.4     0.8     0.5     0.4     0.7     0.3     0.6
     0.5     0.4     0.5     0.0     0.4     0.4     0.4     0.5     0.3     0.5
     0.3     0.6     0.7     0.2     0.7     0.5     0.3     0.6     0.5     0.4
     0.6     0.4     0.2     0.6     0.3     0.5     0.6     0.4     0.8     0.4
     0.7     0.6     0.1     0.6     0.3     0.7     0.4     0.2     1.0     0.0
     0.7     0.8     0.1     0.7     0.2     0.5     0.6     0.4     0.8     0.3
     0.5     0.3     0.4     0.5     0.3     0.8     0.3     0.3     0.6     0.4
     0.6     0.3     0.4     0.6     0.7     0.4     0.2     0.5     0.2     0.5
     0.5     0.1     0.5     0.4     0.4     0.4     0.6     0.6     0.3     0.6
     0.3     0.3     0.4     0.5     0.5     0.1     0.7     0.5     0.2     0.5
     0.3     0.3     0.3     0.6     0.5     0.3     0.6     0.4     0.5     0.4
     0.4     0.4     0.4     0.5     0.5     0.7     0.3     0.6     0.5     0.4
     0.6     0.4     0.7     0.3     0.3     0.7     0.2     0.5     0.5     0.4
     0.4     0.2     0.4     0.4     0.4     0.4     0.5     0.3     0.4     0.6
     0.4     0.4     0.4     0.5     0.4     0.5     0.7     0.3     0.4     0.3
     0.5     0.6     0.1     0.5     0.3     0.4     0.8     0.4     0.4     0.3
     0.4     0.6     0.3     0.4     0.5     0.3     0.5     0.2     0.5     0.6
     0.0     0.7     0.5     0.2     0.7     0.3     0.3     0.3     0.3     0.6
     0.5     0.4     0.5     0.4     0.2     0.5     0.5     0.4     0.3     0.4
     0.5     0.1     0.5     0.4     0.2     0.4     0.3     0.5     0.3     0.4
     0.5     0.1     0.3     0.3     0.4     0.4     0.3     0.3     0.3     0.3
     0.5     0.4     0.3     0.4     0.5     0.4     0.3     0.4     0.2     0.4
     0.5     0.4     0.5     0.3     0.7     0.3     0.3     0.7     0.3     0.6
     0.5     0.5     0.6     0.3     0.5     0.2     0.5     0.6     0.4     0.5
     0.4     0.7     0.3     0.7     0.5     0.1     0.7     0.2     0.4     0.6
     0.4     0.7     0.3     0.6     0.5     0.5     0.5     0.4     0.7     0.2
     0.5     0.8     0.2     0.5     0.3     0.4     0.4     0.4     0.6     0.4
     0.5     0.3     0.6     0.6     0.3     0.6     0.2     0.6     0.6     0.3
     0.8     0.4     0.4     0.5     0.4     0.4     0.4     0.7     0.5     0.2
     0.4     0.6     0.5     0.4     0.6     0.5     0.4     0.5     0.7     0.3
     0.5     0.8     0.6     0.6     0.4     0.6     0.4     0.4     0.7     0.2
     0.5     0.4     0.3     0.4     0.4     0.5     0.4     0.5     0.4     0.5
     0.6     0.4     0.4     0.5     0.4     0.3     0.9     0.4     0.1     0.8
     0.2     0.5     0.4     0.3     0.7     0.1     0.6     0.6     0.1     0.6
     0.4     0.3     0.4     0.5     0.3     0.4     0.7     0.3     0.4     0.4
     0.4     0.6     0.3     0.6     0.5     0.4     0.7     0.3     0.5     0.4
     0.5     0.6     0.1     0.7     0.6     0.5     0.6     0.4     0.5     0.3
     0.7     0.6     0.3     0.5     0.2     0.5     0.6     0.4     0.4     0.4
     0.7     0.5     0.7     0.4     0.3     0.8     0.5     0.6     0.4     0.3
     0.6     0.3     0.4     0.5     0.5     0.5     0.4     0.5     0.5     0.5
     0.3     0.3     0.5     0.6     0.3     0.5     0.7     0.2     0.5     0.6
     0.4     0.4     0.1     0.7     0.5     0.4     0.7     0.4     0.5     0.3
     0.6     0.7     0.3     0.5     0.4     0.5     0.4     0.2     0.6     0.6
     0.4     0.5     0.6     0.5     0.4     0.3     0.6     0.3     0.3     0.7
     0.1     0.6     0.4     0.3     0.9     0.3     0.6     0.4     0.4     0.7
     0.5     0.8     0.3     0.7     0.5     0.2     0.6     0.2     0.7     0.2
     0.2     0.7     0.1     0.7     0.4     0.6     0.6     0.3     0.8     0.1
     0.5     0.6     0.2     0.6     0.4     0.4     0.4     0.3     0.2     0.3
     0.5     0.4     0.6     0.4     0.3     0.4     0.3     0.4     0.3     0.4
     0.3     0.2     0.6     0.3     0.2     0.5     0.4     0.5     0.6     0.2
     0.4     0.5     0.3     0.5     0.5     0.4     0.4     0.4     0.5     0.3
     0.3     0.6     0.5     0.2     0.5     0.6     0.2     0.5     0.6     0.5
     0.3     0.3     0.8     0.2     0.4     0.7     0.2     0.6     0.5     0.4
