Uncorrected accelerogram 20161113_110256_QCCS_20 GNS Science
Site QCCS      41 16 47S  174 01 23E     Cusp file:  20161113_110325_QCCS
Picton Queen Charlotte College
Instrument Cusp_42252
Resolution: 18-bit   Instr Period: 0.0050 s   Damping: 0.700
Accelerogram 20161113_110256_QCCS_20                 Processed 2016 December 09
5 km south-west of Waiau
2016 November 13         11:02:56 UT
Epicentre  42 41 33S 173 01 19E  Bearing S28W  Dist  178km  Depth   15km Mw 7.82
Number of points  65536    Duration 327.68 s
Raw readings in units of 1.00 mm/s/s  at intervals of 0.005 s
Data is unfiltered
Component S49E
Acceleration:  Peak   2224.3 mm/s/s at 101.23 s     RMS   137.53 mm/s/s
Velocity record unevaluated
Displacement record unevaluated
    2016      11      13      11       2     560       0       0    2016      11
      42      41      33     173       1      19      15       0      13      11
      41      16      47     174       1      23     131     131     208     178
   65536       0       0   65536       0       0       0       0       2   45418
   200.0    0.70    0.00   0.000  0.0000   0.000   0.000   1.000     0.0    0.00
  41.280 174.023  42.693 173.022    7.82    0.00    0.00    0.00      0.      0.
  327.68    0.00    0.00  327.68  0.0050  0.0050      0.      0.      0.  9806.6
  2224.3  101.23   137.5      0.      0.     0.0    0.00     0.0     0.0   0.000
    0.00    0.00    0.00    0.00   0.000    0.00    0.00    0.00    0.00   0.000
   0.000   0.000   0.000      0.      0.   0.000   0.000   0.000      0.      0.
     0.2     0.2     0.1     0.1    -0.0    -0.1    -0.0    -0.1    -0.1     0.1
     0.2     0.1     0.2     0.2     0.1    -0.0     0.1     0.3     0.2     0.2
     0.2    -0.1    -0.0     0.2     0.1     0.1     0.2     0.1     0.1     0.2
    -0.0     0.0     0.1     0.0     0.1     0.1     0.0     0.0    -0.1     0.1
     0.2     0.1     0.1    -0.0    -0.1     0.0    -0.2    -0.0     0.1    -0.1
     0.1     0.2    -0.1     0.1     0.2     0.1     0.1     0.2    -0.0    -0.0
    -0.0     0.2     0.3     0.0     0.1     0.2     0.1     0.2     0.2     0.1
     0.1     0.0     0.1     0.1     0.2     0.1    -0.0    -0.0     0.1     0.2
     0.1     0.0     0.1    -0.1    -0.0     0.0     0.0     0.2     0.1     0.2
     0.0    -0.2    -0.0     0.0     0.0     0.1     0.0     0.2     0.2     0.1
     0.1     0.1     0.1     0.1     0.0     0.1     0.1     0.2     0.2     0.1
     0.3     0.2    -0.1    -0.0     0.1    -0.1     0.1     0.1     0.1     0.3
     0.1     0.0     0.1    -0.1    -0.0     0.2     0.1     0.1     0.1    -0.1
     0.0     0.1    -0.0     0.1     0.0     0.0     0.1     0.0     0.2     0.2
    -0.1     0.1     0.1    -0.1     0.1     0.1     0.2     0.2     0.0    -0.0
     0.1     0.1     0.0     0.2     0.1    -0.1     0.1     0.1    -0.0     0.0
     0.0     0.1     0.1     0.1     0.1    -0.0    -0.1     0.1     0.1     0.1
     0.2    -0.0    -0.1     0.0     0.1     0.0    -0.0     0.1     0.2     0.2
    -0.1    -0.0     0.2     0.1     0.1     0.1    -0.0     0.1     0.2     0.1
     0.1    -0.1     0.1     0.2    -0.0     0.0     0.1     0.1     0.1    -0.0
     0.0     0.2     0.1     0.0     0.2     0.0    -0.0     0.2     0.0    -0.1
     0.2     0.0    -0.1     0.1     0.1    -0.1    -0.0     0.2     0.2     0.0
     0.1     0.0    -0.0     0.0     0.0     0.1     0.2     0.2     0.0    -0.0
     0.1    -0.0     0.0     0.2     0.0    -0.0    -0.0    -0.1    -0.0     0.0
    -0.2    -0.2     0.0     0.0    -0.1     0.0    -0.1    -0.1     0.1    -0.1
    -0.1    -0.1    -0.2     0.0    -0.1    -0.1     0.1    -0.1    -0.1    -0.1
     0.0     0.0    -0.3    -0.1     0.1    -0.1    -0.0     0.1     0.1     0.1
     0.2     0.1    -0.2    -0.1     0.1     0.0     0.1     0.1     0.0     0.1
    -0.1    -0.1     0.2     0.1    -0.1     0.1     0.2     0.0     0.2     0.2
     0.1     0.1     0.0     0.2     0.1    -0.2     0.1     0.1     0.1     0.1
     0.2     0.1     0.0     0.0    -0.1     0.0     0.2     0.3     0.1     0.1
     0.2     0.1     0.2     0.1    -0.0     0.1     0.0     0.0     0.1     0.2
    -0.0    -0.1    -0.1     0.0     0.0    -0.1     0.1     0.1     0.1     0.0
    -0.1     0.0    -0.1    -0.1     0.0     0.0    -0.1     0.0     0.3     0.0
    -0.0     0.1    -0.1    -0.0     0.1     0.0    -0.1    -0.0     0.1     0.1
     0.2     0.1    -0.0     0.1     0.2     0.0     0.1     0.0    -0.0     0.2
     0.2     0.2     0.2     0.1     0.1     0.1     0.2     0.2    -0.1     0.0
     0.4     0.2     0.1     0.1     0.1     0.1     0.2     0.1    -0.0    -0.1
     0.0     0.2     0.2     0.1    -0.1     0.1     0.2     0.1     0.1     0.1
     0.1    -0.0     0.1     0.3     0.2     0.1     0.1     0.1     0.1     0.1
     0.2     0.1     0.3     0.3    -0.1    -0.1     0.1     0.1     0.1     0.2
     0.2     0.3     0.3     0.3     0.1     0.2     0.3     0.2     0.3     0.2
     0.2     0.3    -0.1    -0.0     0.3     0.0     0.1     0.2    -0.0    -0.0
    -0.1    -0.0     0.0     0.1     0.2     0.0    -0.1    -0.0    -0.1    -0.0
     0.1     0.2     0.1    -0.1     0.1     0.2     0.2     0.3     0.1     0.1
     0.3     0.1     0.0     0.1     0.2    -0.0    -0.0     0.2     0.1     0.2
     0.1    -0.1     0.0    -0.1    -0.1    -0.0    -0.0     0.1     0.0    -0.1
    -0.1    -0.1     0.1     0.2     0.1     0.2     0.3     0.1    -0.0     0.1
     0.0     0.0     0.1     0.0    -0.0     0.1     0.0    -0.1     0.1     0.1
    -0.1     0.1    -0.0    -0.2     0.1     0.0    -0.1     0.1     0.1     0.0
     0.1     0.0     0.1     0.1    -0.0    -0.1     0.0     0.1    -0.1    -0.1
     0.1    -0.0     0.1    -0.1    -0.2     0.1     0.0    -0.2     0.1     0.1
    -0.2    -0.2    -0.1     0.0    -0.2    -0.1     0.2     0.2     0.0     0.1
     0.2     0.1    -0.0     0.0    -0.1     0.0     0.0     0.0     0.0    -0.0
     0.1     0.1    -0.1    -0.0     0.1     0.1     0.0     0.1     0.1     0.1
    -0.0     0.0     0.1    -0.1     0.0     0.0     0.1     0.2     0.1     0.1
     0.1     0.0     0.2     0.1     0.0    -0.0     0.0     0.1    -0.1     0.0
     0.2    -0.0    -0.1    -0.2    -0.2    -0.1    -0.1     0.0    -0.0     0.0
    -0.1    -0.0     0.1    -0.0     0.1     0.0     0.0     0.1     0.1     0.2
     0.0     0.0    -0.1    -0.3    -0.2     0.1     0.1     0.1     0.1     0.0
    -0.1    -0.1     0.1     0.1     0.0    -0.0     0.1     0.2     0.0     0.0
     0.1    -0.1    -0.0     0.1     0.0     0.1     0.1     0.1     0.1     0.0
    -0.1    -0.2    -0.0     0.1     0.0     0.1     0.0    -0.1    -0.0     0.1
     0.1     0.0     0.1     0.0     0.0     0.1    -0.0    -0.2    -0.0     0.1
     0.1     0.0     0.1     0.1     0.0     0.1     0.0    -0.1    -0.0     0.0
    -0.0     0.1    -0.1    -0.2     0.0     0.1     0.0     0.1     0.2     0.1
     0.1     0.1     0.1     0.1    -0.2    -0.2    -0.0    -0.0     0.1    -0.0
    -0.0     0.1    -0.0    -0.1     0.1     0.1    -0.0     0.1    -0.0    -0.0
     0.1    -0.0     0.1     0.1    -0.1     0.1     0.2     0.1     0.1     0.1
    -0.0     0.0     0.0     0.1     0.2     0.0     0.0    -0.1    -0.0     0.0
     0.0     0.2     0.1     0.0     0.0    -0.1    -0.1     0.0     0.1     0.1
    -0.0    -0.1    -0.1     0.1     0.2     0.1    -0.1     0.1     0.4     0.1
    -0.0    -0.0    -0.0     0.2     0.0     0.0    -0.1    -0.1     0.0     0.1
     0.2     0.2     0.0     0.0    -0.1     0.0    -0.1    -0.1     0.3     0.2
     0.0    -0.0    -0.1     0.1    -0.0    -0.1     0.1     0.0    -0.1     0.1
     0.1     0.0     0.1     0.1    -0.0     0.0    -0.0     0.1     0.2     0.1
     0.1     0.0     0.1     0.1     0.0     0.2     0.1     0.1     0.2     0.1
     0.1    -0.1    -0.1     0.0     0.0     0.0    -0.1    -0.1    -0.2     0.0
     0.1    -0.1    -0.0    -0.1    -0.2    -0.1    -0.0     0.2     0.1    -0.0
     0.1     0.0    -0.1     0.1    -0.2    -0.2    -0.1    -0.1     0.1     0.2
     0.1     0.1    -0.0    -0.1    -0.0    -0.0     0.0     0.1    -0.1    -0.0
     0.1    -0.0     0.1     0.2    -0.0    -0.0     0.0    -0.0     0.0     0.0
     0.0     0.0    -0.0     0.1     0.1     0.2     0.2     0.2     0.3     0.3
     0.2     0.1     0.1     0.1     0.1     0.1     0.2     0.3     0.1    -0.0
    -0.1    -0.1    -0.0    -0.0    -0.1    -0.1     0.1     0.0    -0.0    -0.0
    -0.0     0.2     0.2     0.2     0.1     0.1     0.1     0.0    -0.0     0.1
    -0.0    -0.1     0.1     0.1    -0.0    -0.0    -0.0    -0.1     0.0    -0.1
    -0.3     0.0     0.1    -0.0    -0.0    -0.0     0.0     0.1     0.2     0.0
    -0.3    -0.0     0.2     0.0     0.1     0.1    -0.0     0.0     0.0     0.1
     0.0    -0.0     0.0     0.1     0.1    -0.1    -0.1     0.3     0.1     0.0
     0.2     0.2     0.2    -0.1    -0.3     0.1     0.2     0.2     0.1    -0.0
     0.2     0.3     0.2     0.1     0.3     0.3     0.1     0.1     0.2     0.1
    -0.1     0.1     0.1     0.1     0.1    -0.1     0.1    -0.1    -0.1     0.0
    -0.1     0.1     0.2     0.1     0.1     0.0     0.0     0.0     0.1     0.1
     0.1     0.1    -0.2    -0.2     0.0    -0.1     0.1     0.0    -0.1     0.0
     0.1     0.2     0.1     0.0     0.1     0.2     0.2     0.0     0.1     0.3
     0.2     0.3     0.1     0.1     0.0    -0.1     0.2     0.2     0.2     0.1
    -0.0     0.2     0.1    -0.1     0.1     0.1    -0.0     0.0     0.1     0.1
     0.2     0.2     0.0     0.0     0.1     0.1     0.1     0.1     0.2     0.0
    -0.0     0.1     0.1     0.1     0.1     0.1     0.2     0.2     0.1     0.0
    -0.0    -0.0     0.0     0.0    -0.0    -0.0     0.0     0.1     0.0     0.2
     0.2     0.1     0.1     0.1     0.0     0.1     0.1    -0.1     0.0     0.2
     0.1     0.2     0.1    -0.1     0.1     0.1    -0.0     0.2     0.2    -0.1
    -0.0    -0.0     0.1     0.2     0.1     0.0     0.1     0.0     0.1     0.2
     0.1     0.1     0.1     0.1     0.1    -0.0     0.0     0.1    -0.0     0.2
     0.2     0.0    -0.0    -0.1    -0.0     0.1    -0.0    -0.0     0.2     0.1
     0.1     0.0    -0.1    -0.0    -0.1     0.0     0.1    -0.0     0.1     0.2
     0.1    -0.0    -0.0    -0.0     0.1     0.2     0.1     0.0    -0.0     0.2
     0.2     0.1     0.1     0.0    -0.2    -0.1     0.1     0.1     0.1     0.1
     0.1     0.2     0.1     0.1     0.1    -0.0    -0.1     0.1     0.1    -0.1
     0.1     0.2     0.2     0.1    -0.0     0.1     0.1     0.0    -0.0    -0.0
     0.3     0.1     0.0     0.2    -0.1     0.0     0.1     0.0     0.2     0.2
     0.3     0.2    -0.2     0.1     0.2     0.0     0.1     0.1     0.1    -0.0
     0.1     0.2     0.1     0.3     0.0    -0.0     0.1     0.0     0.2     0.1
     0.1     0.2     0.0    -0.0     0.0     0.1     0.2     0.1     0.1     0.2
     0.2     0.0    -0.1    -0.1    -0.2    -0.1     0.0     0.0     0.1    -0.0
    -0.0     0.1     0.1     0.1     0.1    -0.1    -0.0     0.1     0.1     0.0
    -0.1     0.1     0.2     0.1     0.1     0.1     0.1    -0.1     0.1     0.1
    -0.0     0.2     0.2     0.0    -0.0     0.0     0.1     0.1     0.0     0.2
     0.2    -0.1    -0.2    -0.0    -0.2    -0.0     0.2     0.0     0.1    -0.1
    -0.1     0.4     0.2    -0.1    -0.1    -0.1     0.0    -0.0    -0.0     0.1
    -0.0     0.0     0.1    -0.1    -0.2    -0.2     0.1     0.0    -0.2     0.1
     0.0     0.0     0.1    -0.0     0.2     0.1    -0.0     0.1    -0.1    -0.1
     0.0    -0.2    -0.1     0.1     0.1    -0.0    -0.2    -0.3    -0.1     0.1
     0.1     0.0     0.1    -0.1    -0.1     0.1     0.0    -0.0    -0.1    -0.1
    -0.0    -0.0    -0.0     0.1     0.1     0.1    -0.1    -0.1    -0.0     0.0
     0.1     0.2     0.1     0.1     0.1    -0.0    -0.1     0.1     0.1    -0.0
     0.2     0.1     0.1     0.2    -0.0     0.3     0.4    -0.0     0.1     0.1
    -0.0     0.3     0.1    -0.1     0.1    -0.0    -0.0     0.2     0.2     0.2
     0.0     0.1     0.2     0.2     0.2     0.3    -0.0    -0.0     0.1     0.1
     0.2     0.1    -0.1     0.2    -0.0    -0.1     0.1    -0.1     0.1     0.0
    -0.1    -0.1    -0.1     0.0     0.1    -0.0    -0.1    -0.0    -0.0    -0.1
    -0.0     0.0     0.1     0.2    -0.0     0.1     0.1    -0.0    -0.1    -0.0
     0.1    -0.0     0.0     0.2    -0.1    -0.1     0.1    -0.1    -0.1     0.1
     0.1    -0.0    -0.1    -0.1    -0.1     0.1     0.0    -0.0     0.1    -0.0
     0.0     0.1     0.0     0.2     0.1     0.0     0.1    -0.0     0.0     0.1
     0.1     0.1    -0.0     0.0    -0.0     0.1     0.1    -0.1     0.1     0.1
     0.0    -0.0     0.1     0.1     0.1     0.1    -0.2    -0.1     0.1     0.0
     0.0    -0.0     0.1     0.1    -0.0    -0.1    -0.0     0.0    -0.2    -0.1
    -0.0     0.0     0.0     0.1    -0.0    -0.2     0.0     0.0     0.1     0.2
     0.1     0.0    -0.1    -0.0     0.1    -0.0    -0.1    -0.0     0.0     0.1
     0.2     0.1     0.0     0.0    -0.1    -0.1     0.0     0.1    -0.1    -0.1
     0.2     0.2     0.1     0.0     0.0     0.2     0.0    -0.0     0.1     0.0
    -0.0     0.0     0.1     0.0     0.0     0.0     0.2     0.1    -0.1     0.0
     0.0     0.0     0.1    -0.1     0.0     0.1     0.0    -0.0     0.1     0.3
     0.1    -0.0    -0.0    -0.0     0.0    -0.0     0.1     0.0    -0.1     0.1
     0.0    -0.0     0.0    -0.1    -0.1    -0.0    -0.0    -0.0     0.0     0.1
     0.0     0.0     0.1    -0.1    -0.1     0.1     0.0    -0.0    -0.2    -0.2
    -0.1    -0.1    -0.1    -0.1     0.1     0.1    -0.1    -0.2    -0.1     0.1
     0.1     0.0     0.0     0.2     0.1    -0.1    -0.2     0.1     0.1     0.0
     0.0    -0.1    -0.1     0.2     0.1    -0.0     0.1     0.0     0.1     0.1
    -0.1    -0.0     0.1     0.2     0.2     0.1     0.1     0.0    -0.0     0.1
     0.2     0.2     0.1     0.2     0.2     0.2    -0.1     0.0     0.1     0.1
     0.1    -0.2    -0.1     0.2     0.2     0.1    -0.0     0.2     0.1     0.1
     0.2     0.3     0.2     0.1     0.3     0.2    -0.1     0.0     0.1     0.1
     0.3     0.2    -0.0    -0.0     0.1     0.2     0.2     0.0     0.1     0.2
     0.2     0.2     0.2     0.1     0.1     0.2     0.1     0.2     0.2     0.2
     0.1     0.0     0.2     0.2    -0.0    -0.0     0.1     0.1     0.1     0.1
    -0.0     0.1     0.1    -0.1    -0.1    -0.0     0.0     0.1     0.0    -0.1
     0.1     0.2    -0.1     0.1     0.1    -0.1     0.1     0.1     0.0     0.1
    -0.0     0.0     0.2     0.1    -0.0     0.2     0.2     0.0     0.1     0.1
     0.0    -0.2    -0.3     0.1     0.2    -0.2     0.1     0.0    -0.1     0.1
     0.0    -0.1    -0.0     0.0     0.0     0.2     0.2    -0.0    -0.2     0.0
     0.1     0.1     0.2    -0.0    -0.1     0.2     0.1     0.0     0.1    -0.0
     0.0    -0.0     0.1     0.0    -0.2     0.1     0.0    -0.0     0.0     0.0
     0.1    -0.0     0.0     0.1     0.1     0.2     0.2     0.2    -0.0     0.0
     0.1     0.0     0.1     0.1     0.0     0.1     0.1     0.1    -0.0    -0.0
     0.0     0.0     0.0     0.0     0.1    -0.0    -0.0     0.2     0.1    -0.0
    -0.1    -0.2    -0.1     0.1     0.0     0.1     0.1     0.0    -0.0    -0.0
    -0.1    -0.0    -0.1    -0.0     0.1     0.1     0.2    -0.0     0.1     0.2
    -0.0     0.2    -0.0    -0.0     0.2    -0.1     0.1     0.0    -0.1    -0.0
    -0.2    -0.1     0.1    -0.0    -0.1     0.1     0.1     0.2     0.2     0.0
     0.2     0.4     0.3     0.1     0.1     0.2     0.2     0.1     0.2     0.1
    -0.1     0.1     0.0    -0.1     0.2     0.2     0.1     0.2     0.2     0.3
     0.3     0.2     0.4     0.2     0.1     0.2    -0.1     0.2     0.2     0.0
     0.2     0.3     0.2     0.2     0.1     0.0     0.1     0.1     0.1     0.2
    -0.0     0.0     0.1    -0.1     0.1     0.2    -0.0     0.0     0.1     0.1
    -0.0    -0.0     0.0    -0.0     0.0     0.1     0.0    -0.0    -0.0     0.0
     0.3     0.2    -0.0     0.0    -0.0     0.2     0.2    -0.1    -0.1    -0.0
     0.2     0.2     0.1    -0.1    -0.1     0.0     0.1     0.1    -0.2    -0.1
    -0.0     0.0     0.2     0.1     0.1     0.1    -0.0    -0.0     0.1     0.1
    -0.0     0.0    -0.0     0.1     0.1    -0.1     0.2     0.0    -0.1     0.1
    -0.0     0.1    -0.0    -0.1     0.1    -0.1    -0.2    -0.2    -0.1     0.1
    -0.1    -0.0     0.1    -0.2    -0.1    -0.0     0.1     0.0    -0.1     0.2
     0.1    -0.0     0.1     0.0     0.1    -0.0     0.0     0.1     0.0     0.0
    -0.0     0.2     0.3     0.0    -0.0    -0.0    -0.0     0.1     0.0    -0.1
     0.2     0.2     0.0     0.2     0.0     0.1     0.3    -0.1     0.1     0.3
     0.1     0.0     0.0     0.1    -0.1     0.0     0.2     0.0    -0.0    -0.0
     0.1     0.1    -0.0     0.1    -0.0    -0.1     0.0    -0.1     0.1     0.1
    -0.1    -0.0    -0.1     0.0     0.1     0.0     0.0     0.0    -0.0    -0.1
    -0.0     0.0     0.1     0.0    -0.2     0.1     0.2    -0.1    -0.1    -0.1
     0.0    -0.1    -0.1    -0.0    -0.1    -0.1     0.1     0.0     0.1     0.1
     0.1    -0.0    -0.1    -0.0    -0.0    -0.1     0.1     0.1     0.2    -0.1
    -0.2     0.1     0.0     0.1     0.2    -0.1    -0.1     0.1     0.1    -0.0
    -0.0     0.1     0.1     0.0     0.1     0.2     0.3     0.0    -0.0     0.2
     0.2     0.1     0.1     0.0    -0.0     0.1     0.2     0.1     0.1     0.1
     0.0     0.0    -0.0    -0.0     0.1     0.1     0.1     0.3     0.2     0.0
     0.1     0.2    -0.1    -0.2     0.1     0.1     0.1     0.0    -0.0    -0.0
    -0.1    -0.1    -0.0     0.1     0.1     0.0    -0.0     0.0    -0.1     0.0
     0.1     0.0     0.0    -0.1    -0.1     0.1    -0.1    -0.1    -0.0    -0.2
    -0.0    -0.0    -0.1    -0.0    -0.1     0.0     0.1     0.1     0.2     0.0
     0.1     0.2    -0.1    -0.1    -0.1    -0.1     0.0    -0.0    -0.0     0.2
     0.2     0.2     0.0     0.0    -0.2    -0.1     0.3     0.1    -0.0     0.1
     0.0     0.0     0.0     0.1     0.1     0.1     0.2     0.1     0.1     0.1
     0.0     0.1     0.1     0.1     0.0    -0.1    -0.1    -0.0     0.2     0.2
    -0.1     0.0     0.2     0.0    -0.1     0.1     0.1     0.1     0.0    -0.1
    -0.1    -0.1     0.0     0.1    -0.0    -0.1     0.0    -0.0    -0.1     0.1
     0.2     0.2     0.2     0.1    -0.0     0.0     0.1     0.1     0.0     0.1
     0.1    -0.0     0.1    -0.1    -0.1     0.0     0.1     0.1     0.0    -0.0
    -0.1    -0.0     0.3     0.3     0.2     0.2    -0.0     0.0     0.2     0.0
    -0.0     0.1     0.2     0.1     0.1     0.1    -0.0     0.0    -0.2    -0.2
     0.2     0.0    -0.0     0.1    -0.0    -0.0     0.1    -0.0    -0.1    -0.0
    -0.1    -0.1     0.1     0.1     0.0     0.0    -0.1     0.0     0.2     0.2
     0.1    -0.1    -0.0     0.2     0.1    -0.1     0.1     0.1     0.1     0.2
     0.0     0.1     0.2     0.1     0.1     0.1     0.1    -0.1     0.0     0.1
     0.0     0.1     0.3     0.3     0.2    -0.0     0.0     0.1    -0.0     0.1
     0.1    -0.2    -0.0    -0.1     0.0     0.1     0.1     0.2     0.2     0.1
     0.1     0.1    -0.0     0.0     0.1    -0.1    -0.0     0.0    -0.1    -0.1
     0.2     0.2     0.0     0.1    -0.1    -0.0     0.2    -0.1    -0.0     0.2
     0.0     0.2    -0.0    -0.1     0.2     0.2     0.0     0.0    -0.0    -0.1
    -0.1    -0.0    -0.1    -0.0    -0.1     0.0     0.0    -0.2     0.2     0.3
    -0.1    -0.1     0.0     0.1     0.0     0.2     0.1    -0.1     0.1     0.1
    -0.1     0.1     0.1    -0.0     0.1    -0.0    -0.1     0.1     0.2    -0.0
    -0.0     0.0    -0.1    -0.2    -0.1     0.1     0.1     0.0     0.0     0.0
    -0.1    -0.1     0.0     0.0     0.1     0.1    -0.1     0.1     0.1    -0.1
     0.1     0.2    -0.0    -0.1    -0.0     0.1     0.1     0.1     0.3     0.2
    -0.1     0.1     0.1    -0.1    -0.1    -0.1     0.0     0.1    -0.1    -0.0
