Uncorrected accelerogram 20161113_110256_VUWS_20 GNS Science
Site VUWS      41 16 47S  174 46 42E     Cusp file:  20161113_110330_VUWS
Victoria University Law School
Instrument Cusp_42271
Resolution: 18-bit   Instr Period: 0.0050 s   Damping: 0.700
Accelerogram 20161113_110256_VUWS_20                 Processed 2016 December 09
5 km south-west of Waiau
2016 November 13         11:02:56 UT
Epicentre  42 41 33S 173 01 19E  Bearing S42W  Dist  214km  Depth   15km Mw 7.82
Number of points  56180    Duration 280.89 s
Raw readings in units of 1.00 mm/s/s  at intervals of 0.005 s
Data is unfiltered
Component S66E
Acceleration:  Peak   1527.3 mm/s/s at  92.15 s     RMS   148.73 mm/s/s
Velocity record unevaluated
Displacement record unevaluated
    2016      11      13      11       2     560       0       0    2016      11
      42      41      33     173       1      19      15       0      13      11
      41      16      47     174      46      42     114     114     222     214
   56180       0       0   56180       0       0       0       0       2   50701
   200.0    0.70    0.00   0.000  0.0000   0.000   0.000   1.000     0.0    0.00
  41.280 174.778  42.693 173.022    7.82    0.00    0.00    0.00      0.      0.
  280.89    0.00    0.00  280.89  0.0050  0.0050      0.      0.      0.  9806.6
  1527.3   92.15   148.7      0.      0.     0.0    0.00     0.0     0.0   0.000
    0.00    0.00    0.00    0.00   0.000    0.00    0.00    0.00    0.00   0.000
   0.000   0.000   0.000      0.      0.   0.000   0.000   0.000      0.      0.
     0.1     0.2     0.1     0.0     0.3     0.3     0.1     0.0     0.0     0.1
     0.2     0.2     0.3     0.2     0.2     0.3     0.1     0.1     0.2     0.1
    -0.0     0.1     0.1    -0.0     0.2     0.2     0.0     0.2     0.2     0.1
     0.0     0.1     0.1     0.1     0.2     0.0     0.2     0.2     0.0     0.1
     0.1     0.2     0.1     0.1     0.3     0.1     0.1     0.1     0.1     0.2
    -0.0     0.1     0.0    -0.1     0.3     0.1     0.1     0.1     0.0     0.2
     0.1     0.0     0.0     0.1     0.2     0.1     0.1     0.2     0.1     0.1
     0.1     0.1     0.1     0.2    -0.0    -0.0     0.1     0.1     0.2     0.2
     0.1     0.2     0.2     0.2     0.2     0.3     0.2     0.2     0.2    -0.0
     0.1     0.2     0.1     0.2     0.1     0.1     0.1     0.1    -0.0     0.0
     0.1     0.1    -0.0     0.2     0.2     0.2     0.2     0.2     0.1     0.1
    -0.0     0.1     0.2     0.1     0.3     0.2     0.1     0.2     0.2     0.1
     0.0     0.0     0.1     0.1     0.1     0.2     0.3     0.2     0.3     0.3
     0.1     0.1     0.1     0.0     0.2     0.2     0.2     0.4     0.2     0.1
     0.2     0.0     0.1     0.2     0.1     0.2     0.1     0.1     0.2    -0.0
     0.0     0.2    -0.0     0.0     0.1     0.2     0.2     0.2     0.3     0.2
     0.1     0.1     0.1     0.2     0.1     0.1     0.0     0.0     0.3     0.2
     0.2     0.2     0.1     0.0     0.0     0.0     0.1     0.1    -0.1     0.2
     0.3     0.1     0.1     0.2     0.2     0.2     0.0    -0.0    -0.1     0.0
     0.2     0.2     0.1     0.0     0.1     0.2     0.2     0.1     0.2     0.3
     0.1     0.1     0.2     0.2     0.2     0.2     0.2     0.1     0.2     0.2
     0.1     0.2     0.2     0.1     0.1     0.2     0.2     0.1     0.2     0.2
     0.1     0.3     0.2     0.1     0.0     0.2     0.3     0.0     0.2     0.3
     0.2     0.2     0.2     0.3     0.2     0.2     0.2     0.2     0.2     0.2
     0.1     0.2     0.3     0.4     0.2     0.1     0.1     0.0     0.2     0.3
     0.2     0.2     0.4     0.1    -0.0     0.2     0.2     0.3     0.3     0.2
     0.2     0.2     0.2     0.2     0.2     0.2     0.1     0.2     0.2     0.1
     0.2     0.1     0.1     0.3     0.3     0.3     0.3     0.2     0.3     0.2
     0.0     0.1     0.1     0.2     0.2    -0.0     0.1     0.0     0.0     0.2
     0.1     0.2     0.2     0.0     0.2     0.1    -0.1     0.1     0.1    -0.0
    -0.0     0.1     0.1     0.3     0.1     0.1     0.1    -0.0     0.1     0.1
     0.0     0.2     0.1     0.1     0.3     0.1     0.1     0.1     0.0     0.1
     0.2     0.1     0.0     0.1     0.2     0.2     0.1     0.2     0.1    -0.1
    -0.0     0.2    -0.0     0.1     0.3     0.1     0.0     0.1     0.0     0.0
     0.0     0.0     0.0     0.2     0.4     0.3     0.2     0.3     0.2     0.0
     0.1     0.1     0.1     0.2     0.1     0.1     0.2     0.2     0.1     0.1
     0.2     0.1     0.1     0.0     0.1     0.3     0.2     0.1     0.2     0.2
     0.2     0.3     0.1     0.2     0.2     0.2     0.2     0.0     0.1     0.2
     0.1     0.1     0.1     0.3     0.2     0.2     0.3     0.2     0.3     0.1
     0.1     0.2     0.2     0.3     0.2     0.0     0.1     0.2    -0.0    -0.0
     0.2     0.1     0.2     0.3     0.1     0.1     0.2     0.1    -0.0     0.1
     0.3     0.2     0.2    -0.0    -0.1    -0.0    -0.0    -0.1     0.0     0.2
    -0.1    -0.1     0.2     0.1     0.2     0.2     0.2     0.1    -0.1     0.1
     0.2     0.2     0.2     0.1     0.1     0.0     0.0     0.2     0.1     0.1
     0.2     0.0     0.1     0.2     0.1     0.2     0.1     0.1     0.1     0.1
     0.2     0.1    -0.1     0.1     0.0     0.0     0.2     0.2     0.1     0.1
     0.2     0.2     0.0     0.1     0.1     0.2     0.3     0.2     0.2     0.1
     0.1     0.1     0.0     0.1     0.1     0.2     0.3     0.2    -0.0    -0.0
     0.1    -0.0    -0.0     0.1     0.2     0.4     0.2     0.1     0.2     0.2
     0.1     0.3     0.3     0.2     0.1     0.0     0.1     0.1     0.1     0.0
     0.1     0.0     0.0     0.2     0.2     0.2     0.3     0.2     0.0     0.1
     0.0    -0.0     0.2     0.2     0.0     0.1     0.1     0.0     0.1     0.0
     0.1     0.0     0.0     0.2     0.1     0.1     0.1     0.0    -0.0     0.0
     0.1     0.1     0.2     0.1     0.1     0.0    -0.0    -0.0    -0.0     0.0
     0.1     0.1     0.0     0.1     0.0    -0.1    -0.0    -0.0     0.1     0.1
     0.0     0.2     0.2     0.3     0.1    -0.0     0.2     0.0    -0.0     0.0
    -0.0     0.3     0.1     0.0     0.2     0.1     0.2     0.2     0.1     0.1
     0.1     0.0     0.1     0.1     0.0     0.3     0.2     0.0     0.1    -0.0
     0.1     0.2     0.0     0.1     0.0     0.0    -0.0     0.1     0.2     0.1
     0.3     0.2     0.1     0.3     0.2     0.2     0.1    -0.0     0.0     0.1
     0.2     0.2     0.2     0.1     0.0     0.1     0.2     0.1     0.2     0.3
     0.1     0.1     0.2     0.3     0.2     0.1     0.2     0.1     0.0     0.1
     0.0     0.2     0.2     0.1     0.2     0.1     0.2     0.1     0.0     0.0
     0.1     0.4     0.3     0.1     0.1     0.1     0.1     0.1     0.2     0.2
     0.1    -0.0     0.0     0.2     0.1     0.1     0.2     0.1     0.0    -0.0
     0.1     0.1    -0.0     0.1     0.2    -0.0     0.1     0.1     0.0     0.1
    -0.1    -0.0     0.2     0.1     0.1     0.1     0.1     0.0    -0.1    -0.1
     0.1     0.3     0.1     0.1     0.2     0.2     0.2     0.1     0.2     0.3
     0.2    -0.0    -0.1    -0.0    -0.0     0.1     0.1     0.0     0.2     0.1
    -0.0     0.1     0.2    -0.0     0.0    -0.0    -0.1     0.2     0.0    -0.1
     0.2     0.1     0.1     0.1    -0.0     0.2     0.2     0.2     0.2     0.1
     0.3     0.2     0.1     0.2     0.0     0.1     0.2    -0.0     0.0     0.2
     0.2     0.2     0.2     0.1     0.2     0.1     0.1     0.2     0.1     0.2
     0.1     0.1     0.1    -0.0    -0.1     0.0     0.2     0.1    -0.1     0.0
     0.1     0.2     0.0    -0.0     0.1     0.1     0.2     0.1    -0.0     0.1
     0.1     0.1     0.2     0.1     0.1     0.0     0.0     0.2     0.1     0.1
     0.2     0.0    -0.0     0.1     0.3     0.2     0.1     0.2     0.0     0.1
     0.3     0.2     0.1     0.0     0.2     0.2     0.0     0.2     0.0    -0.1
     0.2     0.1     0.0    -0.0     0.0     0.3     0.2    -0.0     0.1     0.2
     0.2     0.1     0.0     0.0     0.0    -0.0     0.1     0.3     0.1    -0.0
     0.2     0.1     0.1     0.1     0.0     0.1     0.1     0.2     0.3     0.2
     0.2     0.3     0.2     0.0     0.2     0.1    -0.1     0.0     0.1     0.2
     0.1     0.0     0.2     0.0    -0.0     0.0     0.1     0.0     0.0     0.2
     0.1     0.2     0.2     0.1     0.1     0.2     0.1     0.1     0.2    -0.0
    -0.0     0.2     0.1     0.2     0.0    -0.0     0.1    -0.0     0.2     0.3
     0.1     0.1     0.2     0.3     0.2     0.2     0.1     0.1     0.0    -0.0
     0.0    -0.0     0.0     0.1    -0.0     0.1     0.1    -0.0    -0.1     0.0
     0.1     0.0     0.1     0.0    -0.0    -0.0     0.0     0.1     0.2     0.1
    -0.1     0.1     0.1     0.0     0.1     0.0     0.1     0.1     0.1     0.1
     0.1     0.2     0.1    -0.0    -0.0     0.2     0.1    -0.0     0.1     0.1
     0.0    -0.0    -0.1    -0.1    -0.0     0.1     0.1     0.0     0.0    -0.1
    -0.0     0.1     0.1     0.1    -0.1    -0.1    -0.0    -0.2    -0.0     0.1
     0.2     0.1     0.2     0.3    -0.0    -0.0    -0.0    -0.1    -0.1    -0.2
     0.0     0.1    -0.1    -0.0     0.0    -0.1    -0.0     0.2     0.1    -0.2
    -0.0     0.0    -0.0     0.1     0.1     0.1     0.1     0.0     0.1    -0.0
     0.1     0.2     0.0     0.0    -0.1    -0.1    -0.1    -0.1    -0.0    -0.1
    -0.1    -0.0     0.0     0.0     0.1     0.1    -0.0    -0.0     0.1     0.0
    -0.0    -0.1     0.0     0.1     0.0    -0.0    -0.0    -0.1    -0.0     0.0
     0.0     0.1     0.1    -0.0    -0.1    -0.1     0.0    -0.1     0.0     0.2
    -0.1    -0.1    -0.0    -0.0    -0.1    -0.1    -0.1    -0.1    -0.0    -0.0
     0.0     0.0    -0.1     0.0     0.0    -0.1    -0.1    -0.1     0.1     0.1
    -0.1     0.1     0.1     0.0     0.0     0.1     0.2     0.1     0.2     0.3
     0.2     0.0     0.0     0.1     0.1     0.1     0.2     0.2     0.2     0.1
     0.0     0.2     0.2     0.1     0.1     0.1     0.1     0.3     0.2     0.2
     0.2     0.2     0.1     0.1     0.1     0.2     0.2     0.2     0.1     0.1
     0.1     0.1     0.2     0.2     0.1     0.0     0.2     0.2     0.1     0.1
     0.2     0.2     0.1     0.2     0.1     0.2     0.3    -0.0     0.1     0.2
     0.0     0.2     0.1     0.1     0.1    -0.1    -0.0     0.1     0.0     0.1
    -0.0    -0.0     0.1     0.1     0.1     0.1     0.1     0.1     0.1     0.0
     0.0     0.2     0.1    -0.0    -0.1     0.1     0.3     0.0     0.2     0.2
    -0.2    -0.0     0.2     0.0    -0.1     0.1     0.1     0.1     0.1    -0.1
     0.1     0.1    -0.1     0.1     0.2     0.2     0.0    -0.0     0.2     0.2
     0.0     0.0     0.1     0.1     0.1    -0.0    -0.1     0.1     0.1     0.1
    -0.1    -0.0     0.1    -0.1    -0.1     0.1     0.1     0.1     0.0    -0.0
     0.0     0.0    -0.0     0.1     0.0     0.1     0.2     0.1     0.1     0.2
     0.2     0.1     0.1     0.1     0.1     0.0    -0.1    -0.0     0.1     0.2
     0.1    -0.0     0.1     0.1     0.0     0.2     0.1     0.0     0.2     0.2
     0.1     0.0    -0.0    -0.0    -0.0     0.2     0.2    -0.0     0.1     0.0
     0.1     0.2    -0.1     0.0     0.1    -0.0    -0.0     0.1     0.0    -0.1
     0.0     0.1    -0.0     0.0     0.1     0.0    -0.0     0.1     0.3     0.1
     0.3     0.2     0.0    -0.0    -0.0     0.1     0.0    -0.0     0.2     0.2
     0.0    -0.0     0.1     0.1     0.1     0.1     0.1     0.2     0.1     0.2
     0.1    -0.0     0.1    -0.0    -0.1     0.1     0.0     0.0     0.0    -0.0
     0.0    -0.0    -0.1     0.1     0.1    -0.0    -0.0     0.1     0.1    -0.0
    -0.0     0.1     0.1     0.1     0.1    -0.0    -0.0     0.1     0.2     0.1
    -0.0     0.2     0.2    -0.0     0.1     0.1     0.3     0.3     0.2     0.2
     0.1     0.1     0.2     0.2     0.1     0.2     0.2     0.1     0.1     0.1
     0.1    -0.0     0.1     0.1     0.0     0.1     0.1     0.0     0.1     0.0
     0.1     0.1     0.2     0.2     0.0     0.0     0.1     0.1     0.2     0.2
     0.1     0.1     0.3     0.2     0.1     0.0     0.1     0.1     0.1     0.2
     0.1     0.0     0.0    -0.0     0.1     0.1     0.0    -0.0    -0.1    -0.1
    -0.0    -0.0     0.0     0.2     0.1     0.1    -0.0    -0.0     0.1     0.0
     0.0    -0.1    -0.1     0.1    -0.1    -0.0     0.2     0.1     0.2     0.1
     0.1     0.2     0.1    -0.0     0.1     0.1    -0.0     0.1     0.2     0.0
     0.1     0.2     0.1     0.1     0.0    -0.1     0.0     0.1    -0.0    -0.1
     0.0     0.1     0.0     0.1     0.1     0.1     0.1     0.1    -0.0     0.0
     0.2     0.0    -0.0     0.0    -0.0    -0.0    -0.0    -0.0     0.1    -0.0
    -0.0     0.2     0.1    -0.0     0.1     0.0    -0.1    -0.0     0.0     0.1
    -0.0     0.0     0.1    -0.0     0.0     0.2     0.1     0.0    -0.0     0.1
     0.2     0.1     0.1     0.1    -0.0     0.0     0.1    -0.1    -0.0     0.0
     0.0     0.2    -0.0    -0.0     0.2     0.0     0.0     0.0     0.1     0.2
     0.1     0.1     0.1     0.1     0.1     0.1     0.0     0.1     0.0    -0.1
     0.2     0.3     0.1     0.1     0.1     0.1     0.1    -0.0    -0.1     0.2
     0.2     0.0     0.2     0.1     0.1     0.0    -0.0     0.0    -0.1    -0.0
     0.0     0.0     0.2     0.0     0.1     0.1    -0.0     0.0    -0.1     0.0
    -0.0    -0.1     0.1     0.1    -0.1    -0.0     0.3     0.0    -0.1     0.2
     0.0     0.2     0.2    -0.0     0.0     0.0     0.2     0.2    -0.0     0.1
     0.1     0.1     0.1     0.2     0.0    -0.0     0.1     0.1     0.0     0.1
     0.1     0.2     0.2     0.1     0.1     0.1     0.1     0.2     0.1     0.1
     0.0    -0.1     0.1     0.1     0.0     0.2     0.1     0.0     0.3     0.2
    -0.0     0.2     0.2    -0.0     0.1     0.2     0.2     0.2     0.2     0.2
     0.1     0.2     0.2     0.2     0.1     0.3     0.1     0.0     0.2     0.0
     0.0     0.1     0.1     0.2     0.2     0.0     0.1     0.2     0.0     0.0
     0.2     0.2     0.2     0.1    -0.1    -0.0     0.0     0.0    -0.0    -0.1
     0.1     0.2     0.0     0.1     0.1    -0.0     0.0     0.0     0.1     0.1
    -0.0    -0.0    -0.1    -0.1     0.2     0.2     0.1     0.0     0.0     0.0
     0.0     0.1     0.1     0.1     0.0    -0.1    -0.0     0.0     0.1     0.1
    -0.0     0.1     0.2    -0.0    -0.0     0.1     0.1     0.2     0.1     0.0
     0.3     0.2    -0.1    -0.1     0.1     0.2     0.0    -0.1     0.1     0.2
     0.1     0.1     0.2     0.1    -0.0    -0.0    -0.1    -0.1     0.0     0.1
     0.1    -0.1    -0.1     0.1     0.1     0.0    -0.0    -0.2    -0.1     0.1
     0.2     0.1    -0.1    -0.1    -0.0     0.1     0.0     0.1     0.1     0.1
     0.2     0.0    -0.0     0.0     0.0     0.3     0.1    -0.1     0.0    -0.0
     0.0     0.1     0.0     0.0     0.1     0.2     0.1     0.1     0.1     0.1
     0.1    -0.0     0.2     0.2     0.0    -0.0     0.1     0.1     0.1     0.1
     0.1     0.0     0.1     0.1     0.1     0.1     0.0     0.1     0.2     0.2
     0.1     0.0     0.0     0.1     0.2     0.1     0.1     0.0    -0.1     0.1
     0.1    -0.0     0.1     0.3     0.1    -0.1     0.1     0.2     0.0    -0.0
    -0.0     0.1     0.1    -0.1     0.1     0.0    -0.0     0.2     0.0     0.2
     0.3     0.1     0.1     0.1     0.1     0.1     0.1     0.1    -0.1     0.1
     0.1     0.1     0.1     0.0     0.2     0.1     0.0     0.2     0.1     0.0
     0.2     0.1     0.0     0.1     0.2     0.3     0.1     0.0     0.0     0.1
     0.1     0.1     0.2     0.2     0.2     0.1     0.1     0.2     0.1     0.3
     0.3     0.2     0.2     0.2     0.2     0.1     0.0     0.0     0.2     0.2
     0.1     0.1     0.0    -0.1     0.0     0.1    -0.0     0.1     0.0     0.1
     0.2     0.1     0.1     0.2     0.3     0.2     0.0     0.1     0.1     0.1
     0.1     0.0     0.0     0.0    -0.1    -0.1     0.0    -0.1     0.0     0.2
     0.1     0.4     0.3     0.1     0.3     0.1     0.1     0.3     0.2     0.2
    -0.1    -0.1    -0.0    -0.1     0.1     0.1     0.1     0.1     0.1     0.2
     0.1     0.1     0.1     0.2     0.2     0.1     0.2     0.2     0.1     0.1
     0.2     0.2     0.3     0.1    -0.1     0.1     0.1    -0.1     0.0     0.1
     0.2     0.4     0.2     0.2     0.2     0.1     0.2     0.2     0.1     0.1
     0.1    -0.0     0.1     0.0    -0.0     0.2     0.1     0.1     0.1     0.2
     0.1     0.1     0.3     0.3     0.1     0.2     0.2     0.1     0.1     0.2
     0.1     0.2     0.4     0.2     0.2     0.1     0.0     0.1     0.0     0.1
     0.1     0.2     0.2     0.3     0.3     0.2     0.1     0.1     0.1     0.2
     0.2     0.1     0.2     0.3     0.1     0.2     0.3     0.2     0.2     0.3
     0.4     0.3     0.1     0.4     0.2    -0.0     0.2     0.2     0.1    -0.1
     0.0     0.3     0.2     0.0     0.3     0.3     0.0     0.0     0.1     0.0
     0.1     0.2     0.3     0.3     0.2     0.3     0.0     0.1     0.1     0.1
     0.3     0.1     0.2     0.3     0.1     0.0     0.1    -0.0    -0.0     0.2
     0.2     0.0     0.1     0.0     0.1     0.2     0.1     0.1     0.2     0.2
     0.3     0.2     0.1     0.2     0.1    -0.0     0.0     0.0     0.0     0.1
     0.0    -0.0     0.1     0.1     0.1     0.0     0.0     0.0     0.1    -0.0
    -0.0     0.1     0.0    -0.0     0.1     0.1     0.2     0.2    -0.0     0.0
     0.0    -0.1     0.1     0.3     0.1     0.1     0.2     0.3     0.1     0.1
     0.1     0.1    -0.0    -0.0     0.1     0.2     0.0     0.1     0.2    -0.0
    -0.0     0.1     0.1     0.0     0.1     0.1    -0.0     0.1     0.1     0.1
     0.1    -0.0    -0.0     0.0    -0.0     0.0     0.1     0.1     0.1     0.2
     0.1    -0.1     0.1    -0.0    -0.1     0.0    -0.0     0.1     0.1     0.1
     0.0     0.0     0.1     0.1     0.2     0.1     0.0     0.2    -0.0     0.0
     0.2     0.1     0.1     0.1    -0.0     0.1     0.2     0.1     0.2     0.1
     0.0     0.2     0.1     0.0     0.0     0.1     0.1     0.0     0.2     0.2
     0.0     0.1     0.1     0.1     0.1     0.2     0.3     0.2     0.1     0.1
     0.0    -0.0     0.0     0.2     0.2     0.2     0.2     0.1     0.0     0.1
     0.3     0.1     0.0     0.3     0.1     0.2     0.2     0.1     0.3     0.1
     0.1     0.4     0.1     0.2     0.4     0.2     0.1     0.0     0.2     0.2
     0.0     0.2     0.4     0.3     0.0     0.2     0.3     0.1     0.0     0.0
     0.2     0.3     0.2     0.3     0.4     0.3     0.2     0.1     0.1     0.1
     0.1     0.1     0.0     0.1     0.2     0.1    -0.0     0.1     0.1     0.2
     0.1     0.1     0.2     0.0    -0.0     0.1     0.0     0.0     0.2     0.2
     0.1     0.1     0.2     0.3     0.3     0.2     0.1     0.2     0.3     0.2
     0.1     0.3     0.3     0.2     0.1     0.1     0.1     0.2     0.2     0.2
     0.2     0.1     0.2     0.2     0.2     0.3     0.2     0.0     0.1     0.1
     0.1     0.3     0.2     0.1     0.2     0.1     0.2     0.1    -0.0     0.2
     0.1     0.2     0.4     0.1     0.2     0.2     0.0     0.2     0.2     0.0
     0.1     0.1     0.2     0.3     0.2     0.2     0.2     0.2     0.3     0.2
     0.2     0.2     0.1     0.1     0.2     0.3     0.0     0.1     0.4     0.2
     0.2     0.3     0.2     0.2     0.0     0.2     0.1     0.1     0.3     0.1
     0.1     0.1    -0.0     0.3     0.3     0.1     0.1     0.1     0.1     0.1
     0.2     0.2     0.1     0.1     0.2     0.2     0.2     0.1     0.1     0.1
     0.1     0.1     0.2     0.1     0.1     0.1     0.2     0.3     0.1     0.1
     0.1     0.0    -0.0    -0.1    -0.0     0.0     0.0     0.2     0.1    -0.0
     0.0     0.1     0.1     0.1     0.2     0.2     0.1     0.2     0.2     0.1
     0.1     0.1     0.2     0.3     0.1     0.1    -0.0     0.1     0.2     0.2
     0.3     0.2     0.1     0.1     0.1     0.1     0.0    -0.1     0.0     0.1
     0.1     0.1     0.0     0.0     0.1     0.1     0.1     0.1     0.1     0.2
