Uncorrected accelerogram 20161113_110256_PGMS_20 GNS Science
Site PGMS      41 13 28S  174 52 46E     Cusp file:  20161113_110331_PGMS
Petone Municipal Building
Instrument Cusp_42106
Resolution: 18-bit   Instr Period: 0.0050 s   Damping: 0.700
Accelerogram 20161113_110256_PGMS_20                 Processed 2016 December 09
5 km south-west of Waiau
2016 November 13         11:02:56 UT
Epicentre  42 41 33S 173 01 19E  Bearing S43W  Dist  224km  Depth   15km Mw 7.82
Number of points  61277    Duration 306.38 s
Raw readings in units of 1.00 mm/s/s  at intervals of 0.005 s
Data is unfiltered
Component N66W
Acceleration:  Peak  -1348.1 mm/s/s at 108.30 s     RMS   125.88 mm/s/s
Velocity record unevaluated
Displacement record unevaluated
    2016      11      13      11       2     560       0       0    2016      11
      42      41      33     173       1      19      15       0      13      11
      41      13      28     174      52      46     294     294     223     224
   61277       0       0   61277       0       0       0       0       2   51712
   200.0    0.70    0.00   0.000  0.0000   0.000   0.000   1.000     0.0    0.00
  41.225 174.879  42.693 173.022    7.82    0.00    0.00    0.00      0.      0.
  306.38    0.00    0.00  306.38  0.0050  0.0050      0.      0.      0.  9806.6
 -1348.1  108.30   125.9      0.      0.     0.0    0.00     0.0     0.0   0.000
    0.00    0.00    0.00    0.00   0.000    0.00    0.00    0.00    0.00   0.000
   0.000   0.000   0.000      0.      0.   0.000   0.000   0.000      0.      0.
     0.1     0.0     0.3     0.1    -0.0     0.0     0.1     0.2     0.2     0.3
     0.0     0.1     0.4     0.2     0.2     0.2     0.0     0.1     0.1     0.1
     0.1    -0.1    -0.1     0.2     0.0     0.0     0.2     0.2     0.3     0.2
     0.2     0.2     0.2     0.3     0.1     0.1     0.1     0.0     0.1    -0.0
    -0.0    -0.1     0.1     0.2     0.2     0.3     0.1    -0.0     0.1     0.1
     0.2     0.1     0.1     0.1    -0.1     0.0     0.0     0.1     0.3     0.1
     0.2     0.2    -0.0     0.1     0.1     0.1     0.0    -0.1    -0.0     0.1
     0.1    -0.2    -0.1     0.1     0.0     0.2     0.2     0.1     0.0     0.1
     0.1     0.0     0.1     0.2     0.1     0.1     0.1     0.2     0.3     0.1
     0.1     0.1     0.1     0.2     0.2     0.1     0.0    -0.0     0.0     0.0
     0.1     0.1     0.0     0.1     0.1    -0.0     0.1     0.0     0.2     0.2
    -0.0     0.2     0.2     0.3     0.0    -0.0     0.2     0.1     0.3     0.2
     0.1     0.3     0.1     0.2     0.1     0.1     0.3     0.1     0.2     0.2
    -0.1     0.2     0.2    -0.1     0.1     0.2     0.2     0.1    -0.0     0.1
    -0.0     0.1     0.2    -0.0     0.0     0.0    -0.0     0.3     0.2     0.2
     0.2     0.1     0.0     0.1     0.2    -0.0     0.1     0.3    -0.0    -0.1
    -0.1     0.1     0.3     0.2     0.2     0.2     0.2     0.0     0.0     0.2
     0.2     0.0     0.2     0.1     0.1     0.3     0.2     0.1     0.1     0.2
     0.2     0.1     0.1     0.1     0.3     0.3     0.1    -0.0     0.1     0.1
    -0.0     0.1     0.2     0.2     0.2     0.1     0.3     0.3     0.0     0.2
     0.2     0.1     0.2     0.1     0.2     0.2     0.0    -0.0    -0.1     0.2
     0.3     0.1     0.2     0.2     0.1     0.2     0.2     0.2     0.1     0.1
     0.3     0.2     0.3     0.2     0.1     0.3     0.0     0.1     0.2    -0.1
     0.0     0.0     0.1     0.2     0.2     0.0     0.0     0.3     0.1     0.1
     0.3     0.2     0.3     0.2     0.1     0.3     0.3     0.2     0.0    -0.0
     0.2     0.2     0.1     0.2     0.1     0.1     0.2     0.1     0.1     0.1
     0.2     0.1    -0.2     0.0     0.2     0.1     0.3     0.3     0.3     0.1
     0.2     0.4     0.2     0.1     0.1     0.3     0.1     0.2     0.3    -0.0
     0.0     0.1    -0.0     0.1     0.1     0.2     0.2     0.0     0.1     0.1
     0.1     0.1     0.2     0.2    -0.0     0.1     0.1     0.1     0.3     0.1
    -0.0    -0.0     0.0     0.1     0.0     0.1     0.1     0.1     0.2     0.0
     0.0     0.2     0.1     0.2     0.1     0.0     0.0     0.1     0.0     0.0
     0.1     0.1     0.2     0.0    -0.0    -0.0    -0.1     0.1     0.1     0.2
     0.2     0.1     0.2    -0.0     0.1     0.2     0.1    -0.1     0.0     0.2
     0.1     0.1     0.1    -0.0     0.3     0.1     0.1     0.2     0.0     0.1
     0.1     0.1     0.1    -0.0     0.0     0.2     0.3     0.1    -0.1     0.1
     0.2     0.0     0.1     0.1     0.2     0.1     0.0     0.2     0.0    -0.1
     0.2     0.3     0.1    -0.1    -0.0     0.1     0.1     0.1    -0.1    -0.1
     0.2     0.2     0.1     0.2     0.0     0.1     0.1    -0.1     0.0     0.0
     0.1     0.1     0.0     0.1     0.1     0.0    -0.1     0.0     0.2     0.1
     0.1     0.1     0.2     0.0    -0.1     0.1     0.0     0.1     0.2     0.1
     0.2     0.1     0.0     0.1     0.0     0.0    -0.1     0.0     0.1     0.1
     0.1    -0.2     0.0     0.0    -0.0     0.2     0.0     0.2     0.1    -0.0
     0.2     0.0     0.1     0.1     0.0     0.1    -0.0     0.1     0.1     0.0
     0.1     0.1     0.0     0.0     0.0     0.1     0.1     0.0     0.1     0.2
     0.1     0.0     0.1     0.2    -0.0     0.1     0.2     0.0     0.1    -0.1
    -0.1     0.1     0.0     0.2     0.2     0.2     0.2     0.1     0.0     0.0
     0.2     0.1     0.1     0.2    -0.0     0.1     0.4     0.0     0.0     0.2
     0.1     0.1     0.0    -0.0     0.2     0.1     0.0     0.0    -0.0     0.2
     0.1    -0.0     0.2     0.1     0.0     0.1     0.1    -0.0     0.0     0.1
    -0.0     0.1    -0.0    -0.0     0.1     0.1     0.1    -0.0     0.1     0.1
     0.0     0.1    -0.0     0.1     0.2     0.0     0.1     0.1     0.1     0.1
     0.1     0.0     0.1     0.2     0.1    -0.0     0.1     0.1     0.1     0.0
     0.1     0.1    -0.0     0.1     0.1     0.1     0.1     0.0    -0.0     0.2
     0.2     0.1     0.0    -0.1     0.0    -0.0     0.1     0.1    -0.1     0.2
     0.1     0.0     0.2     0.1    -0.0     0.1     0.2    -0.0    -0.1    -0.0
     0.1     0.1    -0.0     0.2     0.1    -0.1     0.2     0.2     0.1     0.2
     0.1     0.1     0.2    -0.1    -0.1     0.2     0.1    -0.0     0.0     0.1
    -0.1     0.1     0.3     0.1     0.2     0.1    -0.0     0.2     0.2     0.2
     0.1     0.0     0.4     0.3     0.2     0.3     0.0     0.2     0.1     0.2
     0.3     0.1     0.3     0.1     0.1     0.2     0.2     0.2     0.1     0.1
    -0.0    -0.0     0.1     0.2     0.2    -0.0     0.2     0.0     0.0     0.2
     0.1     0.3     0.2     0.3     0.4     0.2     0.3     0.2     0.3     0.2
     0.1     0.2     0.2     0.2     0.0     0.2     0.3     0.1     0.1     0.2
     0.4     0.3     0.1     0.2     0.2     0.2     0.1     0.1     0.2     0.2
     0.0    -0.0     0.1    -0.1    -0.0     0.1     0.1     0.2     0.1    -0.0
     0.1     0.1     0.1     0.0     0.1     0.2     0.2     0.2     0.2     0.1
     0.2     0.1     0.2     0.4    -0.1    -0.1     0.2     0.0     0.1     0.0
    -0.0     0.1     0.0     0.0     0.1     0.1     0.1     0.1     0.1     0.0
    -0.0     0.1     0.2     0.1     0.1     0.2     0.2     0.1     0.1     0.2
     0.1     0.1     0.2     0.1     0.0    -0.0     0.0     0.1     0.1    -0.0
     0.0     0.1     0.1    -0.0    -0.0     0.1     0.2     0.2     0.1     0.0
     0.2     0.1     0.0     0.2     0.2     0.1     0.0    -0.1     0.1     0.1
    -0.0    -0.1    -0.1     0.1     0.1     0.1     0.2     0.1     0.1     0.2
     0.1     0.1     0.2     0.2     0.2     0.2     0.2     0.1     0.0     0.2
     0.1     0.2     0.2    -0.0     0.1    -0.0    -0.0     0.1     0.1     0.2
     0.0    -0.1     0.2     0.2     0.0     0.1     0.0    -0.1     0.2     0.4
     0.2     0.3     0.3     0.0    -0.0     0.2     0.2     0.2     0.2    -0.1
    -0.1     0.0    -0.0     0.1     0.1     0.0     0.1     0.1    -0.0     0.1
     0.1     0.0     0.0    -0.0     0.1     0.1    -0.0     0.1     0.1     0.2
     0.3     0.1     0.1     0.1     0.1     0.3     0.3     0.1     0.0     0.1
     0.0    -0.0     0.0     0.2     0.3     0.0    -0.0     0.2     0.1     0.0
     0.2     0.2     0.2     0.2     0.1     0.1     0.2     0.2     0.2     0.1
     0.1     0.1    -0.0     0.1     0.2    -0.0     0.0     0.1     0.0     0.1
     0.0     0.1     0.3     0.1     0.0     0.0     0.1     0.0     0.0     0.2
     0.1     0.1     0.1     0.2     0.0    -0.0     0.3     0.1    -0.0    -0.0
    -0.1     0.1    -0.0     0.1     0.1     0.0     0.2    -0.0     0.2     0.4
     0.1     0.1     0.2     0.1     0.1     0.1     0.1    -0.0    -0.0     0.2
     0.1    -0.0     0.0     0.1    -0.2    -0.0     0.1     0.0     0.1     0.1
     0.1     0.1     0.1     0.1     0.1     0.2     0.1     0.2     0.1    -0.1
     0.1     0.0    -0.1     0.1     0.1     0.0     0.1     0.2     0.1     0.0
     0.2     0.1     0.1     0.1     0.1     0.1     0.1     0.1     0.1     0.1
     0.0     0.1     0.1     0.1     0.3     0.0    -0.1     0.1    -0.2    -0.0
     0.3     0.1     0.1     0.1    -0.1    -0.1    -0.1    -0.0    -0.0    -0.1
    -0.1    -0.1    -0.0     0.1     0.2     0.1    -0.1     0.1     0.1    -0.0
     0.1     0.1     0.2     0.2     0.1     0.1     0.0     0.1     0.1     0.1
    -0.0    -0.0     0.1     0.1    -0.0    -0.2     0.0     0.1     0.1     0.2
     0.2     0.2     0.0    -0.0     0.1     0.1     0.2     0.2     0.1     0.1
    -0.0     0.2     0.1    -0.0     0.1     0.0    -0.0     0.1     0.1     0.3
     0.4     0.1    -0.0     0.2     0.0     0.0     0.1     0.0     0.1     0.1
     0.1     0.1     0.1     0.3     0.2     0.1     0.2     0.1     0.2     0.3
     0.1     0.2     0.1    -0.0     0.2     0.0    -0.1     0.1     0.2     0.1
    -0.0     0.1     0.2     0.1     0.2     0.1    -0.0     0.0     0.1     0.1
     0.0     0.1    -0.1    -0.1     0.2     0.1     0.1     0.2     0.1     0.1
     0.1     0.3     0.2     0.2     0.2     0.1     0.2     0.1     0.2     0.2
     0.2     0.2     0.1     0.1     0.0    -0.0     0.1     0.1     0.2     0.1
     0.0     0.2    -0.0     0.2     0.2     0.0     0.1     0.1     0.2     0.1
     0.1     0.1     0.0     0.2     0.2     0.1     0.1     0.2     0.3     0.2
     0.1     0.2     0.2     0.0     0.0     0.0    -0.0     0.1     0.0    -0.0
     0.1     0.0     0.1     0.2     0.0     0.2     0.1     0.1     0.2     0.1
     0.1     0.1     0.2     0.2     0.2    -0.1    -0.1     0.2     0.1     0.2
     0.1    -0.0     0.1    -0.0     0.2     0.1    -0.1     0.1     0.1     0.2
     0.2     0.2     0.2     0.2     0.2    -0.0     0.1     0.0     0.2     0.2
    -0.1     0.2     0.2     0.2     0.2    -0.0     0.1     0.1     0.2     0.3
     0.1     0.2     0.1     0.0     0.2     0.1     0.2     0.2     0.0     0.1
     0.3     0.2     0.1     0.1     0.1     0.2     0.1     0.1     0.1     0.2
     0.1    -0.1     0.1     0.1     0.2     0.1     0.1     0.3     0.1     0.1
     0.0     0.1     0.2     0.1     0.2     0.2     0.1     0.2    -0.1     0.1
     0.1     0.0     0.2     0.1     0.2     0.2    -0.1     0.0     0.1    -0.0
     0.1     0.1     0.1     0.0     0.1     0.1     0.1     0.3     0.1     0.2
     0.2     0.0     0.0    -0.1     0.0     0.1     0.1     0.0    -0.0     0.3
     0.2     0.1     0.1    -0.1     0.1     0.1     0.1     0.2     0.1     0.0
     0.2     0.3     0.1     0.2     0.2     0.0     0.1     0.1     0.1     0.2
     0.2     0.2     0.1     0.2     0.2     0.1     0.1     0.1     0.0     0.2
     0.2     0.1    -0.1     0.1     0.3     0.1     0.1     0.1     0.0     0.1
     0.1     0.2     0.1     0.2     0.2     0.1     0.2     0.2     0.1     0.2
     0.3     0.2     0.1     0.0     0.0     0.1     0.2     0.1     0.2     0.2
     0.1     0.1     0.2     0.1     0.0     0.2     0.3     0.1     0.1     0.1
     0.2     0.1     0.1     0.2     0.3     0.2     0.2     0.2     0.3     0.4
     0.1     0.2     0.4     0.2     0.2     0.3     0.3     0.2     0.1     0.4
     0.1    -0.0     0.1     0.1     0.2     0.2     0.1     0.2     0.3     0.2
     0.4     0.4     0.1     0.2     0.3     0.2     0.1     0.2     0.4     0.3
     0.3     0.2     0.1     0.3     0.2     0.1     0.1     0.1     0.2     0.1
     0.2     0.2     0.1     0.3     0.2     0.1     0.1     0.2     0.2     0.1
     0.2     0.1     0.2     0.3     0.2     0.2     0.0     0.2     0.3    -0.0
     0.1     0.2     0.2    -0.0     0.0     0.2     0.1     0.0    -0.0     0.2
     0.2     0.2     0.3     0.0     0.1     0.2     0.1     0.2     0.3     0.2
     0.1     0.1     0.1     0.1     0.2     0.2     0.1     0.1     0.1     0.2
     0.1     0.0     0.1     0.0     0.1     0.2     0.1     0.1     0.3     0.3
     0.3     0.4     0.3     0.2     0.0    -0.1    -0.1     0.0     0.1     0.3
     0.3     0.2     0.0    -0.1     0.0     0.2    -0.1     0.2     0.2    -0.0
     0.0    -0.1    -0.0     0.1     0.1     0.1     0.1     0.1     0.1     0.1
     0.1     0.1     0.3     0.0    -0.1     0.1     0.1     0.2     0.2     0.1
     0.2     0.2     0.0     0.0     0.2     0.1    -0.0     0.1     0.2     0.2
     0.2     0.2     0.1     0.3     0.2     0.0     0.2     0.2     0.0     0.1
     0.3     0.2     0.1     0.2     0.2     0.3     0.1     0.1     0.3     0.1
     0.1     0.1    -0.0     0.2     0.1     0.1     0.1     0.0     0.2     0.1
     0.1     0.1     0.2     0.3     0.1     0.1     0.1     0.1     0.3     0.2
     0.1     0.1     0.3     0.4     0.1     0.1     0.0    -0.0     0.2     0.3
     0.1     0.1     0.1    -0.0    -0.0     0.1     0.2     0.2     0.3     0.2
     0.2     0.3     0.1     0.1     0.2     0.2     0.2     0.0     0.1     0.1
     0.0     0.2     0.2     0.2     0.2     0.4     0.3     0.2     0.2     0.2
     0.4     0.2     0.1     0.4     0.2     0.1     0.2     0.0     0.3     0.1
    -0.1     0.1     0.1     0.2     0.0     0.2     0.2    -0.0     0.0     0.0
     0.0     0.1     0.2     0.1    -0.0     0.2     0.2     0.1     0.1     0.1
     0.1     0.1     0.1    -0.0     0.1     0.2     0.1     0.1     0.3     0.3
     0.4     0.2     0.1     0.2     0.3     0.3     0.1     0.2     0.3     0.0
     0.1     0.2     0.3     0.1     0.1     0.3     0.2     0.2     0.3     0.1
     0.1     0.2     0.1     0.1     0.2     0.2     0.2     0.2     0.0     0.1
    -0.1     0.1     0.1     0.0     0.2     0.0     0.2     0.3     0.1     0.2
     0.3     0.4     0.4     0.2     0.0    -0.0     0.2     0.2     0.1     0.1
     0.1     0.1     0.2     0.1    -0.0     0.1     0.1     0.0     0.2     0.1
     0.2     0.0     0.1     0.2     0.1     0.1     0.1     0.1     0.1     0.3
     0.3    -0.0     0.1     0.2     0.1     0.1     0.1     0.2     0.2     0.1
     0.1     0.3     0.2     0.3     0.2     0.1     0.2     0.1     0.2     0.1
    -0.0     0.2     0.2     0.1     0.1     0.1     0.2     0.0     0.2     0.2
     0.1     0.1    -0.0     0.2     0.2     0.2     0.2     0.1     0.2     0.0
     0.0     0.1    -0.1     0.1     0.1     0.0     0.2     0.1     0.1     0.0
     0.0     0.3     0.1     0.1     0.0     0.1     0.1    -0.1     0.0    -0.1
     0.1     0.3     0.2     0.2     0.1     0.1     0.1     0.0     0.1     0.0
     0.1     0.0     0.1     0.1     0.0     0.0     0.0     0.1     0.1    -0.0
    -0.1     0.0     0.1     0.1     0.0    -0.1    -0.0    -0.1    -0.1     0.0
    -0.1    -0.1     0.1     0.2     0.1    -0.1    -0.0     0.0    -0.0     0.1
    -0.0     0.0     0.1    -0.1     0.1     0.1     0.1     0.0    -0.1     0.1
    -0.0     0.1     0.1     0.0     0.1    -0.0     0.2     0.2    -0.0     0.1
    -0.0    -0.0    -0.1    -0.2     0.1     0.0     0.1     0.2     0.2     0.1
     0.1     0.1     0.0     0.0     0.1     0.2     0.1     0.1     0.2     0.1
     0.1     0.2     0.0     0.1     0.1     0.2     0.2     0.2     0.0     0.0
     0.0    -0.0    -0.0     0.0     0.1     0.0     0.1     0.1     0.0     0.2
     0.1    -0.0     0.2     0.1     0.1     0.1     0.2     0.1     0.0     0.2
     0.2     0.2     0.2     0.2     0.1    -0.0     0.0    -0.1    -0.1    -0.0
     0.0    -0.1    -0.1     0.1    -0.0    -0.0     0.1    -0.0     0.1     0.0
    -0.1    -0.1     0.0     0.1    -0.1    -0.0    -0.1    -0.0     0.1    -0.0
    -0.1    -0.0     0.1     0.1    -0.1    -0.2    -0.2     0.0     0.0    -0.1
     0.1    -0.1    -0.2     0.0    -0.0     0.0     0.1    -0.0     0.0     0.0
     0.0     0.1     0.0    -0.0     0.0     0.1     0.0     0.1     0.1    -0.0
     0.1     0.1     0.1     0.2     0.1     0.0     0.1     0.2     0.1     0.1
     0.1     0.0     0.1     0.2     0.1     0.1     0.2     0.1     0.2     0.2
     0.1     0.1    -0.1     0.1     0.1     0.3     0.3    -0.1     0.1     0.4
     0.1     0.1     0.2     0.2     0.1    -0.1     0.1     0.2     0.1     0.2
     0.2     0.0     0.2     0.2     0.1     0.3     0.3     0.2     0.3     0.0
     0.1     0.1     0.0     0.1     0.1     0.1     0.1     0.1     0.2    -0.0
     0.0     0.1     0.1    -0.1    -0.1     0.2     0.1     0.2     0.1     0.1
     0.3    -0.0     0.1     0.3     0.2     0.2     0.0     0.1     0.1     0.0
     0.2     0.1     0.2     0.2     0.1     0.0    -0.1     0.1     0.1     0.1
     0.1     0.1     0.3     0.1     0.1     0.1    -0.0     0.2     0.0     0.2
     0.4    -0.0     0.2     0.2     0.0     0.2     0.1     0.2     0.1     0.0
     0.1     0.2     0.0     0.0     0.1     0.0     0.1     0.0     0.1     0.2
     0.0     0.1     0.2     0.3     0.2     0.1     0.4     0.4     0.2     0.1
     0.1     0.1     0.0     0.0    -0.0     0.1     0.1    -0.0     0.2     0.2
     0.1     0.2     0.3     0.1     0.3     0.3     0.1     0.2     0.1     0.1
     0.2     0.1     0.0     0.2     0.2     0.1     0.2     0.0     0.1     0.2
     0.0     0.1     0.2     0.2     0.2     0.1     0.1     0.2     0.1     0.1
     0.1     0.1     0.2     0.2     0.1     0.1     0.1     0.0     0.2     0.3
     0.2     0.2     0.2     0.1     0.0    -0.0     0.1     0.1     0.1     0.1
     0.3     0.2     0.3     0.2     0.1     0.2     0.1     0.0     0.2     0.1
     0.1     0.1    -0.0     0.1     0.2     0.2     0.3     0.3     0.3     0.2
     0.0     0.1     0.1     0.1     0.2     0.1     0.2     0.2     0.2     0.1
     0.1     0.3     0.4     0.2     0.3     0.2     0.1    -0.1    -0.0     0.1
     0.3     0.5     0.1     0.0     0.2     0.1     0.1     0.1     0.2     0.3
     0.0     0.0     0.1     0.1     0.3     0.2     0.2     0.3     0.1     0.1
     0.2     0.3     0.2     0.1     0.2     0.2     0.0     0.1     0.1     0.3
     0.2     0.2     0.2     0.1     0.3     0.2     0.1     0.1    -0.0     0.2
     0.1     0.2     0.2     0.2     0.1     0.1     0.5     0.3     0.1     0.4
     0.2     0.2     0.1     0.0     0.1     0.1     0.2    -0.0     0.0     0.1
     0.1     0.2     0.0     0.2     0.2     0.2     0.2     0.1     0.2     0.1
     0.1     0.1     0.0     0.2     0.0    -0.0     0.0     0.0     0.2     0.1
     0.2     0.2    -0.0     0.0     0.1     0.1    -0.0     0.1     0.2     0.2
     0.2    -0.0     0.0     0.1    -0.0    -0.0    -0.1    -0.1     0.0     0.1
     0.2    -0.0     0.0    -0.1    -0.1    -0.0    -0.2     0.1     0.2     0.2
     0.2    -0.1     0.1     0.1    -0.0     0.2     0.2     0.2     0.1    -0.0
     0.0     0.1     0.1     0.2     0.1     0.1     0.1     0.1    -0.0    -0.1
     0.1     0.1     0.3     0.2     0.1     0.2    -0.0     0.0     0.1     0.0
     0.2     0.1     0.2     0.2     0.0     0.1     0.1     0.2     0.3     0.2
     0.2     0.1     0.1     0.1     0.1     0.3     0.0     0.0     0.4     0.2
     0.0     0.2     0.2     0.2     0.1    -0.0     0.2     0.1    -0.0     0.3
     0.3     0.2     0.3    -0.0     0.0     0.2     0.1     0.2     0.3     0.2
