Uncorrected accelerogram 20161113_110256_POKS_20 GNS Science
Site POKS      41 07 30S  174 49 53E     Cusp file:  20161113_110333_POKS
Katoa Kindergarten
Instrument Cusp_42287
Resolution: 18-bit   Instr Period: 0.0050 s   Damping: 0.700
Accelerogram 20161113_110256_POKS_20                 Processed 2016 December 09
5 km south-west of Waiau
2016 November 13         11:02:56 UT
Epicentre  42 41 33S 173 01 19E  Bearing S40W  Dist  230km  Depth   15km Mw 7.82
Number of points  56294    Duration 281.47 s
Raw readings in units of 1.00 mm/s/s  at intervals of 0.005 s
Data is unfiltered
Component S45E
Acceleration:  Peak   1194.0 mm/s/s at 107.37 s     RMS    81.95 mm/s/s
Velocity record unevaluated
Displacement record unevaluated
    2016      11      13      11       2     560       0       0    2016      11
      42      41      33     173       1      19      15       0      13      11
      41       7      30     174      49      53     135     135     220     230
   56294       0       0   56294       0       0       0       0       2   53569
   200.0    0.70    0.00   0.000  0.0000   0.000   0.000   1.000     0.0    0.00
  41.125 174.832  42.693 173.022    7.82    0.00    0.00    0.00      0.      0.
  281.47    0.00    0.00  281.47  0.0050  0.0050      0.      0.      0.  9806.6
  1194.0  107.37    81.9      0.      0.     0.0    0.00     0.0     0.0   0.000
    0.00    0.00    0.00    0.00   0.000    0.00    0.00    0.00    0.00   0.000
   0.000   0.000   0.000      0.      0.   0.000   0.000   0.000      0.      0.
    -0.0    -0.2    -0.3    -0.2    -0.2    -0.0    -0.1    -0.2    -0.0    -0.2
    -0.1    -0.1    -0.3    -0.2    -0.0    -0.1    -0.2    -0.4    -0.1    -0.0
    -0.2    -0.0    -0.2    -0.2    -0.2    -0.1    -0.0    -0.2    -0.1     0.1
    -0.1    -0.1    -0.1    -0.1    -0.1    -0.1     0.0    -0.1    -0.1    -0.0
    -0.1    -0.1    -0.0    -0.2    -0.2    -0.3    -0.2    -0.1    -0.1     0.1
     0.1    -0.0    -0.0    -0.0    -0.1    -0.1    -0.2    -0.2    -0.0    -0.0
     0.0    -0.1    -0.2    -0.1    -0.1    -0.1    -0.0    -0.1    -0.2    -0.2
     0.0    -0.0    -0.2    -0.1    -0.2    -0.2    -0.1    -0.1    -0.2    -0.2
    -0.2    -0.3    -0.2    -0.2    -0.2    -0.1    -0.0    -0.1    -0.2    -0.2
    -0.2    -0.0     0.0    -0.2    -0.2    -0.2    -0.1    -0.1    -0.2    -0.3
    -0.1     0.1    -0.1    -0.3    -0.4    -0.2    -0.0     0.0     0.1    -0.1
    -0.0    -0.1    -0.3    -0.1    -0.2    -0.2    -0.3    -0.2     0.0    -0.2
    -0.2    -0.2    -0.2    -0.1    -0.1    -0.2    -0.2    -0.2     0.1    -0.2
    -0.4    -0.2    -0.2    -0.1    -0.2    -0.2    -0.1    -0.2    -0.1    -0.0
    -0.0     0.0    -0.2    -0.1    -0.1    -0.4    -0.2    -0.2    -0.1    -0.1
    -0.2    -0.1    -0.1    -0.1    -0.2    -0.1    -0.2    -0.5    -0.0    -0.1
    -0.3     0.0    -0.0    -0.1    -0.1    -0.3    -0.2    -0.3    -0.2    -0.2
    -0.3    -0.2    -0.2    -0.3    -0.2    -0.1    -0.1    -0.1    -0.3    -0.3
    -0.1    -0.1    -0.1    -0.1    -0.3    -0.3    -0.4    -0.2    -0.2    -0.2
    -0.2    -0.1     0.0    -0.1    -0.3    -0.1    -0.0    -0.2    -0.3    -0.0
     0.0    -0.1    -0.2    -0.3    -0.2    -0.3    -0.4    -0.2    -0.1    -0.3
    -0.1     0.0    -0.1    -0.2    -0.4    -0.2    -0.1    -0.2    -0.2    -0.2
    -0.1    -0.2    -0.2     0.0    -0.1    -0.1    -0.0    -0.2    -0.2    -0.0
    -0.0    -0.2    -0.3    -0.2    -0.1    -0.2    -0.1    -0.2    -0.2    -0.2
    -0.3    -0.2    -0.1    -0.2    -0.1    -0.3    -0.2    -0.1    -0.2    -0.1
    -0.1    -0.2    -0.0    -0.1    -0.2    -0.2    -0.2    -0.2    -0.2    -0.1
    -0.1    -0.3    -0.1    -0.2    -0.3    -0.1    -0.2    -0.3    -0.2    -0.3
    -0.1    -0.2    -0.2    -0.1    -0.3    -0.2    -0.1    -0.2    -0.1    -0.2
    -0.3    -0.2    -0.2    -0.1    -0.2    -0.1    -0.0    -0.2    -0.2    -0.0
     0.1    -0.2    -0.2    -0.0    -0.1    -0.1    -0.1    -0.1    -0.2    -0.2
    -0.2    -0.2    -0.1    -0.1    -0.2    -0.1    -0.1    -0.1    -0.1    -0.3
    -0.3    -0.2    -0.2    -0.1    -0.2    -0.3    -0.2    -0.0     0.0    -0.1
    -0.1    -0.0     0.0    -0.2    -0.3    -0.1    -0.1    -0.1     0.1    -0.1
    -0.2    -0.2    -0.2    -0.3    -0.2    -0.1    -0.3    -0.3    -0.4    -0.3
    -0.1    -0.2    -0.3    -0.2    -0.2    -0.3    -0.3    -0.2    -0.1    -0.2
    -0.2    -0.3    -0.3    -0.3    -0.2    -0.0    -0.1    -0.3    -0.2    -0.2
    -0.1    -0.2    -0.1    -0.0    -0.3    -0.2    -0.3    -0.3     0.0    -0.1
    -0.2    -0.2    -0.1    -0.1    -0.3    -0.2    -0.1    -0.2    -0.2    -0.3
    -0.2    -0.2    -0.2    -0.1    -0.1    -0.1    -0.0    -0.2    -0.3    -0.2
    -0.1    -0.1    -0.1    -0.1    -0.1    -0.2    -0.2    -0.1    -0.1    -0.1
    -0.1    -0.3    -0.2    -0.2    -0.3    -0.2    -0.2    -0.3    -0.1    -0.0
    -0.2    -0.2    -0.3    -0.2    -0.0    -0.3    -0.2    -0.0    -0.2    -0.2
    -0.2    -0.1    -0.2    -0.2    -0.1    -0.1    -0.1    -0.1    -0.1    -0.3
    -0.2    -0.0    -0.1    -0.2    -0.3    -0.2     0.1    -0.2    -0.4    -0.1
    -0.1    -0.2    -0.1    -0.2    -0.1    -0.1    -0.1    -0.1    -0.1    -0.2
    -0.1    -0.1    -0.2    -0.2    -0.1    -0.1    -0.2    -0.2    -0.2    -0.3
    -0.3    -0.3    -0.1    -0.3    -0.3    -0.2    -0.3    -0.1    -0.2    -0.2
    -0.2    -0.2    -0.0    -0.2    -0.2    -0.1    -0.2    -0.1    -0.2    -0.0
    -0.0    -0.2    -0.2    -0.3    -0.2    -0.2    -0.1     0.1    -0.2    -0.2
    -0.1    -0.1     0.0    -0.1    -0.1    -0.1    -0.2    -0.1    -0.1    -0.1
    -0.2    -0.2    -0.1    -0.2    -0.2    -0.2    -0.3    -0.2    -0.1    -0.1
    -0.1    -0.1    -0.1    -0.2    -0.2    -0.1    -0.2    -0.3    -0.3    -0.2
    -0.0    -0.0    -0.1    -0.1    -0.3    -0.2    -0.1    -0.2    -0.1    -0.0
    -0.2    -0.1    -0.1    -0.1    -0.0    -0.1    -0.1    -0.0    -0.1    -0.0
    -0.1    -0.2    -0.1    -0.2    -0.2    -0.2    -0.2    -0.1     0.1    -0.1
    -0.2    -0.1    -0.2    -0.2    -0.0    -0.2    -0.3    -0.2    -0.1    -0.3
    -0.1    -0.1    -0.2    -0.0    -0.2    -0.3     0.1     0.0    -0.0    -0.2
    -0.2    -0.0    -0.2    -0.2    -0.2    -0.2    -0.1    -0.1    -0.2    -0.2
    -0.3    -0.2    -0.1    -0.3    -0.2    -0.1    -0.3    -0.2    -0.1    -0.1
    -0.1    -0.2    -0.0    -0.2    -0.3    -0.0     0.1    -0.0    -0.2    -0.2
    -0.1    -0.1    -0.0    -0.1    -0.2    -0.4    -0.3    -0.2    -0.2    -0.2
    -0.2    -0.2    -0.1    -0.2    -0.2    -0.1    -0.3    -0.4    -0.1     0.0
    -0.3    -0.2    -0.1    -0.1    -0.1    -0.2    -0.2    -0.3    -0.2    -0.1
    -0.4    -0.4    -0.3    -0.3    -0.3    -0.2    -0.2    -0.3    -0.2    -0.2
    -0.3    -0.3    -0.3    -0.2     0.0    -0.1    -0.2    -0.3    -0.3    -0.1
    -0.2    -0.3    -0.1    -0.2    -0.3    -0.3    -0.2    -0.3    -0.4    -0.1
    -0.0    -0.1    -0.2    -0.2    -0.1    -0.2    -0.1     0.0    -0.2    -0.3
    -0.2    -0.1    -0.1    -0.2    -0.3    -0.2    -0.2    -0.3    -0.3    -0.4
    -0.4    -0.2    -0.3    -0.2    -0.1    -0.2    -0.4    -0.1    -0.1    -0.5
    -0.2    -0.2    -0.2     0.0    -0.2    -0.2     0.1    -0.1    -0.2    -0.1
    -0.3    -0.2    -0.2    -0.3    -0.1    -0.0    -0.1    -0.1    -0.1    -0.2
    -0.2    -0.2    -0.3    -0.4    -0.3    -0.3    -0.4    -0.3    -0.3    -0.3
    -0.1    -0.1    -0.3    -0.2    -0.2    -0.2    -0.3    -0.4    -0.2    -0.2
    -0.4    -0.3    -0.1    -0.1    -0.2    -0.2    -0.2    -0.2    -0.3    -0.4
    -0.3    -0.2    -0.2    -0.1    -0.2    -0.3    -0.1    -0.1    -0.1    -0.0
    -0.2    -0.2    -0.2    -0.2    -0.2    -0.3    -0.1    -0.1    -0.3    -0.3
    -0.3    -0.2    -0.1    -0.2     0.0    -0.2    -0.3     0.0    -0.2    -0.3
    -0.3    -0.1     0.1    -0.1    -0.1    -0.1    -0.1     0.0    -0.1    -0.0
     0.0    -0.1    -0.0    -0.1    -0.2    -0.2    -0.2    -0.2    -0.2    -0.2
    -0.3    -0.2    -0.2    -0.2    -0.2    -0.2    -0.1    -0.1    -0.2    -0.1
    -0.0    -0.0    -0.1    -0.3    -0.1    -0.1    -0.2    -0.2    -0.2    -0.2
    -0.2    -0.1    -0.0    -0.3    -0.3    -0.2    -0.2     0.1    -0.0    -0.2
    -0.2    -0.2    -0.1    -0.1    -0.2    -0.2    -0.2    -0.1    -0.2    -0.1
    -0.1    -0.1    -0.2    -0.2    -0.1    -0.1    -0.1    -0.0    -0.2    -0.1
     0.0    -0.1    -0.1    -0.1    -0.3    -0.3    -0.2    -0.2    -0.2    -0.2
    -0.1    -0.1    -0.2    -0.2    -0.2    -0.2    -0.1    -0.0    -0.1    -0.2
    -0.1    -0.3    -0.2    -0.1    -0.2    -0.2    -0.1    -0.2    -0.3    -0.2
    -0.1    -0.2    -0.3    -0.1    -0.2    -0.3    -0.1     0.1    -0.1    -0.2
    -0.2    -0.2    -0.3    -0.3    -0.4    -0.2    -0.2    -0.2    -0.0    -0.1
    -0.3    -0.4    -0.3    -0.1    -0.2    -0.3    -0.2    -0.0    -0.2    -0.3
    -0.2    -0.1    -0.1    -0.2    -0.1    -0.2    -0.3    -0.1    -0.2    -0.3
    -0.2    -0.1    -0.1    -0.3    -0.3    -0.1     0.0    -0.0    -0.1    -0.0
    -0.1    -0.1    -0.2    -0.2    -0.2    -0.2    -0.0    -0.0    -0.0    -0.1
    -0.2    -0.2    -0.2    -0.1    -0.1    -0.2    -0.1    -0.0    -0.1    -0.4
    -0.3    -0.2    -0.1    -0.1    -0.1    -0.1    -0.2    -0.0    -0.0    -0.2
    -0.0    -0.1    -0.2    -0.2    -0.1    -0.1    -0.1    -0.1    -0.2    -0.2
    -0.1    -0.1     0.1    -0.1    -0.3    -0.1    -0.2    -0.2    -0.1    -0.1
    -0.3    -0.2     0.0    -0.2    -0.3     0.0     0.0    -0.2    -0.2    -0.1
    -0.1    -0.2    -0.1    -0.2    -0.3    -0.2    -0.2    -0.1    -0.0    -0.2
    -0.1    -0.0    -0.2    -0.2     0.0     0.0    -0.1    -0.1    -0.3    -0.3
    -0.1    -0.1    -0.1    -0.1    -0.1    -0.1    -0.2    -0.1    -0.1    -0.0
    -0.0    -0.1    -0.1    -0.1    -0.1    -0.3    -0.2    -0.1    -0.1    -0.0
    -0.2    -0.1    -0.1    -0.2     0.0    -0.0    -0.2    -0.3    -0.2    -0.1
    -0.0    -0.1    -0.1    -0.1    -0.1     0.0    -0.0    -0.2    -0.3    -0.2
    -0.1    -0.2    -0.1    -0.2    -0.1    -0.0    -0.1    -0.0    -0.1    -0.2
    -0.1    -0.2    -0.2    -0.2    -0.1    -0.0    -0.1    -0.0     0.0    -0.1
    -0.1     0.0    -0.2    -0.2    -0.1    -0.1    -0.1    -0.1    -0.2    -0.2
    -0.1    -0.1    -0.1     0.1    -0.2    -0.2    -0.1    -0.3    -0.3    -0.1
    -0.0    -0.4    -0.3    -0.1    -0.0    -0.1    -0.2    -0.0    -0.0    -0.0
    -0.1    -0.2    -0.1    -0.2    -0.2    -0.1    -0.1    -0.0    -0.1     0.0
    -0.1    -0.2    -0.1    -0.2    -0.0    -0.1    -0.2    -0.2    -0.0     0.0
    -0.2    -0.1    -0.2    -0.2    -0.1    -0.2    -0.2    -0.1    -0.2    -0.1
    -0.1    -0.1    -0.2    -0.2    -0.1    -0.1    -0.1    -0.0    -0.0    -0.1
    -0.2    -0.1    -0.1    -0.1    -0.2    -0.3    -0.3    -0.1    -0.2    -0.2
    -0.1    -0.1    -0.2    -0.3    -0.2    -0.2    -0.1    -0.0    -0.2    -0.2
    -0.2    -0.2    -0.2    -0.3    -0.1    -0.2    -0.3    -0.2    -0.3    -0.1
    -0.1    -0.3     0.0     0.0    -0.3    -0.2    -0.1    -0.1    -0.2    -0.4
    -0.4    -0.2    -0.2    -0.2    -0.1    -0.1    -0.0    -0.2    -0.2    -0.3
    -0.3    -0.1    -0.4    -0.3    -0.0    -0.1    -0.0    -0.1    -0.2    -0.1
    -0.3    -0.1     0.0    -0.1    -0.1    -0.0    -0.0     0.1     0.1    -0.0
    -0.1    -0.1    -0.1    -0.0    -0.0    -0.2    -0.1    -0.1    -0.2    -0.1
    -0.1    -0.1    -0.2    -0.0    -0.2    -0.2    -0.0    -0.0    -0.2    -0.2
    -0.1    -0.2    -0.2    -0.1    -0.0    -0.1    -0.2    -0.0    -0.1    -0.2
    -0.2    -0.2    -0.1    -0.3    -0.2     0.0    -0.2    -0.3    -0.1    -0.1
    -0.3    -0.1     0.2    -0.1    -0.2     0.0    -0.1    -0.4    -0.2     0.0
    -0.1    -0.1     0.0    -0.2    -0.1    -0.0    -0.2    -0.1    -0.1    -0.2
    -0.1    -0.2    -0.3    -0.3    -0.1    -0.1    -0.3    -0.2     0.0    -0.2
    -0.2    -0.1    -0.2    -0.2    -0.2    -0.1    -0.1    -0.2    -0.2    -0.1
    -0.2    -0.2    -0.1     0.1    -0.1    -0.2     0.1    -0.1    -0.2    -0.0
    -0.2    -0.2    -0.1    -0.2    -0.1     0.0    -0.3    -0.1     0.1    -0.2
    -0.1    -0.0    -0.3    -0.2    -0.1    -0.1    -0.1    -0.2    -0.1     0.1
    -0.2    -0.1     0.1    -0.1    -0.1    -0.1    -0.1    -0.2    -0.1     0.0
    -0.2    -0.2    -0.1    -0.2    -0.1    -0.2    -0.2    -0.2    -0.3    -0.1
     0.1    -0.1    -0.2    -0.1    -0.1    -0.3    -0.2    -0.1    -0.1    -0.2
    -0.3    -0.1    -0.0    -0.2    -0.1    -0.2    -0.1    -0.1    -0.3    -0.2
    -0.1    -0.1    -0.1    -0.1    -0.2    -0.2    -0.0    -0.1    -0.1    -0.0
    -0.3    -0.2    -0.1    -0.2    -0.2    -0.2    -0.1    -0.1    -0.3    -0.1
    -0.1    -0.2     0.1    -0.1    -0.3    -0.1     0.0    -0.0    -0.3    -0.2
    -0.1    -0.1     0.0    -0.2    -0.1    -0.1    -0.2     0.0    -0.0    -0.2
    -0.2    -0.1    -0.1    -0.1    -0.0    -0.1    -0.1    -0.0    -0.1    -0.1
    -0.3    -0.3    -0.2    -0.1    -0.2    -0.2    -0.1     0.0    -0.0    -0.3
    -0.2    -0.2    -0.2    -0.1    -0.2    -0.1    -0.3    -0.2    -0.1    -0.2
    -0.1    -0.2    -0.3    -0.3    -0.3    -0.2    -0.0    -0.1    -0.2    -0.3
    -0.2    -0.0    -0.2    -0.2    -0.1    -0.3    -0.3    -0.0    -0.3    -0.4
     0.0    -0.0    -0.1    -0.1    -0.1    -0.1    -0.1    -0.2    -0.3    -0.3
    -0.2    -0.1    -0.1    -0.2    -0.2    -0.2    -0.2    -0.1    -0.2     0.0
     0.0    -0.1    -0.0     0.1    -0.1    -0.2    -0.1     0.0    -0.1    -0.2
    -0.2    -0.2    -0.2    -0.1    -0.1    -0.1    -0.1    -0.3    -0.1    -0.0
    -0.2     0.0    -0.1    -0.2     0.1    -0.1    -0.1    -0.1    -0.2    -0.0
    -0.2    -0.2    -0.0    -0.2    -0.3    -0.1    -0.2    -0.1     0.0    -0.1
    -0.1    -0.0    -0.2    -0.2    -0.2    -0.2    -0.2    -0.2    -0.1    -0.1
    -0.1    -0.2    -0.2    -0.1    -0.2    -0.2    -0.2    -0.2     0.0    -0.1
    -0.2    -0.1    -0.2    -0.2    -0.2    -0.1    -0.1    -0.2    -0.1    -0.1
    -0.2    -0.3    -0.3    -0.1    -0.1    -0.1    -0.2    -0.1     0.0    -0.1
    -0.2    -0.0    -0.1    -0.1    -0.2    -0.2    -0.3    -0.3    -0.3    -0.3
    -0.1    -0.1    -0.2    -0.1    -0.2    -0.1    -0.2    -0.3    -0.1    -0.2
    -0.3    -0.1    -0.1    -0.2    -0.4    -0.3    -0.2    -0.2    -0.1    -0.1
    -0.0    -0.1    -0.3    -0.3    -0.3    -0.2    -0.2    -0.3    -0.2    -0.2
    -0.2    -0.2    -0.1    -0.1    -0.2    -0.0    -0.1    -0.3    -0.1    -0.1
    -0.2    -0.2    -0.2    -0.3    -0.2    -0.1    -0.2    -0.3    -0.1    -0.1
    -0.2    -0.1    -0.2    -0.3    -0.0    -0.1    -0.2    -0.1    -0.1    -0.1
    -0.1    -0.2    -0.3    -0.2    -0.2    -0.2    -0.2    -0.4    -0.2    -0.1
    -0.1    -0.1    -0.1    -0.1    -0.1    -0.2    -0.2    -0.3    -0.2    -0.1
    -0.2    -0.1     0.1    -0.1    -0.2    -0.2    -0.2    -0.2    -0.0     0.1
    -0.3    -0.3    -0.1    -0.2    -0.2    -0.1    -0.1    -0.0    -0.1    -0.2
     0.0    -0.1    -0.1    -0.2    -0.1     0.0    -0.2    -0.1    -0.0    -0.1
    -0.2    -0.1    -0.0    -0.3    -0.3    -0.2    -0.3    -0.3    -0.3    -0.3
    -0.2    -0.1    -0.2    -0.1    -0.1    -0.2    -0.3    -0.1    -0.0    -0.3
    -0.3    -0.2    -0.3    -0.2    -0.2    -0.2    -0.2    -0.1    -0.1    -0.2
    -0.1    -0.0    -0.1    -0.2    -0.1     0.1    -0.0    -0.1    -0.1    -0.1
    -0.2    -0.1     0.1    -0.1    -0.2    -0.2    -0.3    -0.2    -0.0    -0.0
    -0.1    -0.1    -0.1    -0.1    -0.2    -0.1    -0.0    -0.1    -0.1    -0.1
    -0.1    -0.1    -0.3    -0.3    -0.2    -0.3    -0.2    -0.1    -0.2    -0.1
    -0.2    -0.4    -0.2     0.1    -0.1    -0.2    -0.1    -0.1    -0.0    -0.1
     0.0    -0.1    -0.2    -0.0    -0.1    -0.1    -0.1    -0.1    -0.1    -0.2
     0.0    -0.1    -0.2    -0.1    -0.1     0.0    -0.2    -0.3    -0.1    -0.2
    -0.1    -0.1     0.0    -0.1    -0.2     0.0    -0.1    -0.1    -0.1    -0.1
     0.1    -0.0    -0.1    -0.1    -0.2    -0.2    -0.2    -0.1    -0.1    -0.2
    -0.2    -0.2    -0.3    -0.3    -0.2    -0.2    -0.2    -0.3    -0.3    -0.1
    -0.1    -0.2    -0.1    -0.2    -0.0    -0.1    -0.2    -0.1    -0.2    -0.0
     0.0    -0.2    -0.1    -0.1    -0.1    -0.0    -0.2    -0.1    -0.1    -0.3
    -0.2    -0.1    -0.2    -0.2    -0.1    -0.1    -0.2    -0.2    -0.3    -0.3
    -0.3    -0.2    -0.1    -0.1    -0.1    -0.1    -0.1    -0.2    -0.1    -0.4
    -0.4    -0.0    -0.1    -0.2     0.1    -0.2    -0.3    -0.2    -0.2    -0.0
    -0.1    -0.3    -0.3    -0.1     0.0    -0.3    -0.3    -0.1    -0.1    -0.1
     0.0    -0.0    -0.0    -0.1    -0.2    -0.2    -0.1    -0.1    -0.1    -0.1
    -0.1    -0.1    -0.2    -0.2    -0.2    -0.2    -0.4    -0.1    -0.0    -0.3
    -0.1    -0.1    -0.1     0.0    -0.0    -0.1    -0.2    -0.1    -0.0    -0.1
    -0.1     0.0    -0.1    -0.2    -0.2    -0.2    -0.2    -0.1    -0.1    -0.1
    -0.1    -0.1    -0.2    -0.1    -0.1    -0.2    -0.2    -0.3    -0.1    -0.3
    -0.3    -0.0    -0.1    -0.0    -0.2    -0.2    -0.1    -0.4    -0.2    -0.1
    -0.2    -0.0    -0.1    -0.1    -0.1    -0.3    -0.2    -0.1    -0.1    -0.2
    -0.3    -0.2    -0.1    -0.0    -0.1    -0.1    -0.1    -0.2    -0.1    -0.1
    -0.0    -0.2    -0.2     0.0    -0.2    -0.2    -0.1    -0.0     0.2     0.0
    -0.0    -0.1    -0.2    -0.0    -0.3    -0.3    -0.1    -0.1    -0.0    -0.0
    -0.2    -0.2    -0.2    -0.2    -0.2    -0.4    -0.2    -0.2    -0.2    -0.1
    -0.1    -0.3    -0.2    -0.2    -0.3    -0.3    -0.2    -0.2    -0.2    -0.2
    -0.2    -0.3    -0.1    -0.0    -0.2    -0.1    -0.2    -0.2    -0.2    -0.3
    -0.2    -0.2    -0.2    -0.2    -0.2    -0.2    -0.3    -0.2    -0.1    -0.2
    -0.2    -0.2    -0.2    -0.1    -0.2    -0.3    -0.2    -0.2    -0.2    -0.3
    -0.3    -0.1    -0.3    -0.3    -0.1    -0.3    -0.0    -0.1    -0.3    -0.2
    -0.3    -0.0    -0.0    -0.1     0.1    -0.0    -0.0    -0.0    -0.1    -0.2
    -0.1    -0.2    -0.4    -0.2    -0.3    -0.2     0.0    -0.3    -0.2    -0.0
    -0.1    -0.2    -0.2    -0.1    -0.0    -0.1     0.0    -0.0    -0.3    -0.3
    -0.1    -0.1    -0.2    -0.1    -0.1    -0.1    -0.1    -0.2    -0.0    -0.1
    -0.3    -0.3    -0.2    -0.0    -0.2    -0.2    -0.1    -0.2    -0.2    -0.3
    -0.1     0.0    -0.2    -0.1    -0.1    -0.0    -0.1    -0.1     0.0    -0.2
    -0.2    -0.2    -0.1    -0.0    -0.3    -0.2    -0.0    -0.1    -0.2    -0.1
    -0.1    -0.1    -0.0    -0.0    -0.2    -0.2    -0.1    -0.0    -0.1    -0.3
    -0.1    -0.2    -0.2    -0.1    -0.1    -0.1    -0.1    -0.3    -0.3    -0.1
    -0.0    -0.2    -0.2    -0.2    -0.2    -0.2    -0.1    -0.1    -0.2    -0.1
    -0.2    -0.1     0.0    -0.2    -0.2    -0.3    -0.2     0.0    -0.2    -0.2
    -0.1    -0.1    -0.1     0.0     0.0    -0.3    -0.2    -0.1    -0.2    -0.1
    -0.1    -0.0    -0.1    -0.2    -0.1    -0.0    -0.1    -0.0    -0.0    -0.0
    -0.1    -0.2    -0.0     0.1    -0.1    -0.2    -0.2    -0.3    -0.1    -0.0
    -0.2    -0.1    -0.2    -0.2    -0.2    -0.3     0.1     0.1    -0.0    -0.1
    -0.2    -0.1    -0.0    -0.0    -0.1    -0.3    -0.2    -0.1    -0.2    -0.2
    -0.1    -0.1    -0.2    -0.2    -0.1    -0.1    -0.3    -0.2    -0.1    -0.1
    -0.1    -0.0    -0.1    -0.2    -0.2    -0.1    -0.1    -0.2    -0.0    -0.1
    -0.1     0.0    -0.2    -0.4    -0.2     0.1    -0.1    -0.2     0.0     0.0
    -0.0     0.0    -0.1    -0.1    -0.1    -0.4    -0.3    -0.1    -0.1    -0.0
    -0.0    -0.1    -0.2    -0.1    -0.3    -0.3    -0.0    -0.1    -0.2    -0.2
    -0.1    -0.1    -0.1    -0.1    -0.1    -0.1    -0.1    -0.1    -0.1    -0.0
     0.0     0.0    -0.2    -0.2    -0.1    -0.1     0.0     0.0    -0.2    -0.1
    -0.0    -0.0    -0.1     0.1     0.2    -0.0    -0.1    -0.1    -0.1    -0.0
    -0.1    -0.3    -0.1    -0.1    -0.2    -0.1    -0.1    -0.1    -0.2    -0.1
    -0.1    -0.2    -0.2    -0.2    -0.1     0.1    -0.2    -0.2    -0.1    -0.2
