Uncorrected accelerogram 20161113_110256_GVZ_20 GNS Science
Site GVZ       42 58 03S  173 02 05E     Basalt file:  20161113_110304_GVZ
Greta Valley
Instrument Basalt_1278
Resolution: 24-bit   Instr Period: 0.0050 s   Damping: 0.700
Accelerogram 20161113_110256_GVZ_20                  Processed 2016 December 09
5 km south-west of Waiau
2016 November 13         11:02:56 UT
Epicentre  42 41 33S 173 01 19E  Bearing N02W  Dist   31km  Depth   15km Mw 7.82
Number of points  65536    Duration 327.68 s
Raw readings in units of 1.00 mm/s/s  at intervals of 0.005 s
Data is unfiltered
Component S90E
Acceleration:  Peak   1429.3 mm/s/s at  55.33 s     RMS   122.37 mm/s/s
Velocity record unevaluated
Displacement record unevaluated
    2016      11      13      11       2     560       0       0    2016      11
      42      41      33     173       1      19      15       0      13      11
      42      58       3     173       2       5      90      90     358      31
   65536       0       0   65536       0       0       0       0       2   24000
   200.0    0.70    0.00   0.000  0.0000   0.000   0.000   1.000     0.0    0.00
  42.967 173.035  42.693 173.022    7.82    0.00    0.00    0.00      0.      0.
  327.68    0.00    0.00  327.68  0.0050  0.0050      0.      0.      0.  9806.6
  1429.3   55.33   122.4      0.      0.     0.0    0.00     0.0     0.0   0.000
    0.00    0.00    0.00    0.00   0.000    0.00    0.00    0.00    0.00   0.000
   0.000   0.000   0.000      0.      0.   0.000   0.000   0.000      0.      0.
     0.0     0.0     0.0     0.0     0.0     0.0     0.1     0.0     0.0     0.1
     0.0     0.0     0.0     0.0     0.1     0.0     0.0    -0.0     0.0     0.0
     0.0     0.1     0.0     0.1     0.0     0.0    -0.0     0.0     0.0     0.0
     0.1     0.0     0.0     0.0    -0.0     0.0     0.0     0.0     0.0     0.0
     0.0    -0.0     0.0     0.0     0.0     0.0     0.0     0.0     0.0    -0.0
     0.0    -0.0     0.0     0.1     0.0     0.1     0.0     0.0     0.0     0.0
     0.1     0.0     0.0     0.0     0.0     0.0     0.0     0.0     0.1     0.0
     0.0     0.0     0.0    -0.0     0.0     0.1     0.0     0.1     0.0     0.0
     0.0     0.0     0.1     0.0     0.1     0.1     0.0     0.1    -0.0    -0.0
     0.1     0.0     0.1     0.0     0.0     0.0     0.0    -0.0     0.0     0.0
     0.0     0.0     0.0     0.0     0.0     0.0     0.0     0.1     0.1     0.0
     0.0     0.1     0.0     0.0     0.0     0.1     0.0     0.0    -0.0     0.1
     0.0    -0.0     0.1     0.0     0.0     0.0     0.0     0.0    -0.0     0.1
     0.0     0.1     0.1     0.0     0.0     0.0     0.0     0.0     0.1     0.0
     0.0     0.0    -0.0     0.0    -0.0     0.0     0.0     0.1     0.1     0.0
     0.0    -0.0     0.0     0.1     0.0     0.0     0.0     0.1     0.0    -0.0
     0.0     0.0     0.1     0.0    -0.0     0.0     0.0     0.0     0.1     0.1
     0.0     0.0     0.0     0.0     0.0    -0.0     0.0     0.1     0.0     0.0
     0.0     0.0     0.0     0.0     0.0     0.0     0.1     0.0     0.0     0.0
     0.0    -0.0     0.0     0.1     0.0     0.1     0.0     0.0     0.0     0.0
     0.0     0.0     0.1     0.0     0.0     0.0     0.0     0.0     0.0     0.1
     0.0     0.0     0.0    -0.0     0.0     0.0     0.0     0.0     0.0     0.0
     0.0    -0.0     0.0     0.0     0.0     0.0     0.0     0.0     0.0    -0.0
     0.0     0.0     0.1     0.1     0.0     0.0     0.0    -0.0     0.0    -0.0
     0.1     0.0     0.0     0.1    -0.0     0.0     0.0     0.0     0.1     0.1
     0.0     0.0     0.0     0.0     0.0     0.0     0.0     0.1     0.1    -0.0
    -0.0     0.0     0.1     0.1     0.0     0.0     0.0     0.0    -0.0    -0.0
     0.1     0.1     0.0     0.1    -0.0     0.0     0.0    -0.0     0.1     0.1
     0.0     0.0     0.0     0.0    -0.0     0.0     0.0     0.1     0.0     0.0
     0.1    -0.0     0.0     0.0     0.0     0.1     0.1     0.0     0.1     0.0
    -0.0     0.1     0.0     0.0     0.0     0.0     0.0     0.0    -0.0     0.0
     0.1     0.1     0.1     0.0     0.0     0.0     0.0     0.0     0.0     0.1
     0.0     0.0     0.0    -0.0    -0.0     0.1     0.0     0.0     0.1    -0.0
    -0.0     0.1    -0.0     0.0     0.1     0.0     0.0     0.1    -0.0     0.0
     0.0     0.0     0.1     0.0     0.0     0.1     0.0    -0.0     0.0     0.1
     0.1     0.1     0.0    -0.1     0.0     0.0     0.1     0.0     0.0     0.1
     0.0     0.0     0.0     0.0     0.0     0.0     0.0     0.0     0.1     0.0
    -0.0     0.0     0.0     0.0     0.0     0.1     0.0    -0.0    -0.0     0.0
     0.0     0.0     0.0     0.0     0.0     0.0    -0.0     0.0     0.1     0.0
     0.1     0.0     0.0     0.0    -0.0     0.1     0.0     0.0     0.1     0.0
     0.0    -0.0     0.0     0.1     0.0     0.1     0.0     0.0     0.1    -0.0
     0.0     0.0     0.0     0.1     0.0     0.0     0.0     0.0     0.0     0.1
     0.0     0.1     0.1     0.0     0.0     0.0     0.0     0.1     0.1     0.1
     0.0     0.0    -0.0     0.0     0.0     0.0     0.1     0.1     0.1     0.0
     0.0     0.0     0.0     0.1     0.1     0.0     0.0     0.0    -0.0     0.0
     0.0     0.1     0.0     0.0     0.0    -0.0     0.1    -0.0     0.0     0.1
    -0.0     0.0     0.0     0.0     0.0    -0.0     0.0     0.1     0.0     0.0
     0.0    -0.0     0.0     0.0     0.0     0.1     0.0     0.0     0.0     0.0
     0.0    -0.0     0.0     0.0     0.1     0.0     0.0     0.0    -0.0     0.1
     0.0     0.0     0.0    -0.0     0.0    -0.0     0.0     0.1     0.0     0.1
     0.0     0.1     0.0    -0.0     0.0     0.0     0.1     0.0     0.0     0.0
    -0.0     0.0     0.0     0.1     0.1     0.1     0.0     0.0     0.0    -0.0
     0.0     0.1     0.0     0.1     0.0     0.0     0.0     0.0     0.0     0.1
     0.1     0.0     0.0     0.0     0.0     0.0     0.0     0.1     0.1     0.1
     0.0     0.0     0.0     0.0     0.0     0.0     0.1     0.1     0.0     0.0
    -0.0     0.0     0.1     0.0     0.1     0.1     0.0     0.0    -0.0     0.0
     0.1     0.0     0.0     0.0     0.0     0.0     0.0     0.0     0.0     0.1
     0.1     0.1     0.0    -0.0     0.0     0.0     0.1     0.1     0.0     0.1
     0.0     0.0     0.0     0.0     0.1     0.0     0.0     0.1     0.0     0.0
     0.0    -0.0     0.1     0.0     0.0     0.0     0.0     0.0    -0.0     0.1
     0.1     0.0     0.1     0.0     0.0     0.0    -0.0     0.1     0.1     0.1
     0.0     0.0     0.1     0.0     0.0     0.0     0.1     0.1     0.0     0.1
    -0.0     0.0     0.0    -0.0     0.1     0.1     0.0     0.0     0.1    -0.0
     0.0     0.0     0.1     0.0     0.0     0.0     0.0     0.0     0.0     0.1
     0.1     0.0     0.0     0.0     0.0    -0.0    -0.0     0.1     0.0     0.0
     0.0     0.0     0.0     0.0     0.0     0.0     0.1     0.0     0.0     0.0
    -0.0     0.0     0.0     0.0     0.0    -0.0     0.1     0.0     0.0     0.0
     0.0     0.1     0.0     0.0     0.0     0.0    -0.0     0.0     0.0     0.0
     0.0     0.0     0.0    -0.0     0.0     0.0     0.0     0.1     0.0     0.0
     0.0    -0.0     0.0     0.0     0.1     0.0     0.0     0.0     0.0     0.0
    -0.0     0.1     0.0     0.0     0.0    -0.0    -0.0     0.0     0.0     0.0
     0.0     0.1     0.0     0.0    -0.0     0.0     0.0     0.0     0.1     0.0
     0.0    -0.0    -0.0     0.0     0.0     0.0     0.0     0.1     0.0     0.0
    -0.0    -0.0     0.1     0.0     0.1     0.0    -0.0     0.0    -0.0     0.0
     0.0     0.0     0.1     0.0     0.0     0.0    -0.0     0.0     0.0     0.1
     0.0     0.0     0.0    -0.0     0.0    -0.0     0.0     0.1     0.0     0.0
     0.0    -0.0     0.0     0.0     0.0     0.1     0.0    -0.0     0.0     0.0
    -0.0     0.1     0.1     0.0     0.0    -0.0     0.0    -0.0    -0.0     0.1
     0.0     0.0     0.0     0.0     0.0    -0.0     0.0     0.1     0.1     0.0
     0.0     0.0    -0.0     0.0     0.0     0.1     0.0     0.0     0.1    -0.0
     0.0    -0.0     0.0     0.1     0.1     0.0    -0.0     0.0    -0.0     0.0
     0.0     0.0     0.1     0.1     0.0    -0.0     0.0     0.0     0.0     0.1
     0.0     0.0     0.0     0.1     0.0    -0.0     0.0     0.0     0.1    -0.0
     0.0     0.0     0.0     0.0     0.0     0.1    -0.0     0.0     0.0    -0.0
     0.0     0.0     0.1     0.1     0.0     0.0     0.0    -0.0    -0.0     0.1
     0.1     0.0     0.1     0.0     0.0     0.0    -0.0     0.0     0.0     0.0
     0.1     0.0     0.0    -0.0     0.0     0.1     0.0     0.0     0.1     0.0
    -0.0     0.0     0.0     0.0     0.0     0.0     0.0     0.0    -0.0     0.0
     0.0     0.1     0.0     0.0     0.1     0.0     0.0     0.0     0.0     0.1
     0.0     0.0     0.0     0.0    -0.0     0.0     0.1     0.0     0.0     0.0
     0.0     0.0    -0.0     0.0     0.1     0.0     0.1     0.0     0.0    -0.0
    -0.0     0.0     0.0     0.0     0.1     0.0     0.0     0.0    -0.0     0.1
     0.1     0.1     0.0     0.0     0.0    -0.0     0.0     0.0     0.0     0.1
     0.0     0.0     0.0    -0.0    -0.0     0.0     0.1     0.0     0.0     0.0
     0.0     0.0     0.0     0.1     0.0     0.1     0.0     0.0     0.0    -0.0
     0.1     0.0     0.0     0.1     0.0     0.0     0.0    -0.0     0.0     0.1
     0.0     0.1     0.0     0.0     0.0     0.0     0.0     0.1     0.0     0.1
     0.0    -0.0    -0.0    -0.0     0.1     0.0     0.1     0.0    -0.0     0.0
    -0.0     0.0     0.0     0.0     0.1     0.0     0.0    -0.0     0.0     0.0
     0.1     0.0     0.0     0.1     0.0     0.0     0.0     0.0     0.0     0.1
     0.0     0.0     0.1     0.0    -0.0     0.1     0.1     0.0     0.0     0.0
     0.0     0.0    -0.0     0.0     0.1     0.0     0.0     0.0     0.0     0.0
     0.0     0.0     0.0     0.1     0.0     0.0     0.0    -0.0     0.1     0.1
     0.1     0.1    -0.0     0.0    -0.0    -0.0     0.1     0.1     0.0     0.1
     0.0     0.0     0.1    -0.0    -0.0     0.0     0.0     0.1     0.0     0.0
     0.0     0.0     0.0     0.0     0.1     0.0     0.1     0.0    -0.0     0.0
    -0.0     0.0     0.1     0.0     0.0     0.0     0.0     0.0     0.1     0.0
     0.0     0.0     0.0     0.0     0.0     0.0     0.1     0.0     0.0     0.0
     0.0     0.0     0.0     0.0     0.0     0.1     0.1     0.0     0.0     0.0
     0.0     0.1     0.1     0.0     0.0     0.0     0.0     0.0     0.0     0.0
     0.0     0.1     0.0     0.0     0.0     0.0     0.0     0.0     0.1     0.0
     0.0     0.0    -0.0    -0.0     0.0     0.0     0.0     0.0     0.1     0.0
     0.0     0.0     0.0     0.0     0.1     0.0     0.0     0.0     0.0     0.0
     0.0     0.0     0.0     0.0     0.0     0.0     0.0     0.0     0.1     0.0
     0.0     0.0     0.0     0.0     0.0     0.1     0.0     0.1     0.0     0.0
     0.0    -0.0     0.0     0.0     0.0     0.1     0.0     0.0    -0.0     0.0
     0.0    -0.0     0.1     0.0     0.0     0.0     0.0     0.0     0.0     0.0
     0.0     0.0     0.0     0.0     0.0     0.0     0.0     0.1     0.0     0.0
     0.1    -0.0     0.0     0.0    -0.0     0.0     0.0     0.1     0.0     0.0
     0.0    -0.0     0.0     0.1     0.0     0.1     0.0     0.0     0.0     0.0
     0.0     0.1     0.0     0.0     0.0    -0.0     0.1     0.0     0.0     0.1
     0.0     0.0    -0.0     0.0     0.0    -0.0     0.1     0.1     0.0     0.0
     0.0    -0.0    -0.0     0.0     0.0     0.1     0.0     0.0     0.0    -0.0
     0.0     0.0    -0.0     0.1     0.0    -0.0     0.0    -0.0     0.0     0.1
     0.0     0.0     0.0     0.0     0.0    -0.0     0.0     0.1     0.0     0.1
     0.0     0.0     0.0    -0.0     0.0     0.0     0.0     0.1    -0.0     0.0
     0.0    -0.0     0.0     0.0     0.1     0.1     0.0     0.0    -0.0     0.0
     0.0     0.1     0.0     0.0     0.1     0.0     0.1    -0.0     0.0     0.1
     0.0     0.0     0.0     0.0     0.0     0.0     0.0     0.0     0.1     0.0
     0.0    -0.0     0.0     0.0     0.0     0.1     0.0     0.1     0.0     0.0
     0.0     0.0     0.0     0.0     0.1     0.0    -0.0     0.0     0.0     0.0
     0.0     0.0     0.0     0.0     0.0    -0.0    -0.0     0.0     0.0     0.1
     0.1    -0.0     0.0    -0.0    -0.0     0.0     0.0     0.0     0.0     0.0
     0.0     0.0    -0.0     0.0     0.0     0.1     0.1    -0.0     0.0    -0.0
    -0.0     0.1     0.0     0.0     0.0     0.1     0.1    -0.0     0.1     0.0
     0.0     0.1     0.0     0.0    -0.0     0.0     0.0     0.1     0.1     0.0
     0.0     0.0    -0.0    -0.0     0.0     0.0     0.0     0.1     0.0     0.0
     0.0    -0.0     0.0     0.1     0.0     0.0     0.0     0.1     0.0    -0.1
     0.0     0.0     0.1     0.0     0.0     0.0     0.0     0.0     0.0     0.0
     0.0     0.0     0.0     0.1    -0.0    -0.0     0.1     0.0     0.0     0.0
     0.0     0.0    -0.0     0.1     0.0     0.0     0.0     0.0     0.0     0.0
     0.0    -0.0     0.1     0.0     0.0     0.1    -0.0     0.0     0.0     0.0
     0.0     0.1     0.0     0.0    -0.0    -0.1     0.0     0.1     0.0     0.1
     0.0     0.0     0.0    -0.0     0.0     0.1     0.0     0.0     0.0     0.0
     0.0    -0.0     0.0     0.0     0.0     0.0     0.1     0.0    -0.0     0.0
     0.0     0.0     0.0    -0.0     0.0     0.0    -0.0     0.0    -0.0     0.1
     0.0     0.0     0.0    -0.0     0.0     0.0     0.0     0.0    -0.0     0.0
     0.0     0.0     0.0     0.0     0.1     0.0     0.0     0.0     0.0     0.0
     0.0     0.1     0.1     0.0     0.0     0.0     0.0     0.0     0.0     0.0
     0.0     0.0     0.0     0.0    -0.0     0.0     0.0     0.0     0.1     0.0
     0.0    -0.0     0.0     0.0     0.0     0.1     0.0     0.0     0.0     0.0
     0.0     0.0     0.0     0.0     0.0     0.0     0.0     0.0    -0.0     0.0
     0.0     0.0     0.0     0.0     0.0     0.0    -0.0     0.0     0.0     0.0
     0.0     0.0     0.1    -0.0    -0.0     0.0     0.1     0.1    -0.0     0.0
     0.0     0.0     0.0     0.0     0.1     0.0     0.0    -0.0     0.0     0.0
     0.0     0.1     0.0     0.1     0.0     0.0     0.0    -0.0    -0.0     0.0
     0.1     0.0     0.0     0.0    -0.0     0.0     0.0     0.0     0.0    -0.0
     0.0    -0.0    -0.0     0.1    -0.0     0.0    -0.0     0.1     0.1    -0.0
    -0.0    -0.0     0.0     0.1     0.0    -0.0     0.0     0.0     0.0     0.0
     0.0     0.0     0.0     0.0    -0.0    -0.0     0.0     0.0     0.1     0.0
     0.0     0.0    -0.0     0.0    -0.0     0.0     0.1     0.0     0.0     0.0
    -0.0    -0.0     0.0     0.0     0.0     0.1     0.0     0.0    -0.0     0.0
     0.0    -0.0     0.0     0.1     0.0     0.0     0.0    -0.0     0.0     0.1
     0.0     0.0     0.0     0.0    -0.0     0.0     0.0     0.1     0.0     0.0
     0.0    -0.0    -0.0     0.0     0.0     0.0     0.0     0.0     0.0     0.0
     0.0    -0.0     0.0     0.1     0.0     0.0     0.0     0.0     0.0     0.0
     0.0     0.1    -0.0     0.0     0.0    -0.0    -0.0     0.0     0.1     0.1
    -0.0    -0.0     0.0     0.0    -0.0     0.0     0.0     0.0     0.0    -0.0
     0.0     0.0    -0.0     0.0     0.1     0.1     0.0    -0.0     0.0     0.0
     0.0     0.0     0.0     0.1     0.1    -0.0     0.0     0.0     0.1     0.1
     0.0     0.0     0.0    -0.0    -0.1     0.2     0.2    -0.1    -0.2     0.0
     0.2     0.1    -0.0    -0.1     0.0     0.1     0.0     0.0     0.0     0.0
    -0.1    -0.0     0.1     0.1     0.1    -0.0    -0.0     0.1     0.0    -0.0
     0.1     0.1     0.0    -0.0     0.0     0.1    -0.0    -0.0     0.0     0.1
     0.1    -0.0    -0.0     0.0     0.0     0.0     0.1    -0.0     0.0     0.0
     0.0     0.0     0.0     0.1     0.0     0.0     0.0    -0.0    -0.0     0.0
     0.0     0.1     0.1     0.0     0.0     0.0     0.0     0.0     0.0     0.0
     0.0     0.0     0.0     0.0    -0.0     0.0     0.0     0.0     0.1     0.0
     0.1     0.0    -0.0     0.0     0.0     0.0     0.0     0.0     0.0     0.0
     0.0     0.0     0.0     0.1     0.1     0.0     0.0    -0.0     0.0     0.1
     0.0     0.0     0.0     0.0     0.0     0.0     0.0     0.1     0.1    -0.0
     0.0     0.0     0.0     0.0     0.0     0.0     0.0     0.1     0.0     0.1
     0.0    -0.0     0.1     0.0     0.1     0.0    -0.0     0.0     0.0     0.0
    -0.0     0.0     0.1     0.0     0.0    -0.0     0.0     0.0     0.0     0.0
     0.0     0.0     0.0     0.0    -0.0     0.0     0.0     0.0     0.0     0.0
     0.0     0.0     0.0     0.0     0.0     0.0     0.1     0.0     0.0     0.0
     0.0     0.0     0.1     0.0     0.0     0.1    -0.0     0.0     0.0     0.0
     0.1     0.0     0.0     0.0     0.0     0.0    -0.0     0.0     0.1     0.0
     0.0    -0.0     0.0    -0.0    -0.0     0.1     0.0     0.1     0.1    -0.0
     0.1    -0.0     0.0     0.0     0.0     0.1     0.0     0.0     0.0    -0.0
     0.0     0.0     0.0     0.0    -0.0     0.0     0.0    -0.0     0.1     0.0
     0.1     0.0     0.0    -0.0    -0.0     0.0    -0.0     0.1     0.0    -0.1
     0.1    -0.0     0.0     0.1     0.1     0.0    -0.0     0.0     0.0     0.0
    -0.0    -0.0     0.1     0.0     0.0     0.0     0.1    -0.0     0.0     0.1
     0.0     0.1     0.0     0.0    -0.0     0.0     0.1     0.0    -0.0    -0.0
     0.1     0.2     0.0    -0.1    -0.1     0.0     0.1    -0.0     0.1     0.0
     0.0    -0.0    -0.0     0.1     0.1     0.0    -0.0     0.0     0.0     0.0
     0.0     0.0     0.0     0.0     0.0     0.0     0.0     0.0     0.0     0.1
     0.1     0.0     0.0     0.0    -0.0     0.0     0.0     0.0     0.0     0.0
     0.0     0.0    -0.0    -0.0     0.0     0.1    -0.0     0.0     0.0    -0.0
     0.0     0.0     0.0     0.0     0.1     0.0     0.0     0.0    -0.0     0.1
     0.1    -0.0     0.0    -0.0     0.0    -0.0    -0.0     0.0     0.1     0.0
     0.0    -0.0     0.0     0.0    -0.0     0.0     0.0     0.0     0.0    -0.0
     0.1     0.0     0.0     0.0    -0.0     0.0    -0.0     0.0     0.0     0.0
     0.0     0.0     0.1    -0.0     0.0     0.0    -0.1     0.0     0.0     0.1
     0.1     0.0     0.0    -0.0     0.0     0.0    -0.0     0.0     0.0     0.0
     0.0     0.0     0.0     0.0     0.0     0.0     0.0     0.0    -0.0    -0.0
     0.0     0.0     0.0     0.1     0.0     0.0    -0.0    -0.0     0.0     0.0
     0.0     0.1     0.0     0.0    -0.0     0.1    -0.0    -0.1     0.0     0.1
     0.1     0.0    -0.1    -0.0     0.0     0.1     0.1     0.0    -0.0     0.1
    -0.0     0.0     0.1     0.0     0.0     0.0    -0.0     0.0     0.0     0.0
     0.1     0.1     0.0     0.0    -0.0     0.0     0.0     0.0     0.1     0.0
     0.1     0.0    -0.0     0.0     0.0     0.1     0.1     0.0     0.0     0.0
     0.0     0.0    -0.0     0.1     0.1     0.0     0.0     0.0     0.0     0.0
     0.0     0.1     0.1     0.0     0.1     0.0    -0.0     0.0     0.0     0.0
     0.0     0.0     0.1     0.0     0.0    -0.0     0.0     0.1     0.1     0.1
     0.0     0.0    -0.1     0.0     0.1     0.0     0.0     0.0     0.1     0.0
     0.0     0.0    -0.0     0.1     0.0    -0.0     0.0    -0.0     0.0     0.0
     0.1     0.1     0.0    -0.0     0.0     0.0    -0.0     0.0     0.0     0.1
     0.0     0.0     0.0     0.0     0.1     0.0     0.1     0.0    -0.0     0.0
    -0.0     0.0     0.0     0.0     0.0     0.1     0.1     0.0     0.0     0.0
     0.0     0.1     0.0     0.1     0.0     0.0     0.0     0.0     0.0     0.1
     0.0     0.0     0.0     0.0    -0.0     0.0     0.0     0.0     0.0     0.0
     0.0     0.0    -0.0     0.0     0.0     0.0     0.1     0.0     0.0    -0.0
    -0.0     0.0     0.0     0.1     0.1     0.1     0.0     0.0    -0.0    -0.0
     0.1     0.0     0.0     0.0    -0.0     0.0     0.0     0.0     0.0     0.0
     0.0     0.0     0.0    -0.0     0.0     0.0     0.0     0.0     0.0     0.0
