Uncorrected accelerogram 20161113_110256_MGCS_20 GNS Science
Site MGCS      41 30 28S  173 56 40E     Cusp file:  20161113_110322_MGCS
Blenheim Marlborough Girls College
Instrument Cusp_42253
Resolution: 18-bit   Instr Period: 0.0050 s   Damping: 0.700
Accelerogram 20161113_110256_MGCS_20                 Processed 2016 December 09
5 km south-west of Waiau
2016 November 13         11:02:56 UT
Epicentre  42 41 33S 173 01 19E  Bearing S30W  Dist  152km  Depth   15km Mw 7.82
Number of points  55305    Duration 276.52 s
Raw readings in units of 1.00 mm/s/s  at intervals of 0.005 s
Data is unfiltered
Component S87W
Acceleration:  Peak  -1940.4 mm/s/s at  98.45 s     RMS   179.40 mm/s/s
Velocity record unevaluated
Displacement record unevaluated
    2016      11      13      11       2     560       0       0    2016      11
      42      41      33     173       1      19      15       0      13      11
      41      30      28     173      56      40     267     267     210     152
   55305       0       0   55305       0       0       0       0       2   42449
   200.0    0.70    0.00   0.000  0.0000   0.000   0.000   1.000     0.0    0.00
  41.508 173.944  42.693 173.022    7.82    0.00    0.00    0.00      0.      0.
  276.52    0.00    0.00  276.52  0.0050  0.0050      0.      0.      0.  9806.6
 -1940.4   98.45   179.4      0.      0.     0.0    0.00     0.0     0.0   0.000
    0.00    0.00    0.00    0.00   0.000    0.00    0.00    0.00    0.00   0.000
   0.000   0.000   0.000      0.      0.   0.000   0.000   0.000      0.      0.
    -0.4    -0.5    -0.3    -0.2    -0.4    -0.4    -0.1    -0.2    -0.2    -0.3
    -0.3    -0.3    -0.4    -0.3    -0.1    -0.2    -0.3    -0.4    -0.4    -0.3
    -0.3    -0.5    -0.5    -0.4    -0.4    -0.4    -0.3    -0.3    -0.3    -0.3
    -0.2    -0.1    -0.3    -0.4    -0.4    -0.3    -0.4    -0.4    -0.3    -0.2
    -0.3    -0.2    -0.2    -0.2    -0.2    -0.3    -0.2    -0.2    -0.4    -0.1
    -0.2    -0.4    -0.2    -0.4    -0.2    -0.1    -0.3    -0.1    -0.1    -0.2
    -0.3    -0.5    -0.3    -0.1    -0.2    -0.2    -0.3    -0.5    -0.3    -0.3
    -0.5    -0.3    -0.5    -0.4    -0.2    -0.3    -0.3    -0.3    -0.5    -0.5
    -0.4    -0.3    -0.4    -0.3    -0.3    -0.4    -0.3    -0.3    -0.5    -0.5
    -0.5    -0.5    -0.4    -0.3    -0.3    -0.3    -0.3    -0.4    -0.4    -0.2
    -0.3    -0.3    -0.2    -0.3    -0.4    -0.3    -0.2    -0.3    -0.3    -0.3
    -0.3    -0.3    -0.1    -0.2    -0.3    -0.1    -0.3    -0.4    -0.3    -0.2
    -0.1    -0.3    -0.2    -0.2    -0.4    -0.3    -0.2    -0.3    -0.2    -0.3
    -0.3    -0.3    -0.4    -0.2    -0.2    -0.3    -0.1    -0.3    -0.3    -0.1
    -0.4    -0.2    -0.1    -0.3    -0.2    -0.2    -0.4    -0.3    -0.2    -0.2
    -0.2    -0.3    -0.4    -0.2    -0.2    -0.3    -0.4    -0.3    -0.2    -0.2
    -0.2    -0.2    -0.4    -0.4    -0.4    -0.3    -0.3    -0.4    -0.3    -0.2
    -0.4    -0.4    -0.3    -0.4    -0.4    -0.5    -0.4    -0.3    -0.5    -0.4
    -0.4    -0.3    -0.2    -0.3    -0.3    -0.2    -0.3    -0.4    -0.2    -0.3
    -0.4    -0.4    -0.4    -0.2    -0.2    -0.5    -0.5    -0.4    -0.5    -0.3
    -0.2    -0.4    -0.3    -0.2    -0.3    -0.3    -0.3    -0.4    -0.4    -0.2
    -0.3    -0.3    -0.3    -0.2    -0.2    -0.3    -0.4    -0.3    -0.3    -0.4
    -0.4    -0.3    -0.3    -0.3    -0.2    -0.1    -0.1    -0.2    -0.3    -0.2
    -0.1    -0.2    -0.3    -0.3    -0.2    -0.2    -0.1    -0.3    -0.3    -0.1
    -0.2    -0.2    -0.1    -0.3    -0.4    -0.3    -0.2    -0.2    -0.2    -0.2
    -0.4    -0.3    -0.2    -0.2    -0.3    -0.2    -0.3    -0.5    -0.3    -0.1
    -0.2    -0.4    -0.2    -0.2    -0.3    -0.2    -0.3    -0.5    -0.3    -0.2
    -0.3    -0.2    -0.1    -0.3    -0.2    -0.2    -0.2    -0.2    -0.2    -0.2
    -0.2    -0.1    -0.1    -0.3    -0.4    -0.2    -0.1    -0.3    -0.3    -0.2
    -0.2    -0.2    -0.3    -0.2    -0.1    -0.2    -0.3    -0.4    -0.3    -0.2
    -0.2    -0.4    -0.3    -0.2    -0.3    -0.1    -0.2    -0.2    -0.0    -0.3
    -0.3    -0.2    -0.2    -0.2    -0.3    -0.3    -0.3    -0.2    -0.1    -0.2
    -0.2    -0.1    -0.2    -0.3    -0.3    -0.3    -0.4    -0.3    -0.3    -0.3
    -0.4    -0.3    -0.3    -0.3    -0.2    -0.3    -0.4    -0.3    -0.3    -0.2
    -0.1    -0.2    -0.4    -0.3    -0.3    -0.3    -0.1    -0.3    -0.3    -0.2
    -0.1    -0.1    -0.2    -0.1    -0.3    -0.3    -0.3    -0.4    -0.2    -0.3
    -0.4    -0.3    -0.3    -0.2    -0.2    -0.2    -0.3    -0.3    -0.3    -0.3
    -0.1    -0.2    -0.4    -0.3    -0.2    -0.2    -0.3    -0.3    -0.2    -0.2
    -0.2    -0.2    -0.3    -0.2    -0.3    -0.3    -0.2    -0.3    -0.4    -0.3
    -0.3    -0.3    -0.2    -0.3    -0.3    -0.3    -0.4    -0.3    -0.2    -0.3
    -0.3    -0.3    -0.4    -0.4    -0.3    -0.4    -0.2    -0.1    -0.3    -0.3
    -0.1    -0.3    -0.3    -0.2    -0.3    -0.2    -0.2    -0.2    -0.1    -0.2
    -0.2    -0.3    -0.4    -0.3    -0.3    -0.3    -0.3    -0.3    -0.2    -0.2
    -0.3    -0.3    -0.3    -0.3    -0.3    -0.3    -0.2    -0.1    -0.3    -0.3
    -0.2    -0.3    -0.4    -0.4    -0.3    -0.2    -0.3    -0.3    -0.2    -0.1
    -0.2    -0.3    -0.3    -0.1    -0.2    -0.1    -0.0    -0.2    -0.3    -0.3
    -0.3    -0.2    -0.2    -0.1    -0.2    -0.2    -0.1    -0.3    -0.3    -0.3
    -0.3    -0.1    -0.4    -0.4    -0.2    -0.4    -0.2    -0.2    -0.3    -0.2
    -0.2    -0.1    -0.0    -0.2    -0.3    -0.2    -0.3    -0.3    -0.2    -0.3
    -0.3    -0.2    -0.2    -0.3    -0.4    -0.3    -0.4    -0.2    -0.1    -0.3
    -0.2    -0.3    -0.1    -0.0    -0.2    -0.3    -0.3    -0.4    -0.2    -0.2
    -0.4    -0.2    -0.2    -0.3    -0.2    -0.2    -0.2    -0.3    -0.2    -0.2
    -0.3    -0.1    -0.2    -0.4    -0.2    -0.3    -0.2    -0.2    -0.2    -0.2
    -0.3    -0.3    -0.2    -0.1    -0.2    -0.2    -0.2    -0.3    -0.2    -0.1
    -0.2    -0.2    -0.2    -0.1    -0.3    -0.5    -0.3    -0.3    -0.2    -0.2
    -0.3    -0.3    -0.4    -0.2    -0.3    -0.3    -0.2    -0.3    -0.4    -0.2
    -0.2    -0.2    -0.2    -0.2    -0.2    -0.1    -0.3    -0.3    -0.2    -0.2
    -0.1    -0.2    -0.3    -0.3    -0.3    -0.1    -0.2    -0.3    -0.2    -0.3
    -0.4    -0.4    -0.2    -0.1    -0.1    -0.1    -0.2    -0.3    -0.2    -0.2
    -0.3    -0.1    -0.2    -0.3    -0.0    -0.3    -0.3    -0.2    -0.2    -0.2
    -0.4    -0.3    -0.2    -0.2    -0.2    -0.3    -0.2    -0.3    -0.4    -0.1
    -0.2    -0.4    -0.3    -0.2    -0.3    -0.2    -0.2    -0.1    -0.2    -0.5
    -0.4    -0.1    -0.3    -0.3    -0.2    -0.4    -0.3    -0.3    -0.3    -0.2
    -0.3    -0.3    -0.2    -0.3    -0.2    -0.1    -0.0    -0.2    -0.5    -0.3
    -0.2    -0.3    -0.3    -0.2    -0.3    -0.4    -0.4    -0.3    -0.2    -0.2
    -0.2    -0.3    -0.3    -0.3    -0.3    -0.3    -0.3    -0.2    -0.2    -0.3
    -0.3    -0.2    -0.3    -0.4    -0.3    -0.3    -0.4    -0.2    -0.2    -0.5
    -0.3    -0.2    -0.4    -0.4    -0.4    -0.4    -0.3    -0.3    -0.3    -0.2
    -0.0    -0.1    -0.3    -0.3    -0.3    -0.2    -0.2    -0.3    -0.2    -0.2
    -0.3    -0.1    -0.2    -0.2    -0.2    -0.4    -0.3    -0.3    -0.4    -0.3
    -0.3    -0.3    -0.2    -0.5    -0.4    -0.4    -0.4    -0.2    -0.3    -0.3
    -0.3    -0.4    -0.3    -0.2    -0.3    -0.2    -0.1    -0.3    -0.2    -0.2
    -0.3    -0.3    -0.3    -0.2    -0.2    -0.3    -0.4    -0.3    -0.2    -0.3
    -0.3    -0.3    -0.4    -0.2    -0.3    -0.3    -0.1    -0.3    -0.2     0.0
    -0.2    -0.2    -0.2    -0.2    -0.4    -0.4    -0.2    -0.4    -0.5    -0.3
    -0.3    -0.2    -0.2    -0.4    -0.3    -0.4    -0.3    -0.2    -0.3    -0.4
    -0.3    -0.1    -0.3    -0.4    -0.3    -0.3    -0.3    -0.3    -0.3    -0.4
    -0.4    -0.4    -0.4    -0.2    -0.3    -0.5    -0.4    -0.3    -0.2    -0.3
    -0.3    -0.3    -0.4    -0.2    -0.3    -0.5    -0.4    -0.5    -0.3    -0.3
    -0.5    -0.4    -0.3    -0.5    -0.5    -0.3    -0.4    -0.2    -0.2    -0.5
    -0.4    -0.4    -0.3    -0.3    -0.5    -0.5    -0.5    -0.4    -0.4    -0.2
    -0.1    -0.2    -0.3    -0.4    -0.4    -0.3    -0.4    -0.2    -0.2    -0.4
    -0.3    -0.3    -0.5    -0.4    -0.4    -0.2    -0.1    -0.3    -0.3    -0.3
    -0.4    -0.2    -0.2    -0.4    -0.4    -0.4    -0.4    -0.3    -0.3    -0.4
    -0.3    -0.4    -0.4    -0.3    -0.4    -0.2    -0.3    -0.4    -0.3    -0.3
    -0.2    -0.3    -0.3    -0.2    -0.4    -0.3    -0.3    -0.5    -0.4    -0.3
    -0.3    -0.2    -0.3    -0.4    -0.3    -0.3    -0.3    -0.2    -0.3    -0.4
    -0.3    -0.3    -0.4    -0.5    -0.4    -0.3    -0.2    -0.3    -0.4    -0.3
    -0.3    -0.4    -0.4    -0.3    -0.4    -0.6    -0.4    -0.3    -0.4    -0.2
    -0.2    -0.3    -0.4    -0.5    -0.3    -0.4    -0.5    -0.5    -0.4    -0.4
    -0.5    -0.3    -0.2    -0.2    -0.3    -0.2    -0.3    -0.4    -0.4    -0.2
    -0.1    -0.2    -0.3    -0.4    -0.4    -0.2    -0.2    -0.3    -0.4    -0.6
    -0.4    -0.2    -0.3    -0.4    -0.4    -0.3    -0.2    -0.2    -0.2    -0.4
    -0.4    -0.4    -0.4    -0.3    -0.3    -0.2    -0.3    -0.4    -0.4    -0.4
    -0.3    -0.4    -0.5    -0.2    -0.3    -0.4    -0.2    -0.2    -0.3    -0.4
    -0.3    -0.4    -0.5    -0.2    -0.4    -0.4    -0.2    -0.4    -0.4    -0.4
    -0.2    -0.3    -0.4    -0.1    -0.3    -0.4    -0.4    -0.3    -0.2    -0.3
    -0.3    -0.3    -0.4    -0.4    -0.4    -0.4    -0.4    -0.3    -0.4    -0.4
    -0.3    -0.2    -0.2    -0.2    -0.2    -0.2    -0.2    -0.3    -0.2    -0.4
    -0.4    -0.3    -0.2    -0.2    -0.4    -0.3    -0.3    -0.3    -0.3    -0.3
    -0.2    -0.2    -0.3    -0.4    -0.4    -0.4    -0.5    -0.4    -0.4    -0.5
    -0.4    -0.4    -0.3    -0.3    -0.4    -0.4    -0.3    -0.4    -0.3    -0.1
    -0.3    -0.5    -0.5    -0.4    -0.4    -0.5    -0.4    -0.5    -0.4    -0.3
    -0.6    -0.4    -0.3    -0.5    -0.4    -0.4    -0.5    -0.4    -0.5    -0.3
    -0.2    -0.4    -0.3    -0.3    -0.4    -0.4    -0.5    -0.5    -0.4    -0.3
    -0.3    -0.5    -0.4    -0.3    -0.4    -0.3    -0.3    -0.4    -0.3    -0.2
    -0.3    -0.4    -0.4    -0.4    -0.4    -0.5    -0.4    -0.3    -0.5    -0.5
    -0.5    -0.3    -0.3    -0.4    -0.4    -0.4    -0.3    -0.4    -0.5    -0.3
    -0.4    -0.3    -0.1    -0.3    -0.5    -0.2    -0.2    -0.4    -0.4    -0.4
    -0.5    -0.4    -0.4    -0.5    -0.3    -0.2    -0.3    -0.4    -0.3    -0.3
    -0.4    -0.3    -0.3    -0.3    -0.5    -0.4    -0.2    -0.4    -0.5    -0.5
    -0.4    -0.4    -0.4    -0.4    -0.3    -0.3    -0.5    -0.4    -0.2    -0.4
    -0.5    -0.4    -0.3    -0.3    -0.3    -0.3    -0.4    -0.4    -0.3    -0.2
    -0.3    -0.4    -0.4    -0.5    -0.2    -0.2    -0.5    -0.4    -0.4    -0.4
    -0.4    -0.4    -0.2    -0.3    -0.3    -0.2    -0.1    -0.3    -0.4    -0.3
    -0.4    -0.3    -0.1    -0.4    -0.4    -0.3    -0.4    -0.3    -0.4    -0.4
    -0.3    -0.3    -0.3    -0.3    -0.4    -0.5    -0.4    -0.4    -0.3    -0.1
    -0.3    -0.3    -0.3    -0.4    -0.4    -0.3    -0.4    -0.4    -0.4    -0.4
    -0.3    -0.2    -0.2    -0.2    -0.2    -0.2    -0.3    -0.3    -0.3    -0.4
    -0.4    -0.4    -0.3    -0.2    -0.3    -0.4    -0.5    -0.4    -0.3    -0.3
    -0.2    -0.1    -0.2    -0.3    -0.3    -0.2    -0.3    -0.3    -0.2    -0.4
    -0.4    -0.3    -0.4    -0.2    -0.3    -0.4    -0.3    -0.3    -0.3    -0.2
    -0.4    -0.4    -0.3    -0.3    -0.3    -0.4    -0.4    -0.4    -0.5    -0.2
    -0.2    -0.5    -0.3    -0.2    -0.5    -0.5    -0.3    -0.3    -0.5    -0.5
    -0.3    -0.4    -0.3    -0.3    -0.6    -0.4    -0.4    -0.5    -0.2    -0.4
    -0.5    -0.2    -0.4    -0.3    -0.2    -0.5    -0.3    -0.3    -0.3    -0.3
    -0.5    -0.2    -0.2    -0.3    -0.3    -0.4    -0.4    -0.3    -0.3    -0.5
    -0.3    -0.3    -0.4    -0.3    -0.5    -0.3    -0.2    -0.4    -0.3    -0.4
    -0.3    -0.2    -0.3    -0.2    -0.2    -0.1    -0.4    -0.4    -0.3    -0.3
    -0.3    -0.3    -0.2    -0.5    -0.5    -0.3    -0.5    -0.5    -0.4    -0.5
    -0.4    -0.4    -0.5    -0.3    -0.2    -0.2    -0.3    -0.5    -0.4    -0.3
    -0.4    -0.4    -0.3    -0.4    -0.3    -0.3    -0.4    -0.4    -0.4    -0.4
    -0.4    -0.2    -0.2    -0.3    -0.3    -0.4    -0.3    -0.3    -0.4    -0.3
    -0.3    -0.4    -0.2    -0.3    -0.5    -0.2    -0.2    -0.3    -0.4    -0.3
    -0.2    -0.6    -0.4    -0.2    -0.4    -0.2    -0.3    -0.5    -0.3    -0.2
    -0.3    -0.5    -0.3    -0.2    -0.4    -0.3    -0.4    -0.5    -0.3    -0.4
    -0.5    -0.4    -0.2    -0.4    -0.5    -0.3    -0.4    -0.5    -0.3    -0.3
    -0.5    -0.4    -0.3    -0.4    -0.3    -0.2    -0.3    -0.4    -0.3    -0.3
    -0.5    -0.4    -0.3    -0.5    -0.5    -0.3    -0.5    -0.4    -0.4    -0.5
    -0.3    -0.1    -0.3    -0.3    -0.2    -0.4    -0.4    -0.3    -0.4    -0.3
    -0.3    -0.4    -0.4    -0.4    -0.3    -0.2    -0.4    -0.4    -0.2    -0.3
    -0.3    -0.2    -0.4    -0.5    -0.3    -0.4    -0.4    -0.4    -0.3    -0.1
    -0.4    -0.5    -0.3    -0.4    -0.3    -0.3    -0.3    -0.3    -0.3    -0.3
    -0.3    -0.5    -0.4    -0.4    -0.4    -0.4    -0.4    -0.5    -0.4    -0.3
    -0.5    -0.5    -0.2    -0.5    -0.6    -0.2    -0.4    -0.5    -0.4    -0.5
    -0.4    -0.3    -0.4    -0.4    -0.2    -0.4    -0.4    -0.4    -0.5    -0.4
    -0.4    -0.3    -0.2    -0.4    -0.3    -0.2    -0.4    -0.4    -0.2    -0.3
    -0.5    -0.3    -0.2    -0.4    -0.3    -0.3    -0.4    -0.2    -0.2    -0.2
    -0.2    -0.3    -0.3    -0.3    -0.4    -0.3    -0.3    -0.5    -0.3     0.0
    -0.3    -0.5    -0.3    -0.3    -0.4    -0.2    -0.3    -0.5    -0.3    -0.2
    -0.4    -0.2    -0.4    -0.4    -0.3    -0.4    -0.4    -0.3    -0.4    -0.3
    -0.3    -0.4    -0.5    -0.4    -0.4    -0.4    -0.4    -0.4    -0.3    -0.2
    -0.3    -0.3    -0.3    -0.3    -0.3    -0.3    -0.3    -0.4    -0.4    -0.3
    -0.4    -0.4    -0.2    -0.3    -0.4    -0.3    -0.3    -0.3    -0.2    -0.2
    -0.2    -0.1    -0.3    -0.5    -0.3    -0.3    -0.5    -0.2    -0.4    -0.4
    -0.3    -0.4    -0.2    -0.0    -0.3    -0.3    -0.2    -0.4    -0.5    -0.4
    -0.5    -0.5    -0.3    -0.4    -0.4    -0.2    -0.4    -0.5    -0.4    -0.5
    -0.4    -0.3    -0.3    -0.3    -0.3    -0.1    -0.5    -0.5    -0.2    -0.4
    -0.3    -0.3    -0.3    -0.2    -0.4    -0.4    -0.3    -0.3    -0.3    -0.3
    -0.3    -0.2    -0.4    -0.5    -0.5    -0.3    -0.3    -0.4    -0.4    -0.3
    -0.3    -0.4    -0.3    -0.4    -0.3    -0.2    -0.4    -0.4    -0.3    -0.4
    -0.3    -0.2    -0.5    -0.3    -0.3    -0.5    -0.2    -0.2    -0.4    -0.3
    -0.5    -0.5    -0.2    -0.2    -0.4    -0.4    -0.3    -0.3    -0.3    -0.3
    -0.4    -0.4    -0.2    -0.3    -0.3    -0.3    -0.4    -0.4    -0.3    -0.1
    -0.2    -0.3    -0.3    -0.4    -0.4    -0.4    -0.3    -0.2    -0.4    -0.4
    -0.2    -0.4    -0.4    -0.3    -0.4    -0.4    -0.2    -0.3    -0.3    -0.2
    -0.4    -0.5    -0.4    -0.4    -0.5    -0.4    -0.2    -0.5    -0.3    -0.3
    -0.6    -0.4    -0.4    -0.3    -0.4    -0.3    -0.2    -0.3    -0.3    -0.3
    -0.3    -0.3    -0.4    -0.4    -0.4    -0.3    -0.3    -0.4    -0.5    -0.4
    -0.2    -0.4    -0.5    -0.4    -0.4    -0.4    -0.3    -0.3    -0.4    -0.3
    -0.2    -0.4    -0.4    -0.4    -0.4    -0.3    -0.3    -0.3    -0.4    -0.4
    -0.4    -0.4    -0.4    -0.4    -0.5    -0.4    -0.4    -0.4    -0.3    -0.2
    -0.3    -0.4    -0.3    -0.4    -0.3    -0.3    -0.4    -0.3    -0.4    -0.4
    -0.3    -0.3    -0.3    -0.3    -0.4    -0.4    -0.4    -0.3    -0.4    -0.4
    -0.3    -0.4    -0.3    -0.3    -0.3    -0.3    -0.3    -0.1    -0.3    -0.5
    -0.1    -0.3    -0.2    -0.1    -0.3    -0.2    -0.4    -0.6    -0.4    -0.3
    -0.3    -0.2    -0.2    -0.3    -0.2    -0.4    -0.2    -0.2    -0.3    -0.1
    -0.4    -0.2    -0.2    -0.3    -0.2    -0.4    -0.1    -0.3    -0.2    -0.2
    -0.4    -0.2    -0.2    -0.5    -0.5    -0.2    -0.3    -0.2    -0.1    -0.4
    -0.2    -0.2    -0.2    -0.3    -0.3    -0.2    -0.3    -0.3    -0.4    -0.4
    -0.4    -0.3    -0.2    -0.3    -0.4    -0.3    -0.3    -0.3    -0.3    -0.4
    -0.4    -0.4    -0.4    -0.2    -0.2    -0.5    -0.4    -0.3    -0.4    -0.2
    -0.2    -0.4    -0.3    -0.4    -0.5    -0.3    -0.4    -0.3    -0.1    -0.3
    -0.5    -0.5    -0.5    -0.3    -0.2    -0.5    -0.3    -0.3    -0.6    -0.4
    -0.3    -0.3    -0.2    -0.3    -0.3    -0.4    -0.3    -0.3    -0.3    -0.1
    -0.2    -0.4    -0.3    -0.2    -0.1    -0.4    -0.2    -0.2    -0.4    -0.3
    -0.3    -0.4    -0.4    -0.5    -0.4    -0.3    -0.2    -0.2    -0.3    -0.3
    -0.3    -0.3    -0.3    -0.4    -0.5    -0.3    -0.2    -0.3    -0.5    -0.5
    -0.3    -0.3    -0.4    -0.2    -0.2    -0.2    -0.2    -0.4    -0.5    -0.2
    -0.4    -0.4    -0.4    -0.5    -0.1    -0.4    -0.5    -0.3    -0.4    -0.3
    -0.4    -0.3    -0.4    -0.5    -0.3    -0.3    -0.2    -0.3    -0.4    -0.3
    -0.3    -0.2    -0.1    -0.5    -0.4    -0.2    -0.4    -0.3    -0.2    -0.4
    -0.3    -0.4    -0.4    -0.2    -0.3    -0.2    -0.1    -0.2    -0.4    -0.3
    -0.3    -0.4    -0.3    -0.3    -0.3    -0.3    -0.5    -0.2    -0.2    -0.5
    -0.3    -0.3    -0.3    -0.2    -0.3    -0.3    -0.4    -0.4    -0.3    -0.3
    -0.4    -0.3    -0.3    -0.3    -0.3    -0.3    -0.2    -0.3    -0.4    -0.4
    -0.3    -0.2    -0.3    -0.3    -0.3    -0.3    -0.3    -0.4    -0.4    -0.5
    -0.4    -0.2    -0.3    -0.3    -0.1    -0.3    -0.3    -0.2    -0.4    -0.6
    -0.4    -0.4    -0.5    -0.3    -0.4    -0.5    -0.5    -0.4    -0.3    -0.4
    -0.2    -0.2    -0.4    -0.3    -0.3    -0.2    -0.3    -0.3    -0.2    -0.5
    -0.4    -0.3    -0.4    -0.4    -0.3    -0.2    -0.3    -0.3    -0.3    -0.4
    -0.2    -0.5    -0.5    -0.2    -0.4    -0.4    -0.4    -0.5    -0.3    -0.3
    -0.2    -0.1    -0.3    -0.5    -0.3    -0.3    -0.4    -0.3    -0.4    -0.4
    -0.3    -0.4    -0.3    -0.3    -0.2    -0.3    -0.4    -0.4    -0.4    -0.5
    -0.5    -0.4    -0.2    -0.2    -0.3    -0.2    -0.3    -0.3    -0.2    -0.2
    -0.2    -0.2    -0.2    -0.4    -0.5    -0.2    -0.2    -0.5    -0.5    -0.4
    -0.4    -0.2    -0.2    -0.2    -0.3    -0.6    -0.4    -0.1    -0.2    -0.2
    -0.2    -0.3    -0.3    -0.4    -0.5    -0.3    -0.2    -0.3    -0.3    -0.3
    -0.4    -0.3    -0.2    -0.3    -0.3    -0.3    -0.3    -0.3    -0.4    -0.4
    -0.3    -0.3    -0.2    -0.2    -0.2    -0.4    -0.3    -0.3    -0.5    -0.2
    -0.3    -0.4    -0.1    -0.3    -0.5    -0.3    -0.3    -0.4    -0.3    -0.4
    -0.4    -0.4    -0.4    -0.4    -0.4    -0.4    -0.3    -0.3    -0.3    -0.2
    -0.2    -0.3    -0.4    -0.5    -0.5    -0.4    -0.3    -0.3    -0.5    -0.4
    -0.1    -0.3    -0.3    -0.2    -0.4    -0.4    -0.2    -0.3    -0.4    -0.2
    -0.3    -0.5    -0.2    -0.2    -0.4    -0.3    -0.2    -0.4    -0.3    -0.4
    -0.7    -0.4    -0.4    -0.4    -0.4    -0.5    -0.3    -0.4    -0.3    -0.3
    -0.4    -0.4    -0.6    -0.4    -0.2    -0.4    -0.4    -0.4    -0.6    -0.4
    -0.2    -0.4    -0.4    -0.3    -0.4    -0.4    -0.2    -0.3    -0.4    -0.4
    -0.5    -0.3    -0.3    -0.4    -0.3    -0.2    -0.3    -0.2    -0.1    -0.2
    -0.3    -0.3    -0.3    -0.3    -0.3    -0.3    -0.3    -0.3    -0.4    -0.4
    -0.3    -0.3    -0.5    -0.4    -0.3    -0.4    -0.3    -0.4    -0.3    -0.3
    -0.6    -0.3    -0.1    -0.3    -0.2    -0.3    -0.5    -0.3    -0.3    -0.4
    -0.3    -0.4    -0.3    -0.3    -0.3    -0.3    -0.5    -0.3    -0.3    -0.4
    -0.2    -0.2    -0.3    -0.3    -0.2    -0.3    -0.3    -0.3    -0.4    -0.3
    -0.0    -0.3    -0.6    -0.3    -0.4    -0.5    -0.2    -0.3    -0.5    -0.3
    -0.4    -0.4    -0.3    -0.5    -0.5    -0.4    -0.4    -0.4    -0.2    -0.1
    -0.3    -0.4    -0.5    -0.4    -0.2    -0.3    -0.3    -0.3    -0.3    -0.4
