Uncorrected accelerogram 20161113_110256_LRSS_20 GNS Science
Site LRSS      41 13 46S  174 54 15E     Cusp file:  20161113_110331_LRSS
Randwick School
Instrument Cusp_42102
Resolution: 18-bit   Instr Period: 0.0050 s   Damping: 0.700
Accelerogram 20161113_110256_LRSS_20                 Processed 2016 December 09
5 km south-west of Waiau
2016 November 13         11:02:56 UT
Epicentre  42 41 33S 173 01 19E  Bearing S43W  Dist  225km  Depth   15km Mw 7.82
Number of points  52387    Duration 261.93 s
Raw readings in units of 1.00 mm/s/s  at intervals of 0.005 s
Data is unfiltered
Component S80E
Acceleration:  Peak   1331.8 mm/s/s at 108.15 s     RMS   128.80 mm/s/s
Velocity record unevaluated
Displacement record unevaluated
    2016      11      13      11       2     560       0       0    2016      11
      42      41      33     173       1      19      15       0      13      11
      41      13      46     174      54      15     100     100     223     225
   52387       0       0   52387       0       0       0       0       2   51945
   200.0    0.70    0.00   0.000  0.0000   0.000   0.000   1.000     0.0    0.00
  41.229 174.904  42.693 173.022    7.82    0.00    0.00    0.00      0.      0.
  261.93    0.00    0.00  261.93  0.0050  0.0050      0.      0.      0.  9806.6
  1331.8  108.15   128.8      0.      0.     0.0    0.00     0.0     0.0   0.000
    0.00    0.00    0.00    0.00   0.000    0.00    0.00    0.00    0.00   0.000
   0.000   0.000   0.000      0.      0.   0.000   0.000   0.000      0.      0.
     0.1     0.1     0.2    -0.1     0.2     0.4     0.1     0.2     0.3     0.3
     0.4     0.3     0.3     0.2     0.3     0.3     0.3     0.4     0.2     0.3
     0.4     0.4     0.4     0.4     0.5     0.4     0.4     0.2     0.2     0.2
     0.3     0.4     0.0     0.0     0.4     0.4     0.4     0.3     0.1     0.2
     0.3     0.1     0.2     0.5     0.5     0.5     0.3     0.1     0.1     0.1
     0.4     0.3     0.2     0.3     0.2     0.5     0.4     0.3     0.5     0.1
     0.1     0.2     0.3     0.5     0.3     0.3     0.3     0.3     0.4     0.3
     0.4     0.3     0.1     0.1     0.2     0.3     0.1     0.2     0.3     0.3
     0.2     0.2     0.4     0.4     0.2     0.2     0.3     0.1     0.2     0.5
     0.4     0.4     0.3     0.2     0.3     0.2     0.2     0.3     0.3     0.3
     0.3     0.3     0.3     0.5     0.6     0.3     0.3     0.4     0.4     0.5
     0.4     0.5     0.5     0.2     0.2     0.4     0.4     0.3     0.4     0.3
     0.4     0.5     0.3     0.2     0.3     0.3     0.4     0.3     0.2     0.4
     0.2     0.3     0.3     0.3     0.4     0.3     0.4     0.4     0.3     0.4
     0.2     0.3     0.3     0.3     0.3     0.1     0.3     0.3     0.3     0.3
     0.2     0.4     0.2     0.2     0.3     0.2     0.4     0.3     0.2     0.2
     0.1     0.3     0.3     0.4     0.4     0.2     0.4     0.3     0.3     0.5
     0.3     0.2     0.3     0.2     0.2     0.2     0.2     0.2     0.2     0.1
     0.2     0.3     0.3     0.3     0.3     0.3     0.3     0.2     0.3     0.2
     0.4     0.4     0.3     0.1     0.1     0.4     0.4     0.3     0.3     0.2
     0.2     0.5     0.6     0.4     0.4     0.3     0.2     0.3     0.2     0.5
     0.4     0.3     0.2     0.2     0.4     0.3     0.4     0.4     0.2     0.2
     0.2     0.4     0.4     0.4     0.4     0.4     0.4     0.4     0.4     0.4
     0.3     0.1     0.3     0.3    -0.0     0.2     0.4     0.2     0.3     0.1
     0.2     0.3     0.5     0.5     0.1     0.3     0.3     0.2     0.4     0.2
     0.2     0.3     0.4     0.4     0.3     0.3     0.4     0.4     0.3     0.3
     0.2     0.3     0.4     0.4     0.4     0.4     0.6     0.6     0.4     0.4
     0.3     0.3     0.1     0.1     0.4     0.4     0.4     0.2     0.2     0.3
     0.3     0.4     0.2     0.3     0.3     0.2     0.3     0.2     0.4     0.3
     0.2     0.1     0.0     0.2     0.2     0.3     0.4     0.2     0.2     0.5
     0.4     0.3     0.5     0.4     0.2     0.5     0.5     0.4     0.6     0.5
     0.4     0.3     0.1     0.3     0.5     0.3     0.3     0.3     0.2     0.3
     0.3     0.3     0.4     0.2     0.3     0.3     0.3     0.5     0.4     0.3
    -0.1     0.1     0.2     0.0     0.5     0.4     0.1     0.2     0.3     0.3
     0.3     0.4     0.4     0.3     0.5     0.5     0.2     0.3     0.5     0.4
     0.2     0.2     0.2     0.3     0.3     0.4     0.3     0.3     0.3     0.3
     0.5     0.4     0.4     0.4     0.2     0.4     0.5     0.3     0.5     0.4
     0.3     0.3     0.2     0.4     0.3     0.1     0.2     0.2     0.2     0.5
     0.6     0.5     0.5     0.3     0.2     0.2     0.2     0.2     0.1     0.2
     0.2     0.1     0.2     0.3     0.5     0.4     0.1     0.2    -0.0     0.2
     0.4     0.2     0.4     0.4     0.2     0.4     0.4     0.3     0.2     0.2
     0.1     0.1     0.1     0.2     0.3     0.3     0.3     0.2     0.2     0.3
     0.2     0.3     0.2     0.1     0.0     0.1     0.5     0.3     0.0     0.1
    -0.0     0.1     0.3     0.2     0.1     0.1     0.1    -0.1     0.1     0.3
     0.2     0.3     0.3     0.2     0.2     0.3     0.4     0.3     0.2     0.2
     0.2     0.0     0.1     0.4     0.4     0.2     0.2     0.2     0.1     0.4
     0.5     0.4     0.3     0.2     0.3     0.4     0.2     0.1     0.4     0.2
     0.2     0.3     0.3     0.4     0.3     0.3     0.3     0.2     0.3     0.1
     0.1     0.1     0.2     0.3     0.3     0.5     0.5     0.4     0.3     0.1
     0.2     0.3     0.4     0.5     0.5     0.5     0.2     0.0     0.3     0.4
     0.3     0.1     0.2     0.5     0.4     0.4     0.3     0.2     0.3     0.1
     0.1     0.4     0.6     0.4     0.3     0.3     0.1     0.3     0.5     0.6
     0.5     0.3     0.3     0.1     0.2     0.3     0.3     0.5     0.2     0.0
     0.1     0.3     0.5     0.4     0.3     0.2     0.1     0.2     0.4     0.4
     0.4     0.4     0.3     0.5     0.5     0.2     0.3     0.5     0.3     0.3
     0.4     0.2     0.4     0.5     0.4     0.2    -0.0     0.1     0.4     0.3
     0.3     0.4     0.2     0.3     0.4     0.5     0.3     0.2     0.3    -0.0
     0.1     0.4     0.3     0.3     0.3     0.2     0.3     0.4     0.3     0.3
     0.3     0.2     0.2     0.4     0.3     0.4     0.6     0.3     0.2     0.1
     0.1     0.4     0.4     0.2     0.2     0.3     0.3     0.4     0.6     0.4
     0.3     0.3     0.2     0.2     0.3     0.3     0.4     0.2     0.2     0.4
     0.2     0.2     0.3     0.2     0.1     0.1     0.2     0.2     0.2     0.3
     0.3    -0.1    -0.0     0.2     0.2     0.3     0.2     0.1     0.0     0.2
     0.3     0.2     0.4     0.3     0.0    -0.0     0.2     0.4     0.1     0.2
     0.2     0.1     0.4     0.3     0.6     0.6     0.2     0.2     0.1     0.2
     0.2     0.3     0.3     0.1     0.2     0.1    -0.0     0.1     0.3     0.4
     0.3     0.3     0.2     0.2     0.4     0.2     0.1    -0.0    -0.0     0.3
     0.3     0.3     0.4     0.0    -0.2     0.1     0.1     0.3     0.6     0.3
     0.3     0.2     0.2     0.4     0.3     0.4     0.2     0.1     0.3     0.1
     0.3     0.5     0.3     0.2     0.2     0.1    -0.0     0.2     0.5     0.3
     0.2     0.2     0.2     0.3     0.2     0.2     0.2     0.3     0.3     0.0
     0.1     0.2     0.1     0.2     0.1     0.1     0.3     0.2     0.3     0.2
     0.1     0.3     0.2     0.3     0.4     0.2     0.2     0.2     0.0     0.1
     0.2     0.3     0.3     0.2     0.2     0.3     0.3     0.3     0.4     0.3
     0.1     0.3     0.3     0.3     0.3     0.2     0.1     0.0     0.1     0.4
     0.3     0.3     0.3     0.4     0.3     0.4     0.4     0.3     0.4     0.2
     0.1     0.2     0.1     0.3     0.3     0.3     0.3     0.2     0.1     0.2
     0.3     0.3     0.2     0.1     0.2     0.3     0.3     0.3     0.1     0.2
     0.3     0.1     0.3     0.4     0.3     0.2     0.0     0.0     0.2     0.4
     0.4     0.2     0.0    -0.1     0.2     0.4     0.3     0.3     0.4     0.1
    -0.1     0.2     0.3     0.3     0.4     0.3     0.1     0.0     0.2     0.3
     0.3     0.2     0.2     0.1     0.1     0.2     0.2     0.2     0.4     0.3
     0.1     0.2     0.4     0.5     0.4     0.1    -0.1     0.1     0.2     0.3
     0.4     0.1     0.1     0.3     0.4     0.4     0.5     0.3     0.3     0.4
     0.1     0.4     0.5     0.3     0.5     0.1     0.1     0.2    -0.0     0.3
     0.4     0.2     0.3     0.2     0.1     0.2     0.5     0.4     0.4     0.4
     0.1     0.2     0.3     0.3     0.3     0.0     0.1     0.1     0.1     0.2
     0.1     0.1     0.1     0.1     0.3     0.3     0.3     0.4     0.1     0.2
     0.6     0.4     0.4     0.4     0.4     0.3    -0.1    -0.0     0.2     0.1
     0.2     0.1     0.0     0.2     0.4     0.6     0.5     0.2     0.2     0.2
     0.1     0.3     0.6     0.4     0.4     0.1     0.2     0.3     0.1     0.3
     0.3     0.1     0.2     0.2     0.4     0.6     0.5     0.4     0.4     0.4
     0.1     0.1     0.2     0.3     0.2     0.1     0.2     0.3     0.3     0.4
     0.3     0.3     0.4     0.2     0.3     0.4     0.5     0.5     0.1     0.1
     0.1     0.2     0.5     0.4     0.2     0.2     0.1     0.2     0.5     0.6
     0.5     0.1    -0.0    -0.0     0.2     0.1     0.1     0.3     0.2     0.3
     0.6     0.6     0.7     0.4     0.4     0.2    -0.0     0.1     0.3     0.4
     0.4     0.2     0.1     0.1     0.2     0.3     0.4     0.2    -0.1     0.1
     0.3     0.4     0.5     0.5     0.4     0.2     0.2     0.1     0.1     0.3
     0.2    -0.0     0.0     0.3     0.4     0.6     0.7     0.4     0.4     0.3
     0.1     0.1    -0.1    -0.1     0.0    -0.1    -0.0     0.3     0.4     0.4
     0.2     0.2     0.2     0.2     0.5     0.7     0.4     0.3     0.3     0.2
     0.2     0.4     0.2    -0.0     0.2     0.1     0.0     0.1     0.2     0.4
     0.3     0.2     0.3     0.4     0.5     0.5     0.3     0.3     0.3     0.3
     0.3     0.2     0.0     0.1     0.1     0.2     0.4     0.4     0.4     0.5
     0.3     0.0    -0.1     0.2     0.2     0.0     0.3     0.3     0.2     0.2
     0.3     0.4     0.3     0.2     0.2     0.2     0.2     0.2     0.5     0.4
     0.2     0.3     0.2     0.2     0.3     0.2     0.1     0.2     0.3     0.4
     0.4     0.3     0.2     0.2    -0.0     0.1     0.4     0.3     0.2     0.2
     0.4     0.4     0.1    -0.0     0.3     0.3     0.2     0.3     0.3     0.3
     0.2     0.1     0.3     0.2     0.1     0.4     0.4     0.2     0.2     0.3
     0.2     0.3     0.3     0.3     0.4     0.3     0.2     0.1     0.0     0.3
     0.3     0.3     0.3     0.2     0.2     0.4     0.6     0.3     0.2     0.2
     0.1     0.2     0.3     0.4     0.4     0.3     0.3     0.2     0.3     0.3
     0.4     0.2     0.2     0.2    -0.0     0.2     0.4     0.4     0.4     0.2
     0.3     0.2     0.2     0.3     0.3     0.4     0.3     0.3     0.4     0.5
     0.3    -0.0     0.1     0.3     0.2     0.1     0.3     0.4     0.2     0.2
     0.2     0.2     0.4     0.3     0.4     0.5     0.4     0.3     0.3     0.4
     0.3     0.2     0.2     0.2     0.2     0.4     0.4     0.2     0.2     0.2
     0.4     0.2     0.3     0.6     0.2     0.1     0.5     0.4     0.1     0.3
     0.4     0.3    -0.0    -0.0     0.3     0.2     0.2     0.5     0.4     0.4
     0.3     0.4     0.5     0.4     0.4     0.2     0.1     0.1     0.2     0.6
     0.5     0.3     0.3     0.2     0.4     0.4     0.3     0.4     0.2     0.2
     0.2     0.1     0.2     0.2     0.3     0.1     0.1     0.3     0.2     0.4
     0.6     0.3     0.3     0.2     0.2     0.2     0.2     0.2     0.2     0.2
     0.2     0.2     0.3     0.2     0.1     0.1     0.2     0.3     0.2     0.4
     0.2     0.1     0.1    -0.1     0.0     0.2     0.2     0.2     0.2     0.2
     0.2     0.2     0.3     0.4     0.1     0.2     0.4     0.1     0.2     0.3
     0.1     0.1     0.0     0.1     0.4     0.3     0.4     0.3     0.0     0.2
     0.3     0.1     0.1     0.2     0.0     0.0     0.3     0.4     0.2     0.2
     0.4     0.1     0.1    -0.0     0.0     0.4     0.5     0.3     0.2     0.3
     0.2     0.4     0.3     0.3     0.5     0.0     0.2     0.3     0.2     0.3
     0.1     0.2     0.3     0.3     0.1     0.2     0.2     0.0     0.2     0.1
     0.1     0.2     0.3     0.4     0.2     0.3     0.4    -0.1     0.1     0.5
     0.3     0.1     0.0     0.2     0.3     0.2     0.1     0.1     0.1     0.2
     0.3     0.2     0.2     0.2     0.1     0.1     0.2     0.2     0.2     0.4
     0.2    -0.0     0.1     0.1     0.1     0.1    -0.0     0.2     0.1     0.2
     0.3     0.3     0.3     0.5     0.4     0.3     0.4     0.3     0.3     0.3
     0.3     0.3     0.2     0.4     0.3     0.2     0.4     0.2     0.1     0.3
     0.3     0.2     0.3     0.3     0.2     0.2     0.3     0.3     0.3     0.4
     0.2     0.1     0.3     0.4     0.3     0.3     0.3     0.4     0.2     0.1
     0.2     0.3     0.3     0.2     0.1     0.2     0.3     0.2     0.3     0.2
     0.1     0.3     0.3     0.3     0.3     0.2     0.0    -0.0     0.2     0.2
     0.2     0.5     0.5     0.2     0.2     0.1     0.2     0.3     0.1     0.2
     0.2    -0.1     0.0     0.3     0.4     0.2     0.3     0.3     0.2     0.3
     0.3     0.4     0.3    -0.0     0.0     0.2     0.3     0.4     0.2     0.0
     0.1     0.1     0.2     0.2     0.4     0.3     0.1     0.3     0.2     0.4
     0.6     0.3     0.3     0.3     0.2     0.4     0.3     0.4     0.3     0.2
     0.2     0.1     0.2     0.2     0.3     0.2     0.1     0.1     0.0     0.4
     0.3     0.2     0.4     0.2     0.3     0.2     0.3     0.3    -0.2    -0.0
     0.3     0.2     0.3     0.4     0.3     0.3     0.2     0.1     0.1     0.4
     0.3     0.2     0.3     0.2     0.2     0.3     0.2     0.3     0.3     0.3
     0.4     0.2     0.1     0.3     0.3     0.1     0.1     0.1     0.1     0.2
     0.4     0.4     0.2     0.1     0.2     0.3     0.3     0.5     0.2    -0.1
     0.2     0.3     0.2     0.2     0.3     0.3     0.4     0.3     0.1     0.3
     0.5     0.3     0.1     0.3     0.6     0.5     0.3     0.4     0.3     0.1
     0.0     0.2     0.6     0.7     0.4     0.1    -0.0     0.0     0.3     0.3
     0.2     0.4     0.4     0.4     0.3     0.4     0.6     0.3     0.1     0.1
     0.2     0.1     0.1     0.4     0.3     0.2     0.1     0.1     0.2     0.4
     0.5     0.2     0.2     0.1    -0.1     0.2     0.2     0.2     0.1     0.1
     0.3     0.3     0.3     0.2     0.2     0.2     0.1     0.2     0.3     0.2
     0.3     0.2     0.2     0.3     0.1     0.2     0.3     0.2     0.2     0.1
     0.3     0.4     0.3     0.3     0.0    -0.0     0.2     0.1     0.1     0.3
     0.3     0.2     0.2     0.2     0.4     0.4     0.5     0.2    -0.0     0.1
     0.1     0.2     0.3     0.2     0.2    -0.0    -0.1     0.1     0.5     0.4
     0.3     0.4     0.2     0.1     0.1     0.5     0.5     0.1     0.3     0.3
     0.2     0.2     0.3     0.5     0.4     0.4     0.0     0.2     0.4     0.3
     0.4     0.1     0.2     0.4     0.2     0.3     0.1     0.2     0.2     0.2
     0.3     0.2     0.4     0.5     0.3     0.2     0.3     0.3     0.2     0.4
     0.3     0.1     0.1     0.1     0.2     0.1     0.3     0.2     0.2     0.2
     0.2     0.3     0.2     0.3     0.0    -0.1     0.2     0.2     0.3     0.4
     0.2     0.1     0.1     0.3     0.4     0.3     0.3     0.1    -0.0     0.1
     0.2     0.3     0.3     0.4     0.4     0.2     0.3     0.5     0.3     0.3
     0.3     0.1     0.1     0.3     0.4     0.3     0.2     0.1     0.2     0.3
     0.2     0.4     0.4     0.2     0.2     0.2     0.2     0.4     0.4     0.2
     0.4     0.7     0.2     0.2     0.5     0.3     0.2     0.2     0.1     0.4
     0.4     0.3     0.3     0.1     0.1     0.1     0.2     0.4     0.3     0.3
     0.2     0.3     0.6     0.4     0.5     0.5     0.3     0.2     0.2     0.5
     0.4     0.4     0.1     0.2     0.3     0.1     0.2     0.2     0.4     0.4
     0.2     0.2     0.2     0.5     0.5     0.3     0.4     0.3     0.2     0.2
     0.3     0.4     0.3     0.1     0.1     0.3     0.2     0.3     0.4     0.1
     0.1     0.1     0.3     0.3     0.3     0.2     0.1     0.2     0.2     0.3
     0.4     0.3     0.4     0.4     0.1     0.2     0.2     0.2     0.4     0.2
     0.2     0.5     0.5     0.4     0.3     0.3     0.2     0.3     0.4     0.4
     0.5     0.5     0.2     0.1     0.2     0.3     0.4     0.5     0.6     0.5
     0.1     0.2     0.3     0.3     0.4     0.4     0.3     0.3     0.2     0.1
     0.3     0.3     0.4     0.2     0.2     0.3     0.4     0.3     0.1     0.1
     0.1     0.1     0.3     0.1     0.1     0.2     0.1     0.3     0.3     0.2
     0.4     0.3     0.0     0.1     0.4     0.4     0.4     0.2     0.1     0.3
     0.2     0.3     0.4     0.3     0.2     0.1     0.3     0.1     0.2     0.4
     0.2     0.4     0.3     0.3     0.4     0.2     0.3     0.3     0.2     0.3
     0.3     0.3     0.4     0.4     0.2     0.1     0.0     0.2     0.4     0.3
     0.3     0.2     0.1     0.1     0.2     0.3     0.4     0.3     0.4     0.2
     0.2     0.3     0.2     0.2     0.3     0.2     0.2     0.2     0.3     0.4
     0.4     0.4     0.1     0.1     0.2     0.2     0.3     0.5     0.3     0.2
     0.3     0.5     0.4     0.2     0.3    -0.0    -0.1     0.2     0.3     0.3
     0.3     0.3     0.1     0.1     0.3     0.1     0.2     0.4     0.2     0.1
     0.3     0.3     0.4     0.4     0.1     0.2     0.1     0.2     0.5     0.2
     0.3     0.4    -0.0     0.0     0.2     0.2     0.3     0.3     0.3     0.3
     0.2     0.4     0.5     0.3     0.1     0.1     0.1     0.1     0.1     0.1
     0.2     0.2     0.3     0.3     0.4     0.3     0.1     0.2     0.2     0.2
     0.2     0.1     0.3     0.3     0.1     0.1     0.3     0.4     0.3     0.2
     0.2     0.2     0.2     0.4     0.5     0.3     0.4     0.3     0.1     0.2
     0.3     0.2     0.2     0.4     0.2     0.0     0.2     0.3     0.3     0.3
     0.3     0.3     0.1     0.2     0.3     0.3     0.2    -0.0     0.2     0.3
     0.4     0.5     0.4     0.2     0.1     0.2     0.3     0.3     0.3     0.2
     0.3     0.4     0.3     0.5     0.5     0.3     0.4     0.3     0.1     0.2
     0.2     0.2     0.3     0.4     0.3     0.1     0.1     0.2     0.3     0.2
     0.1     0.2     0.1     0.0     0.4     0.5     0.2     0.3     0.2     0.2
     0.3     0.0     0.0     0.3     0.1     0.2     0.5     0.4     0.0     0.1
     0.3     0.2     0.2     0.6     0.6     0.6     0.4    -0.1    -0.0     0.1
     0.2     0.4     0.3     0.3     0.4     0.2     0.4     0.4    -0.0     0.2
     0.3     0.2     0.4     0.1     0.1     0.1     0.0     0.2     0.2     0.6
     0.9     0.6     0.4     0.2     0.2     0.0     0.1     0.1     0.0    -0.0
    -0.0     0.1     0.1     0.2     0.4     0.4     0.6     0.4     0.3     0.5
     0.1    -0.0     0.1     0.0     0.1     0.2     0.3     0.4     0.3     0.1
     0.0     0.2     0.3     0.3     0.4     0.5     0.4     0.2     0.1     0.1
     0.2     0.3     0.2     0.2     0.2     0.3     0.4     0.2     0.3     0.3
     0.2     0.2     0.2     0.2     0.1     0.0     0.2     0.2     0.1     0.2
     0.3     0.1     0.1     0.1     0.1    -0.0     0.1     0.4     0.2     0.3
     0.3     0.1     0.1     0.2     0.4     0.4     0.3     0.3     0.2     0.3
     0.3     0.3     0.3     0.1     0.1     0.1     0.0     0.1     0.1     0.0
     0.0     0.1     0.3     0.4     0.2    -0.0    -0.1     0.1     0.3     0.2
     0.3     0.3     0.0    -0.1    -0.3    -0.0     0.3     0.2     0.2     0.1
     0.2     0.2     0.1     0.3     0.2     0.1     0.1     0.1     0.1     0.3
     0.3     0.3     0.3    -0.0     0.0     0.2     0.1     0.3     0.2     0.0
     0.2     0.1     0.2     0.3     0.4     0.3     0.1     0.2     0.2     0.3
