Uncorrected accelerogram 20161113_110256_NEWS_20 GNS Science
Site NEWS      41 13 55S  174 49 18E     Basalt file:  20161113_110332_NEWS
Newlands
Instrument Basalt_1279
Resolution: 24-bit   Instr Period: 0.0050 s   Damping: 0.700
Accelerogram 20161113_110256_NEWS_20                 Processed 2016 December 09
5 km south-west of Waiau
2016 November 13         11:02:56 UT
Epicentre  42 41 33S 173 01 19E  Bearing S42W  Dist  220km  Depth   15km Mw 7.82
Number of points  57000    Duration 285.00 s
Raw readings in units of 1.00 mm/s/s  at intervals of 0.005 s
Data is unfiltered
Component N90W
Acceleration:  Peak  -1026.0 mm/s/s at 106.92 s     RMS    63.37 mm/s/s
Velocity record unevaluated
Displacement record unevaluated
    2016      11      13      11       2     560       0       0    2016      11
      42      41      33     173       1      19      15       0      13      11
      41      13      55     174      49      18     270     270     222     220
   57000       0       0   57000       0       0       0       0       2   52000
   200.0    0.70    0.00   0.000  0.0000   0.000   0.000   1.000     0.0    0.00
  41.232 174.822  42.693 173.022    7.82    0.00    0.00    0.00      0.      0.
  285.00    0.00    0.00  285.00  0.0050  0.0050      0.      0.      0.  9806.6
 -1026.0  106.92    63.4      0.      0.     0.0    0.00     0.0     0.0   0.000
    0.00    0.00    0.00    0.00   0.000    0.00    0.00    0.00    0.00   0.000
   0.000   0.000   0.000      0.      0.   0.000   0.000   0.000      0.      0.
    -0.0     0.0     0.1     0.0     0.1     0.0    -0.0     0.0     0.0     0.0
     0.0     0.0     0.1     0.0     0.0     0.1     0.0    -0.0     0.1     0.1
     0.0     0.0    -0.0    -0.0     0.0     0.0     0.1     0.1     0.0     0.0
    -0.0    -0.0     0.1     0.0     0.0     0.0     0.1     0.0     0.0     0.0
     0.0     0.0    -0.0     0.1     0.1    -0.0     0.1    -0.0     0.1     0.1
    -0.0     0.0     0.0     0.0     0.0     0.0     0.0     0.1     0.0    -0.0
     0.1     0.0     0.0     0.1     0.0     0.0     0.0     0.0     0.1     0.0
     0.0     0.0     0.0     0.1     0.0     0.0     0.1     0.1    -0.0     0.0
     0.1    -0.0     0.0     0.1     0.1     0.0    -0.0     0.0     0.0     0.0
     0.1     0.1    -0.0     0.0     0.0     0.0     0.1    -0.0     0.1     0.1
    -0.0     0.1    -0.0     0.0     0.1     0.0     0.0     0.0     0.1     0.0
     0.1     0.0     0.0     0.0    -0.0     0.0     0.1     0.0     0.0     0.0
     0.0     0.0     0.0     0.1     0.0     0.0     0.1     0.0     0.0     0.0
     0.0     0.0     0.0     0.1     0.0     0.0    -0.0     0.0     0.0     0.0
     0.1     0.0     0.0     0.0    -0.0     0.0     0.0     0.0     0.0     0.0
     0.0     0.0     0.0     0.0     0.0    -0.0     0.0     0.1    -0.0     0.0
     0.1     0.0     0.0     0.0     0.0     0.0     0.0     0.1    -0.0    -0.1
     0.1     0.1     0.0     0.0    -0.0     0.0     0.1     0.0    -0.0     0.0
     0.1     0.1     0.1     0.0    -0.0     0.0     0.0     0.0     0.0     0.0
     0.1    -0.0     0.0     0.1    -0.0     0.0     0.0    -0.0     0.1     0.0
     0.0     0.1    -0.0     0.0     0.1     0.0     0.0    -0.0     0.0     0.1
     0.0     0.0     0.0     0.1     0.0    -0.0     0.0     0.0     0.0     0.0
     0.1     0.0     0.0     0.1    -0.0     0.0     0.1    -0.0     0.1     0.0
     0.0     0.0     0.0     0.0     0.0     0.0     0.0     0.0     0.1    -0.0
    -0.0     0.0     0.1     0.0    -0.0     0.1     0.0     0.0     0.1    -0.0
     0.0     0.1    -0.0     0.0    -0.0     0.0     0.1     0.0     0.0     0.1
    -0.0     0.0     0.1    -0.0     0.0     0.0     0.1     0.1    -0.0     0.1
     0.1     0.0     0.1     0.0     0.0    -0.0     0.1     0.0     0.1     0.0
    -0.0     0.1    -0.0     0.0     0.1     0.0     0.0     0.1     0.0    -0.0
     0.1     0.0     0.0    -0.0    -0.0     0.1     0.0     0.1     0.1    -0.0
     0.0    -0.0     0.0     0.0     0.0     0.1     0.0     0.1     0.1     0.0
     0.0     0.0     0.0    -0.0     0.1     0.0     0.0     0.1     0.0     0.1
     0.1     0.0     0.0     0.0    -0.0     0.0     0.1     0.0     0.0    -0.0
     0.0     0.1     0.0     0.1     0.0     0.0     0.1     0.0     0.0     0.0
    -0.0     0.0     0.1     0.1     0.0     0.0     0.0     0.0     0.0    -0.0
     0.0     0.1    -0.0     0.0     0.1     0.0     0.0     0.0     0.0     0.1
    -0.0     0.1     0.1    -0.0     0.0    -0.0     0.0     0.0     0.0     0.0
     0.0     0.1     0.1     0.0     0.0     0.0    -0.0     0.0     0.1     0.0
     0.0     0.0     0.0     0.0     0.1     0.0    -0.0     0.0     0.0     0.1
     0.1     0.1     0.1     0.0    -0.0     0.1     0.0     0.0     0.0     0.1
     0.0    -0.0     0.0     0.1     0.1     0.1     0.0     0.0     0.0     0.0
     0.0     0.1     0.0     0.1     0.1    -0.0     0.0    -0.0    -0.0     0.1
     0.0     0.0     0.1     0.0     0.0     0.0     0.0     0.1     0.1     0.0
     0.0     0.0     0.0     0.0    -0.0     0.1     0.1     0.0     0.0     0.0
     0.1    -0.0     0.0     0.0    -0.0     0.1     0.0     0.0     0.1     0.0
     0.0     0.0     0.0     0.1     0.0     0.0     0.1     0.0    -0.0     0.0
     0.0     0.1     0.0     0.0     0.0     0.0     0.0     0.0     0.1     0.0
     0.0     0.0     0.0     0.1    -0.0     0.0     0.0    -0.0     0.1     0.0
     0.1     0.0     0.0     0.1    -0.0     0.0     0.0    -0.0     0.1     0.0
    -0.0     0.1     0.0     0.0     0.0     0.0     0.1     0.1     0.0     0.0
    -0.0     0.1     0.1     0.0     0.0     0.0     0.0     0.0     0.0     0.0
     0.0     0.0     0.1     0.0    -0.0     0.0     0.0     0.0     0.0     0.0
    -0.0     0.1     0.1    -0.0     0.1     0.1     0.1    -0.0     0.0     0.1
     0.0     0.1    -0.0     0.0     0.0    -0.0     0.1     0.0     0.1     0.0
     0.0     0.1    -0.0     0.1     0.0     0.0     0.1    -0.0     0.0    -0.0
     0.0     0.1     0.1     0.1    -0.1     0.1     0.0     0.0     0.0    -0.0
     0.1     0.0     0.0     0.0    -0.0     0.0     0.1     0.0     0.0     0.0
    -0.0     0.0     0.0     0.0     0.0    -0.0    -0.0     0.0     0.0     0.0
     0.0    -0.0     0.0     0.0    -0.0     0.1     0.0     0.1     0.1    -0.0
     0.0    -0.0    -0.0     0.0     0.1     0.0    -0.0     0.1     0.0     0.0
    -0.0     0.0     0.0    -0.0     0.1     0.1     0.0     0.1     0.1    -0.0
     0.0     0.0     0.0     0.0     0.0     0.0     0.0     0.0     0.0    -0.0
     0.0     0.1     0.1     0.1    -0.0     0.0    -0.0    -0.0     0.0     0.0
     0.1     0.0     0.0     0.0    -0.0     0.1     0.0     0.1     0.0    -0.0
     0.0    -0.0     0.1     0.0     0.0     0.1     0.0     0.0     0.0     0.0
     0.0     0.1     0.1     0.0     0.0     0.0     0.0     0.0     0.1     0.1
     0.0     0.0     0.0     0.0    -0.0     0.0     0.1     0.0     0.0    -0.0
     0.0     0.1     0.0     0.0     0.0     0.0     0.1     0.0     0.1     0.1
    -0.1     0.0     0.0     0.0     0.0    -0.0     0.1     0.0     0.0     0.0
    -0.0     0.0     0.0     0.1     0.1     0.0     0.0    -0.0     0.1     0.0
     0.0     0.1    -0.1     0.1     0.1    -0.0     0.0    -0.0     0.1     0.0
    -0.0     0.1     0.0     0.1    -0.0     0.0     0.1    -0.0     0.1    -0.0
     0.1     0.1    -0.0     0.0    -0.0     0.1     0.0     0.0     0.0    -0.0
     0.1    -0.0     0.0     0.1     0.1     0.0     0.0     0.0     0.0     0.0
    -0.0    -0.0     0.0     0.0     0.1     0.1     0.0     0.1     0.0     0.0
     0.0     0.0     0.0    -0.0     0.0     0.1     0.0     0.0     0.0     0.0
     0.0     0.0    -0.0    -0.0     0.0     0.1     0.1     0.0     0.0     0.0
     0.0     0.0     0.1     0.0     0.0     0.0     0.0     0.0     0.0     0.0
     0.0     0.1     0.1     0.0     0.1     0.0     0.1     0.0     0.0     0.1
    -0.0     0.0     0.0    -0.0     0.0     0.0     0.0     0.0     0.1     0.1
     0.1     0.0    -0.0     0.0     0.1     0.1     0.0    -0.0     0.0    -0.0
     0.0     0.0     0.0     0.1     0.0     0.0     0.0    -0.0     0.0     0.1
     0.1     0.0     0.1     0.0     0.0     0.1     0.0     0.0     0.0     0.0
     0.0    -0.0     0.1     0.0    -0.0     0.0    -0.0     0.1     0.1     0.1
     0.0    -0.0     0.0     0.0     0.0     0.0     0.1     0.0     0.0     0.1
    -0.0     0.0     0.1     0.0     0.0     0.0    -0.0     0.0     0.1     0.0
     0.0     0.0     0.0     0.0     0.1     0.0     0.0     0.0     0.0     0.0
     0.1     0.1    -0.0    -0.0     0.0     0.0     0.1     0.0     0.0     0.0
     0.0     0.1     0.1    -0.0     0.0     0.0    -0.0     0.0     0.0     0.0
     0.1     0.1    -0.0     0.0     0.0     0.0     0.1     0.0     0.1     0.0
    -0.0     0.1     0.0    -0.0     0.0    -0.0     0.1     0.1     0.0     0.0
     0.1     0.1     0.0     0.0     0.0     0.0     0.1     0.0     0.0     0.0
     0.0     0.1     0.0     0.1     0.0    -0.0     0.0     0.0    -0.0     0.1
     0.1    -0.0    -0.0     0.0     0.0     0.1     0.0     0.0     0.0     0.0
     0.0     0.1     0.1     0.0     0.1     0.0     0.0     0.1     0.0     0.0
     0.0     0.0     0.1     0.1    -0.0     0.1     0.0     0.0     0.1     0.0
     0.0     0.0     0.0     0.1     0.0     0.0     0.0     0.1     0.1    -0.0
     0.0     0.0     0.1     0.1     0.0     0.0     0.0     0.0     0.1     0.0
     0.0     0.0     0.0     0.0     0.0     0.0     0.1     0.1    -0.0    -0.0
     0.1     0.0     0.0     0.0     0.0     0.1     0.0     0.0     0.1     0.0
     0.0     0.1    -0.0     0.0     0.1     0.0     0.0     0.0     0.0     0.1
     0.0     0.1     0.0    -0.0     0.1     0.0    -0.0     0.1     0.0     0.1
     0.0     0.0     0.1     0.0     0.0     0.1     0.0     0.0     0.1    -0.0
    -0.0     0.0     0.0     0.1     0.0     0.1     0.0     0.0     0.1     0.0
     0.1    -0.0    -0.0     0.1     0.0     0.0     0.0    -0.0     0.0     0.0
     0.0     0.1    -0.0     0.0     0.1    -0.0     0.1    -0.0     0.0     0.0
     0.0     0.0     0.0     0.0     0.1     0.0     0.0     0.1     0.1    -0.0
     0.0     0.1     0.1    -0.0     0.0     0.0     0.1     0.0    -0.0     0.1
     0.0     0.0     0.0     0.0     0.0     0.0     0.0     0.0     0.0     0.0
     0.0     0.0     0.1    -0.0     0.0     0.1     0.0     0.0     0.0    -0.0
     0.0     0.1     0.0     0.0     0.0     0.0     0.0     0.0    -0.0     0.1
     0.1    -0.0     0.1     0.1     0.0     0.0     0.0    -0.0    -0.0     0.1
     0.0     0.0     0.0     0.0     0.1     0.0     0.0     0.0     0.0     0.0
     0.0     0.0     0.0     0.0     0.0     0.0     0.0     0.1     0.1     0.0
     0.0     0.0    -0.0     0.0     0.0     0.0     0.0     0.0     0.1     0.1
     0.0     0.0     0.1     0.0     0.0     0.1     0.1     0.0     0.0     0.0
     0.0     0.0     0.0     0.0    -0.0     0.0     0.1     0.1     0.0     0.0
    -0.0     0.0     0.0     0.1     0.0     0.0     0.0    -0.0     0.1     0.0
     0.1     0.0    -0.0     0.1     0.0     0.0     0.0    -0.0     0.1     0.0
    -0.0     0.0     0.0     0.0     0.0     0.1     0.0     0.0     0.1    -0.0
     0.1     0.0     0.0     0.1    -0.0     0.0     0.0     0.0     0.1     0.1
     0.1     0.0     0.0     0.0     0.0     0.0     0.0     0.0     0.1     0.0
     0.0     0.0     0.0     0.0     0.0     0.1     0.1     0.0     0.0     0.0
     0.1     0.0     0.0     0.0     0.0     0.0     0.0     0.1     0.0     0.0
     0.1     0.0     0.0     0.0     0.0     0.0     0.0     0.0     0.1     0.0
     0.0     0.0     0.0     0.1     0.0     0.0     0.1    -0.0     0.0     0.0
     0.0     0.1     0.0     0.0     0.0     0.0     0.1     0.1     0.0     0.0
     0.0     0.0     0.0     0.1     0.0     0.0     0.0     0.0     0.0     0.1
    -0.0     0.0     0.1     0.0     0.0     0.0     0.0    -0.0     0.0     0.1
     0.1     0.0     0.0    -0.0     0.0     0.1     0.0     0.1     0.0     0.0
     0.0     0.0     0.1     0.0    -0.0     0.0     0.0     0.0     0.0     0.1
     0.0    -0.0     0.0     0.0     0.0     0.0    -0.0     0.1     0.1    -0.0
     0.0     0.0     0.0     0.0     0.0     0.1     0.0     0.0     0.0     0.0
     0.1     0.0    -0.0     0.0     0.0     0.0     0.0     0.1     0.1     0.0
     0.0     0.0     0.0     0.0     0.0     0.0     0.0     0.0     0.0     0.0
     0.1    -0.0    -0.0     0.0     0.0    -0.0     0.1     0.0     0.0     0.1
     0.0     0.0     0.0     0.0     0.0     0.0     0.1     0.0    -0.0     0.0
     0.0     0.0     0.0    -0.0    -0.0     0.1     0.0    -0.0     0.0     0.0
     0.1     0.1    -0.0     0.0     0.0     0.0     0.0     0.0     0.1     0.0
     0.0     0.1     0.0    -0.0    -0.0     0.0     0.1     0.1     0.0     0.0
     0.0    -0.0     0.0     0.0     0.0     0.0    -0.0     0.1     0.0     0.0
     0.0     0.0     0.1     0.0     0.0     0.1     0.0     0.0     0.1     0.0
     0.0     0.0     0.0     0.1     0.0     0.0     0.0     0.1     0.0    -0.0
     0.1     0.0     0.0     0.1     0.0     0.0     0.0    -0.0     0.0     0.0
     0.1     0.0     0.0     0.1     0.0     0.0     0.1     0.0     0.0     0.0
     0.0     0.0    -0.0     0.0     0.0     0.1     0.1     0.1     0.0    -0.0
     0.0     0.0     0.0     0.1     0.0    -0.0     0.0     0.1     0.0    -0.0
     0.1     0.1    -0.0     0.1    -0.0     0.0     0.1     0.0     0.0     0.0
     0.0     0.0     0.0     0.0     0.1     0.1     0.0     0.1     0.0     0.0
     0.0     0.0     0.0     0.0     0.0    -0.0     0.0     0.0     0.1     0.1
     0.0     0.1     0.0     0.0     0.0     0.0     0.1     0.0     0.0     0.0
     0.0     0.0     0.0     0.0     0.0     0.0     0.1     0.0     0.0     0.1
     0.0     0.0     0.1     0.0     0.0     0.0     0.0     0.0     0.1     0.1
     0.0     0.0     0.0     0.0     0.1    -0.0    -0.0     0.1     0.1     0.1
     0.1    -0.0     0.0     0.1     0.0     0.0     0.0    -0.0     0.0     0.1
     0.0     0.0     0.0     0.0     0.1     0.0    -0.0     0.0    -0.0     0.0
     0.1    -0.0     0.1     0.1    -0.0     0.0     0.0     0.0     0.0     0.0
     0.1     0.1     0.0     0.0     0.0    -0.0     0.0     0.1    -0.0     0.0
     0.1     0.0     0.0     0.0    -0.0     0.0     0.1     0.1    -0.0     0.0
     0.1     0.0     0.1     0.0     0.0     0.0     0.0     0.1     0.0     0.0
     0.0     0.0     0.0     0.0     0.1     0.0    -0.0    -0.0     0.0     0.1
     0.1     0.0     0.0     0.0     0.1     0.1    -0.0     0.0     0.0     0.0
     0.1     0.1     0.0     0.0     0.1     0.0     0.0     0.1     0.0     0.0
     0.0     0.0     0.1     0.1    -0.0     0.0     0.0     0.0     0.0     0.0
     0.0     0.0     0.0     0.0     0.0     0.0     0.0     0.0     0.0     0.1
     0.0     0.0     0.0     0.1     0.1     0.0     0.0     0.0     0.0     0.0
     0.0     0.1     0.1     0.0     0.0    -0.0     0.0     0.1     0.0    -0.0
     0.1     0.1     0.0     0.0    -0.0     0.1     0.0     0.1     0.1     0.0
     0.1     0.0     0.0     0.0     0.0     0.0     0.0     0.1     0.0     0.0
     0.0     0.0     0.0     0.0     0.1     0.1     0.0     0.0     0.0     0.0
    -0.0    -0.0     0.0     0.1     0.1     0.1     0.0    -0.0     0.0     0.1
     0.0     0.0     0.0     0.0     0.0     0.1    -0.0     0.1     0.1     0.0
     0.0     0.0     0.0     0.0     0.0     0.0     0.0    -0.0     0.0     0.1
     0.0     0.1     0.0     0.0     0.1     0.0     0.1     0.0    -0.0     0.0
     0.0     0.0     0.0    -0.0     0.1     0.1    -0.0     0.1     0.1     0.0
     0.0     0.1     0.0     0.0     0.0     0.0     0.1     0.0     0.0     0.1
     0.0     0.1     0.0     0.1     0.0    -0.0     0.0     0.0     0.1     0.0
     0.1     0.1     0.1     0.0     0.0     0.1     0.0     0.0    -0.0     0.0
     0.1     0.1     0.1    -0.0     0.0    -0.0    -0.0     0.1    -0.0     0.0
     0.1    -0.0     0.1     0.1     0.0     0.1    -0.0     0.0     0.0     0.0
     0.1    -0.0     0.0     0.0    -0.1     0.1     0.1    -0.0     0.0     0.1
     0.1     0.1     0.0     0.0     0.0     0.0     0.0     0.0     0.1     0.0
     0.0     0.0     0.0     0.1     0.1     0.0     0.0     0.0     0.0     0.1
    -0.0    -0.0     0.0     0.0     0.1     0.1     0.0     0.0     0.0     0.0
     0.1     0.1     0.0     0.0     0.0    -0.0     0.0     0.1     0.0     0.0
    -0.0     0.0     0.1     0.0    -0.0     0.0     0.0     0.0     0.0     0.0
     0.0     0.0     0.0     0.0     0.0     0.0     0.0    -0.0     0.0     0.1
     0.0    -0.0     0.1     0.1     0.0     0.0    -0.0     0.0     0.1     0.0
     0.1     0.1    -0.0     0.0     0.0     0.0    -0.0    -0.0     0.1     0.0
     0.1     0.1     0.0     0.1     0.0     0.0     0.0     0.0     0.0     0.1
     0.0    -0.0     0.0    -0.0     0.0     0.0     0.1     0.1     0.0     0.0
     0.1     0.0    -0.0     0.0     0.1     0.0     0.0     0.0     0.0     0.0
     0.1     0.1     0.0     0.0    -0.0     0.0     0.0     0.1     0.0    -0.0
     0.0    -0.0    -0.0     0.1     0.1     0.0     0.1     0.0    -0.0     0.0
     0.0     0.1     0.0     0.0     0.1    -0.0     0.0     0.0     0.1     0.0
     0.0     0.1     0.0     0.0     0.0    -0.0     0.0     0.1     0.0     0.0
     0.1     0.0     0.1     0.0     0.0     0.0     0.0     0.1    -0.0     0.1
     0.1     0.0     0.1    -0.0     0.0     0.0     0.1     0.1     0.0     0.1
     0.0     0.0     0.0     0.0     0.0     0.0     0.1     0.0     0.0     0.0
     0.1     0.1     0.0     0.0     0.0     0.0     0.0     0.0     0.0     0.0
     0.0     0.1     0.0     0.0     0.1    -0.0     0.1     0.1    -0.0     0.0
     0.0     0.1     0.0    -0.0     0.1     0.0    -0.0     0.0     0.0     0.0
     0.1     0.0     0.0     0.0     0.0     0.0     0.0     0.0     0.0    -0.0
     0.1     0.1    -0.0     0.0     0.0     0.1     0.1    -0.0     0.0     0.1
     0.0     0.0     0.0     0.0     0.1     0.1     0.1     0.0    -0.0    -0.0
     0.0     0.1     0.0    -0.0     0.0     0.1     0.1     0.0     0.1     0.0
    -0.0     0.0     0.0     0.1     0.0     0.0     0.0     0.0     0.0     0.0
     0.0     0.0     0.1     0.1     0.0     0.0     0.0     0.0     0.0     0.1
     0.1     0.1     0.1     0.1     0.0    -0.0     0.0     0.0     0.1     0.1
     0.0     0.1     0.1    -0.0     0.0     0.0     0.0     0.1     0.1     0.1
     0.1     0.0     0.0     0.1     0.0     0.0     0.1     0.0     0.0     0.1
    -0.0     0.0     0.1     0.1     0.0    -0.0     0.1     0.0    -0.0     0.1
     0.0     0.0     0.1     0.0     0.1     0.0     0.0     0.1     0.0     0.0
    -0.0     0.1     0.1     0.0     0.0    -0.0     0.0     0.0     0.1     0.0
     0.0     0.1     0.0     0.0     0.0     0.1    -0.0     0.1     0.0    -0.0
     0.1     0.0     0.0     0.1    -0.0     0.0     0.1     0.0     0.0     0.0
     0.0     0.0     0.0     0.1    -0.0     0.0     0.0    -0.0     0.1     0.0
     0.1     0.0    -0.0     0.1     0.0     0.1     0.1     0.0     0.0     0.0
     0.1     0.1     0.0    -0.0     0.0     0.1    -0.0     0.0     0.0     0.0
     0.1    -0.0     0.1     0.0    -0.0     0.1     0.0     0.0     0.0     0.0
     0.1     0.1     0.0     0.0     0.0     0.0     0.1     0.0     0.0     0.1
     0.0     0.0     0.1     0.0     0.0     0.1     0.0     0.0     0.0     0.0
     0.0     0.0     0.1     0.0     0.1     0.1     0.0    -0.0    -0.0     0.0
     0.0     0.0    -0.0     0.1     0.1    -0.0     0.1     0.0     0.0     0.0
     0.0     0.1    -0.0     0.1     0.0     0.0     0.0     0.0     0.0     0.0
    -0.0    -0.0     0.1     0.1     0.0     0.0     0.0     0.0     0.0     0.0
     0.0     0.1     0.0     0.0     0.1    -0.0     0.0     0.1     0.0     0.1
