Uncorrected accelerogram 20161113_110256_CECS_20 GNS Science
Site CECS      42 48 49S  173 16 30E     Basalt file:  20161113_110303_CECS
Cheviot Emergency Centre
Instrument Basalt_2428
Resolution: 24-bit   Instr Period: 0.0050 s   Damping: 0.700
Accelerogram 20161113_110256_CECS_20                 Processed 2016 December 09
5 km south-west of Waiau
2016 November 13         11:02:56 UT
Epicentre  42 41 33S 173 01 19E  Bearing N57W  Dist   25km  Depth   15km Mw 7.82
Number of points  65536    Duration 327.68 s
Raw readings in units of 1.00 mm/s/s  at intervals of 0.005 s
Data is unfiltered
Component S84E
Acceleration:  Peak   2827.7 mm/s/s at  67.05 s     RMS   275.19 mm/s/s
Velocity record unevaluated
Displacement record unevaluated
    2016      11      13      11       2     560       0       0    2016      11
      42      41      33     173       1      19      15       0      13      11
      42      48      49     173      16      30      96      96     303      25
   65536       0       0   65536       0       0       0       0       2   23000
   200.0    0.70    0.00   0.000  0.0000   0.000   0.000   1.000     0.0    0.00
  42.813 173.275  42.693 173.022    7.82    0.00    0.00    0.00      0.      0.
  327.68    0.00    0.00  327.68  0.0050  0.0050      0.      0.      0.  9806.6
  2827.7   67.05   275.2      0.      0.     0.0    0.00     0.0     0.0   0.000
    0.00    0.00    0.00    0.00   0.000    0.00    0.00    0.00    0.00   0.000
   0.000   0.000   0.000      0.      0.   0.000   0.000   0.000      0.      0.
     0.0     0.1     0.1     0.0     0.0     0.1     0.1     0.0     0.0     0.1
     0.1     0.1     0.0     0.1     0.1     0.0     0.1     0.1     0.1     0.1
     0.1     0.1     0.1     0.1     0.1     0.1     0.1     0.1     0.1     0.1
     0.1     0.1    -0.0     0.1     0.2     0.1     0.1     0.0     0.1     0.1
     0.0     0.1     0.1     0.1     0.1     0.0     0.1     0.1     0.1     0.1
     0.1     0.1     0.0     0.1     0.1     0.1     0.0     0.0     0.1     0.1
     0.1     0.0     0.1     0.1     0.0     0.1     0.1     0.0     0.1     0.0
     0.1     0.1     0.0     0.0     0.1     0.1     0.0     0.1     0.1     0.1
     0.1     0.0     0.1     0.1     0.1     0.1    -0.0     0.2     0.1     0.0
     0.1     0.0     0.1     0.1     0.0     0.1     0.0     0.1     0.1     0.1
     0.1     0.1     0.1     0.1     0.1     0.1     0.1     0.1     0.1     0.0
     0.0     0.1     0.1     0.0     0.1     0.1     0.1     0.1     0.0     0.1
     0.1     0.1     0.1     0.1     0.1     0.1     0.1     0.1     0.1     0.0
     0.0     0.1     0.1     0.1     0.0     0.1     0.1     0.1     0.0     0.1
     0.1     0.1     0.1     0.1     0.1     0.1     0.1     0.1     0.1     0.1
     0.1     0.0     0.0     0.1     0.1     0.0     0.1     0.1     0.0     0.1
     0.1     0.1     0.0     0.0     0.1     0.1     0.1     0.0     0.0     0.1
     0.1     0.0     0.1     0.1     0.1     0.1     0.1     0.0     0.1     0.1
     0.0     0.1     0.0     0.1     0.1     0.0     0.1     0.0     0.0     0.1
     0.1     0.1     0.0     0.1     0.1     0.1     0.1     0.1     0.1     0.1
     0.1     0.1     0.1     0.1     0.1     0.0     0.1     0.1     0.0     0.1
     0.1     0.1     0.0     0.1     0.1     0.1     0.0     0.1     0.1     0.0
     0.1     0.1     0.1     0.1     0.1     0.0     0.1     0.1     0.1     0.0
     0.1     0.1     0.1     0.1     0.1     0.1     0.0     0.0     0.1     0.1
     0.0     0.0     0.1     0.1     0.0     0.0     0.1     0.1     0.1     0.0
     0.1     0.1     0.1     0.0     0.1     0.1     0.1     0.1     0.1     0.1
     0.1     0.1     0.1     0.1     0.1     0.1     0.1     0.1     0.1     0.0
     0.1     0.1     0.1     0.1     0.0     0.1     0.1     0.0     0.0     0.1
     0.1     0.0     0.1     0.1     0.1     0.1     0.1     0.1     0.0     0.1
     0.0     0.0     0.1     0.1     0.0     0.1     0.1     0.1     0.0     0.1
     0.1     0.0     0.0     0.1     0.1     0.1     0.1     0.1     0.1     0.1
     0.1     0.1     0.1     0.1     0.1     0.0     0.1     0.1     0.0     0.1
     0.1     0.1     0.0     0.1     0.1     0.1     0.1     0.0     0.1     0.1
     0.1     0.0     0.1     0.1     0.1     0.0     0.1     0.1     0.1     0.1
     0.0     0.1     0.1     0.0     0.1     0.1     0.1     0.1     0.1     0.1
     0.1     0.0     0.1     0.1     0.1     0.0     0.0     0.1     0.1     0.0
     0.0     0.1     0.1     0.0     0.1     0.1     0.1     0.1     0.1     0.0
     0.1     0.1     0.1     0.1     0.0     0.1     0.1     0.1     0.1     0.0
     0.1     0.0     0.1     0.1    -0.0     0.1     0.1     0.1     0.0     0.0
     0.1     0.1     0.1     0.1     0.1     0.1     0.0     0.1     0.0     0.1
     0.1     0.0     0.1     0.1     0.0     0.1     0.0     0.1     0.0     0.1
     0.1     0.1     0.0     0.1     0.1     0.1     0.0     0.1     0.1     0.1
     0.1     0.1     0.1     0.1     0.1     0.0     0.1     0.1     0.1     0.1
     0.1     0.1     0.0     0.1     0.1     0.1     0.1     0.0     0.0     0.1
     0.0     0.0     0.1     0.1     0.1     0.0     0.0     0.1     0.1     0.0
     0.0     0.1     0.0     0.1     0.1     0.0     0.1    -0.0     0.1     0.1
     0.0     0.1     0.0     0.1     0.1     0.0     0.1     0.1     0.1     0.0
     0.1     0.1     0.1     0.1     0.0     0.1     0.1     0.0     0.0     0.1
     0.1     0.1     0.1     0.0     0.0     0.1     0.0     0.0     0.1     0.1
     0.0     0.1     0.1     0.1     0.0     0.1     0.1     0.0     0.0     0.1
     0.1     0.1     0.0     0.0     0.1     0.1     0.1     0.1     0.1     0.1
     0.1     0.0     0.0     0.1     0.1     0.0     0.1     0.1     0.0     0.1
     0.1     0.1     0.0     0.0     0.1     0.0     0.0     0.1     0.0     0.1
     0.1     0.0     0.0     0.1     0.1     0.0     0.0     0.1     0.1     0.1
     0.1     0.1     0.1     0.1     0.0     0.1     0.1     0.0     0.1     0.1
     0.1     0.0     0.0     0.1     0.1     0.0     0.0     0.1     0.1     0.0
     0.1     0.1     0.1     0.1     0.0     0.0     0.1     0.1     0.0     0.0
     0.1     0.0     0.0     0.1     0.1     0.1     0.0     0.1     0.1     0.1
     0.0     0.0     0.1     0.1     0.0     0.1     0.1     0.0     0.1     0.1
     0.0     0.1     0.1     0.0     0.1     0.1     0.1     0.0     0.1     0.1
     0.0     0.0     0.1     0.1     0.0     0.1     0.1     0.1     0.1     0.0
     0.1     0.1     0.1     0.0     0.1     0.1     0.1     0.1    -0.0     0.1
     0.1     0.0     0.1     0.1     0.1     0.0     0.0     0.1     0.0     0.0
     0.1     0.1     0.1     0.1     0.0     0.1     0.1     0.0     0.0     0.1
     0.1     0.1     0.0     0.1     0.1     0.1     0.1     0.0     0.1     0.1
     0.1     0.1     0.1     0.1     0.0     0.1     0.1     0.0     0.0     0.0
     0.1     0.1     0.0     0.1     0.1     0.1     0.0     0.1     0.1     0.1
     0.1     0.0     0.0     0.1     0.0     0.0     0.1     0.1     0.1     0.0
     0.1     0.1     0.0     0.1     0.1     0.1     0.0     0.1     0.1     0.1
     0.1     0.0     0.1     0.1     0.0     0.1     0.1     0.1     0.1     0.0
     0.0     0.1     0.1     0.1     0.1     0.0     0.1     0.1     0.1     0.1
     0.0     0.1     0.1     0.1     0.1     0.0     0.0     0.1     0.1     0.0
     0.0     0.1     0.1     0.1     0.0     0.1     0.1     0.1     0.0     0.1
     0.1     0.0     0.1     0.0     0.1     0.1     0.0     0.1     0.1     0.1
     0.0     0.1     0.1     0.1     0.0     0.1     0.1     0.0     0.0     0.1
     0.1     0.1     0.0     0.0     0.1     0.1     0.1     0.1     0.1     0.1
     0.0     0.1     0.1     0.1     0.1     0.1     0.1     0.1     0.0     0.1
     0.1     0.1     0.0     0.1     0.1     0.1     0.0     0.1     0.1     0.1
     0.1     0.0     0.1     0.1     0.1     0.1     0.1     0.1     0.0     0.1
     0.1     0.1     0.1     0.1     0.1     0.1     0.1     0.1     0.1     0.1
     0.1     0.0     0.1     0.1     0.1     0.0     0.0     0.1     0.1     0.1
     0.1     0.1     0.1     0.1     0.1     0.1     0.1     0.1     0.1     0.1
     0.1     0.0     0.1     0.1     0.1     0.0     0.1     0.1     0.1     0.1
     0.1     0.1     0.1     0.1     0.1     0.0     0.1     0.1     0.0     0.1
     0.1     0.1     0.1     0.0     0.1     0.1     0.0     0.1     0.1     0.1
     0.0     0.0     0.1     0.1     0.0     0.1     0.1     0.1     0.1     0.0
     0.1     0.1     0.1     0.1     0.1     0.1     0.1     0.1     0.0     0.1
     0.1     0.1     0.1     0.1     0.1     0.1     0.1     0.1     0.1     0.0
     0.1     0.1     0.1     0.1     0.1     0.0     0.1     0.1     0.0     0.1
     0.1     0.1     0.1     0.1     0.1     0.1     0.1     0.1     0.1     0.1
     0.1     0.1     0.1     0.1     0.1     0.1     0.1     0.0     0.0     0.1
     0.1     0.1     0.1     0.1     0.1     0.1     0.1     0.1     0.1     0.1
     0.0     0.1     0.1     0.0     0.1     0.1     0.1     0.1     0.0     0.1
     0.1     0.1     0.0     0.1     0.1     0.1     0.1     0.0     0.1     0.1
     0.1     0.0     0.1     0.1     0.0     0.1     0.1     0.1     0.0     0.0
     0.1     0.1     0.0     0.1     0.1     0.1     0.1     0.0     0.1     0.1
     0.0     0.1     0.1     0.1     0.1     0.0     0.1     0.1     0.1     0.0
     0.0     0.1     0.0     0.0     0.1     0.1     0.0     0.1     0.1     0.0
     0.1     0.0     0.1     0.1     0.0     0.0     0.1     0.1     0.1     0.0
     0.0     0.1     0.1     0.0     0.0     0.1     0.1     0.1     0.0     0.1
     0.1     0.1     0.1     0.0     0.1     0.1     0.1     0.1     0.1     0.1
     0.0     0.1     0.1     0.0     0.0     0.1     0.1     0.0     0.1     0.0
     0.1     0.1     0.1     0.0     0.0     0.1     0.0     0.0     0.1     0.1
     0.1     0.0     0.1     0.1     0.0     0.1     0.1     0.0     0.0     0.1
     0.0     0.1     0.1     0.0     0.1     0.1     0.1     0.0     0.1     0.1
     0.1     0.0     0.1     0.1     0.1     0.1     0.1     0.1     0.1     0.1
     0.0     0.1     0.1     0.0     0.1     0.0     0.1     0.0     0.1     0.1
     0.1     0.1     0.0     0.1     0.1     0.0     0.0     0.1     0.1     0.0
     0.1     0.1     0.1     0.1     0.0     0.1     0.1     0.0     0.1     0.1
     0.1     0.0     0.0     0.1     0.1     0.0     0.0     0.1     0.1     0.0
     0.0     0.1     0.1     0.1     0.0     0.1     0.1     0.1     0.0     0.0
     0.1     0.1     0.1     0.1     0.1     0.1     0.0     0.1     0.1     0.1
     0.0     0.1     0.1     0.1     0.0     0.0     0.1     0.1     0.0     0.0
     0.1     0.1     0.0     0.1     0.0     0.1     0.1     0.0     0.1     0.0
     0.1     0.1     0.1     0.1    -0.0     0.1     0.1     0.1     0.1     0.0
     0.1     0.1     0.0     0.1     0.1     0.1     0.1     0.1     0.1     0.1
     0.1     0.1     0.0     0.1     0.0     0.1     0.1     0.1     0.1     0.0
     0.1     0.1     0.1     0.0     0.0     0.1     0.0     0.1     0.1     0.0
     0.1     0.0     0.1     0.1     0.1     0.1     0.0     0.0     0.1     0.1
     0.1     0.1     0.1     0.1     0.0     0.1     0.1     0.0     0.1     0.1
     0.1     0.1     0.0     0.1     0.1     0.1     0.0     0.0     0.1     0.1
     0.1     0.0     0.1     0.1     0.0     0.0     0.1     0.1     0.1     0.1
     0.1     0.1     0.0     0.1     0.1     0.1     0.1     0.0     0.1     0.1
     0.1     0.0     0.1     0.1     0.0     0.0     0.0     0.1     0.1     0.0
     0.1     0.1     0.0     0.1     0.1     0.1     0.1     0.0     0.1     0.1
     0.1     0.1     0.0     0.1     0.1     0.0     0.1     0.1     0.1     0.0
     0.1     0.1     0.1     0.1     0.0     0.1     0.1     0.1     0.0     0.1
     0.1     0.0     0.1     0.0     0.1     0.1     0.0     0.1     0.1     0.0
     0.0     0.1     0.1     0.0     0.1     0.1     0.1     0.0     0.1     0.1
     0.0     0.1     0.1     0.0     0.1     0.1     0.1     0.0     0.1     0.1
     0.0     0.1     0.1     0.1     0.0     0.1     0.1     0.0     0.0     0.1
     0.1     0.1     0.0     0.1     0.1     0.1     0.1     0.0     0.1     0.1
     0.1     0.1     0.0     0.1     0.1     0.1     0.1     0.1     0.1     0.1
     0.1     0.1     0.1     0.0     0.1     0.1     0.0     0.1     0.1     0.1
     0.0     0.0     0.1     0.1     0.0     0.1     0.1     0.0     0.1     0.1
     0.1     0.0     0.1     0.1     0.0     0.1     0.0     0.1     0.0     0.1
     0.1     0.0     0.1     0.1     0.1     0.1     0.0     0.1     0.1     0.0
     0.0     0.1     0.1     0.1     0.0     0.0     0.1     0.1     0.0     0.0
     0.1     0.1     0.1     0.0     0.1     0.0     0.0     0.1     0.1     0.1
     0.0     0.0     0.1     0.1     0.0     0.0     0.1     0.1     0.1     0.1
     0.0     0.1     0.1     0.0     0.1     0.1     0.1     0.0     0.1     0.0
     0.0     0.1     0.1     0.1     0.0     0.0     0.0     0.1     0.1     0.0
     0.1     0.1     0.1     0.0     0.1     0.1     0.1     0.1     0.0     0.1
     0.0     0.0     0.1     0.1     0.1     0.0     0.1     0.1     0.1     0.0
     0.0     0.1     0.1     0.0     0.0     0.1     0.1     0.1     0.0     0.0
     0.1     0.0     0.0     0.1     0.1     0.1     0.0     0.1     0.1     0.0
     0.1     0.1     0.1     0.0     0.1     0.1     0.1     0.1     0.0     0.1
     0.1     0.1     0.1     0.0     0.1     0.0     0.0     0.1     0.1     0.1
     0.0     0.0     0.1     0.1     0.0     0.1     0.1     0.0     0.1     0.0
     0.1     0.1     0.0     0.1     0.1     0.1     0.1     0.1     0.1     0.1
     0.1     0.0     0.1     0.1     0.1     0.1     0.1     0.0     0.1     0.1
     0.1     0.1     0.1     0.1     0.1     0.1     0.0     0.0     0.1     0.1
     0.0     0.0     0.1     0.1     0.1     0.0     0.1     0.1     0.1     0.1
     0.1     0.1     0.1     0.1     0.0     0.1     0.1     0.1     0.1     0.1
     0.1     0.0     0.1     0.1     0.1     0.1     0.0     0.1     0.1     0.0
     0.1     0.1     0.1     0.1     0.0     0.0     0.1     0.1     0.1     0.0
     0.1     0.1     0.1     0.1     0.1     0.1     0.0     0.1     0.1     0.0
     0.1     0.1     0.1     0.1     0.0     0.1     0.1     0.1     0.0     0.0
     0.1     0.1     0.0     0.1     0.1     0.1     0.1     0.0     0.1     0.1
     0.0     0.1     0.1     0.1     0.1     0.0     0.1     0.1     0.0     0.0
     0.1     0.1     0.0     0.0     0.1     0.1     0.1     0.0     0.1     0.1
     0.1     0.0     0.1     0.1     0.1     0.1     0.1     0.1     0.1     0.1
     0.0     0.1     0.1     0.0     0.1     0.1     0.1     0.0     0.1     0.1
     0.1     0.0     0.0     0.1     0.1     0.0     0.1     0.0     0.1     0.1
     0.0     0.1     0.1     0.0     0.1     0.1     0.1     0.1     0.1     0.1
     0.1     0.0     0.1     0.1     0.1     0.1     0.1     0.1     0.1     0.1
     0.0     0.1     0.1     0.1     0.0     0.1     0.1     0.0     0.1     0.1
     0.1     0.1     0.1     0.1     0.1     0.1     0.0     0.1     0.1     0.1
     0.1     0.0     0.1     0.1     0.0     0.1     0.0     0.1     0.1     0.0
     0.1     0.1     0.1     0.1     0.0     0.1     0.1     0.1     0.1     0.1
     0.1     0.1     0.1     0.1     0.1     0.1     0.1     0.1     0.1     0.1
     0.1     0.1     0.1     0.1     0.1     0.1     0.1     0.1     0.1     0.0
     0.1     0.1     0.0     0.1     0.1     0.1     0.0     0.1     0.1     0.0
     0.1     0.1     0.1     0.0     0.1     0.1     0.1     0.1     0.0     0.1
     0.1     0.1     0.1     0.0     0.1     0.1     0.0     0.1     0.1     0.1
     0.1     0.1     0.1     0.0     0.1     0.1     0.1     0.1     0.1     0.1
     0.1     0.1     0.0     0.1     0.1     0.1     0.0     0.0     0.1     0.1
     0.0     0.1     0.0     0.1     0.1     0.0     0.1     0.1     0.1     0.1
     0.1     0.1     0.1     0.0     0.1     0.1     0.0     0.1     0.1     0.1
     0.1     0.0     0.1     0.1     0.1     0.0     0.0     0.1     0.1     0.0
     0.1     0.1     0.0     0.1     0.1     0.1     0.1     0.0     0.1     0.1
     0.1     0.0     0.1     0.1     0.1     0.0     0.1     0.1     0.1     0.1
     0.0     0.1     0.1     0.1     0.1     0.1     0.1     0.1     0.1     0.1
     0.1     0.1     0.1     0.1     0.1     0.0     0.1     0.1     0.1     0.1
     0.1     0.1     0.1     0.0     0.1     0.1     0.1     0.1     0.0     0.1
     0.1     0.1     0.1     0.0     0.1     0.1     0.1     0.1     0.0     0.1
     0.1     0.1     0.1     0.0     0.1     0.1     0.1     0.1     0.0     0.1
     0.1     0.1     0.1     0.0     0.1     0.1     0.1     0.0     0.1     0.1
     0.1     0.1     0.1     0.0     0.1     0.1     0.1     0.1     0.1     0.1
     0.1     0.1     0.1     0.0     0.1     0.1     0.0     0.1     0.1     0.1
     0.1     0.0     0.0     0.1     0.1     0.1     0.1     0.0     0.1     0.0
     0.1     0.1     0.1     0.1     0.0     0.1     0.0     0.0     0.1     0.0
     0.1     0.0     0.0     0.1     0.1     0.1     0.0     0.0     0.1     0.1
     0.0     0.1     0.1     0.1     0.0     0.1     0.1     0.1     0.1     0.1
     0.1     0.1     0.1     0.1     0.1     0.1     0.0     0.0     0.1     0.1
     0.0     0.1     0.1     0.1     0.1     0.0     0.1     0.1     0.0     0.1
     0.1     0.1     0.1     0.1     0.1     0.1     0.0     0.1     0.1     0.1
     0.0     0.0     0.1     0.1     0.1     0.0     0.1     0.1     0.0     0.1
     0.1     0.1     0.1     0.1     0.1     0.0     0.1     0.1     0.0     0.1
     0.1     0.0     0.1     0.1     0.0     0.1     0.1     0.1     0.0     0.0
     0.1     0.1     0.1     0.0     0.1     0.1     0.1     0.1    -0.0     0.1
     0.1     0.1     0.1     0.0     0.1     0.0     0.1     0.1     0.0     0.0
     0.1     0.1     0.0     0.1     0.1     0.1     0.1     0.0     0.1     0.1
     0.1     0.1     0.0     0.0     0.1     0.1     0.0     0.1     0.1     0.1
     0.1     0.1     0.1     0.1     0.1     0.1     0.0     0.1     0.1     0.1
     0.1     0.1     0.0     0.1     0.1     0.0     0.0     0.1     0.1     0.1
     0.1     0.0     0.1     0.1     0.1     0.1     0.0     0.1     0.1     0.1
     0.1     0.0     0.1     0.1     0.0     0.1     0.1     0.0     0.1     0.0
     0.1     0.1     0.1     0.1     0.0     0.1     0.0     0.1     0.1     0.0
     0.1     0.1     0.1     0.1     0.0     0.1     0.1     0.1     0.1     0.1
     0.1     0.1     0.1     0.1     0.1     0.0     0.1     0.1     0.1     0.1
     0.0     0.0     0.1     0.1     0.0     0.1     0.1     0.1     0.0     0.1
     0.1     0.1     0.1     0.0     0.1     0.1     0.0     0.1     0.1     0.0
     0.1     0.1     0.1     0.1     0.0     0.1     0.1     0.1     0.0    -0.0
     0.2     0.1    -0.0     0.1     0.1     0.1     0.1     0.0     0.1     0.1
     0.1     0.1     0.0     0.0     0.1     0.0     0.1     0.1     0.0     0.1
     0.1     0.1     0.0     0.1     0.1     0.1     0.0     0.0     0.1     0.1
     0.1     0.0     0.0     0.1     0.0     0.1     0.0     0.1     0.1     0.0
     0.1     0.1     0.1     0.1     0.0     0.1     0.0     0.0     0.1     0.1
     0.1     0.0     0.1     0.1     0.1     0.1     0.0     0.1     0.1     0.1
     0.0     0.1     0.1     0.0     0.1     0.1     0.0     0.1     0.1     0.1
     0.0     0.0     0.1     0.1     0.0     0.1     0.1     0.1     0.1     0.0
     0.1     0.1     0.1     0.1     0.0     0.0     0.1     0.1     0.0     0.0
     0.1     0.1     0.0     0.1     0.0     0.1     0.1     0.1     0.1     0.0
     0.1     0.1     0.1     0.1     0.0     0.1     0.1     0.0     0.1     0.0
     0.1     0.1     0.1     0.1     0.0     0.1     0.1     0.1     0.1     0.1
     0.1     0.0     0.1     0.0     0.1     0.1     0.1     0.0     0.1     0.1
