Uncorrected accelerogram 20161113_110256_LIRS_20 GNS Science
Site LIRS      41 13 56S  174 55 09E     Cusp file:  20161113_110331_LIRS
Lower Hutt IRL
Instrument Cusp_42107
Resolution: 18-bit   Instr Period: 0.0050 s   Damping: 0.700
Accelerogram 20161113_110256_LIRS_20                 Processed 2016 December 09
5 km south-west of Waiau
2016 November 13         11:02:56 UT
Epicentre  42 41 33S 173 01 19E  Bearing S43W  Dist  226km  Depth   15km Mw 7.82
Number of points  56308    Duration 281.54 s
Raw readings in units of 1.00 mm/s/s  at intervals of 0.005 s
Data is unfiltered
Component S66E
Acceleration:  Peak   1211.5 mm/s/s at 114.23 s     RMS    64.12 mm/s/s
Velocity record unevaluated
Displacement record unevaluated
    2016      11      13      11       2     560       0       0    2016      11
      42      41      33     173       1      19      15       0      13      11
      41      13      56     174      55       9     114     114     223     226
   56308       0       0   56308       0       0       0       0       2   51666
   200.0    0.70    0.00   0.000  0.0000   0.000   0.000   1.000     0.0    0.00
  41.232 174.919  42.693 173.022    7.82    0.00    0.00    0.00      0.      0.
  281.54    0.00    0.00  281.54  0.0050  0.0050      0.      0.      0.  9806.6
  1211.5  114.23    64.1      0.      0.     0.0    0.00     0.0     0.0   0.000
    0.00    0.00    0.00    0.00   0.000    0.00    0.00    0.00    0.00   0.000
   0.000   0.000   0.000      0.      0.   0.000   0.000   0.000      0.      0.
    -0.2     0.5    -0.0    -0.1     0.4     0.2     0.0    -0.1    -0.4    -0.2
     0.0    -0.1     0.1     0.2    -0.0     0.1    -0.2     0.1    -0.0    -0.4
    -0.0     0.0     0.5     0.5     0.0     0.2    -0.0    -0.1     0.2     0.2
     0.1     0.0    -0.2    -0.2     0.1    -0.2    -0.0     0.5     0.2    -0.0
    -0.1    -0.0    -0.3    -0.1     0.0     0.1     0.3     0.2     0.5     0.2
    -0.1    -0.0    -0.4     0.1     0.2     0.1     0.0     0.0     0.2     0.1
    -0.1    -0.1    -0.0     0.0     0.5     0.4    -0.3    -0.2    -0.2    -0.3
     0.3     0.2    -0.2     0.5    -0.0    -0.4     0.2    -0.6    -0.1     0.3
     0.0     0.3    -0.0    -0.2    -0.4     0.0     0.1    -0.1     0.5    -0.0
     0.0     0.3    -0.5    -0.2     0.4    -0.2     0.0     0.2    -0.5     0.1
    -0.1    -0.2     0.4    -0.1     0.3     0.2    -0.1     0.0    -0.4     0.1
    -0.1    -0.1     0.5     0.0     0.1    -0.0     0.0     0.2    -0.4    -0.0
    -0.0    -0.1     0.1    -0.1     0.1    -0.1     0.1    -0.0    -0.1    -0.0
    -0.1     0.2    -0.2     0.1    -0.0    -0.2     0.2    -0.0     0.5     0.2
    -0.0    -0.2    -0.5    -0.1    -0.2     0.2    -0.0     0.0     0.0    -0.1
    -0.0    -0.6    -0.1    -0.1    -0.0     0.2    -0.2     0.0    -0.2     0.1
     0.1     0.1     0.0    -0.4    -0.3    -0.4    -0.1    -0.1     0.2     0.3
    -0.1    -0.1    -0.3     0.2     0.1    -0.0     0.1    -0.4     0.0    -0.0
     0.0    -0.1    -0.4    -0.1    -0.0     0.1     0.1    -0.1    -0.5     0.1
    -0.0    -0.0     0.6    -0.1     0.2    -0.1    -0.4    -0.1    -0.6     0.2
     0.2     0.2     0.1    -0.2    -0.1    -0.5    -0.2    -0.2    -0.0     0.1
     0.0     0.4     0.1     0.0    -0.2    -0.3    -0.3    -0.4     0.3     0.0
    -0.2    -0.1    -0.1    -0.1    -0.0     0.1     0.0    -0.1    -0.2    -0.0
    -0.3    -0.3    -0.0    -0.1    -0.0     0.1     0.1    -0.3    -0.4    -0.0
    -0.8    -0.3     0.5    -0.1     0.1    -0.0    -0.4    -0.1    -0.4     0.0
     0.3    -0.2     0.2    -0.1    -0.5    -0.2    -0.3     0.1     0.2     0.1
     0.0    -0.1     0.0    -0.4    -0.3     0.1    -0.0     0.0     0.0     0.1
    -0.1    -0.3    -0.1    -0.0    -0.1     0.0     0.1    -0.2     0.0    -0.1
    -0.1     0.3    -0.2    -0.1     0.2    -0.0    -0.2    -0.1    -0.1    -0.2
     0.1    -0.0    -0.0    -0.2    -0.1     0.2    -0.2    -0.4    -0.2     0.0
     0.4     0.2    -0.3     0.1    -0.1    -0.3     0.0    -0.7    -0.3    -0.2
    -0.1     0.4    -0.3     0.0    -0.3    -0.1     0.6    -0.3    -0.0     0.1
    -0.4    -0.3     0.1     0.2    -0.3    -0.2     0.1     0.1    -0.3    -0.3
     0.1    -0.2    -0.2    -0.0    -0.2    -0.1     0.5     0.3     0.0    -0.1
    -0.2    -0.2    -0.2    -0.1    -0.4     0.1     0.4     0.3     0.4    -0.4
    -0.3    -0.2     0.0    -0.1    -0.1     0.3    -0.4    -0.0     0.2    -0.1
     0.1    -0.1     0.3     0.1    -0.5    -0.3    -0.1    -0.1     0.1     0.2
     0.0     0.2     0.1    -0.1    -0.0    -0.0     0.0     0.1     0.2    -0.0
    -0.3    -0.3    -0.0     0.1    -0.4    -0.0     0.3    -0.3    -0.0     0.2
    -0.1    -0.0     0.0    -0.0    -0.1    -0.2    -0.0    -0.0    -0.1     0.2
     0.3    -0.1    -0.3    -0.0     0.3     0.1    -0.0    -0.1    -0.3    -0.1
    -0.1     0.0     0.1    -0.2    -0.0    -0.3     0.1     0.1    -0.4     0.3
     0.1    -0.1    -0.2    -0.4     0.1     0.1    -0.0    -0.0     0.1     0.0
    -0.1    -0.1    -0.2    -0.5    -0.1     0.3    -0.1     0.1    -0.0    -0.3
    -0.2    -0.2     0.0    -0.4    -0.1     0.1     0.0     0.1     0.0     0.1
    -0.1     0.1    -0.2    -0.1    -0.0    -0.3     0.4     0.2     0.1     0.1
    -0.4    -0.2    -0.0     0.1     0.1     0.3     0.1     0.0     0.1    -0.4
     0.2     0.2     0.0     0.4    -0.1     0.0    -0.2    -0.2     0.1    -0.1
     0.2    -0.0     0.5     0.3    -0.1     0.1    -0.7    -0.3     0.0    -0.2
     0.2     0.1    -0.2    -0.2     0.3    -0.1    -0.2     0.2     0.1     0.2
     0.2     0.2    -0.1    -0.1     0.1     0.0     0.2    -0.3    -0.2    -0.1
    -0.0     0.3    -0.1     0.2     0.2     0.1     0.3     0.0    -0.2    -0.2
    -0.1     0.1     0.4     0.1     0.3     0.3    -0.2    -0.1    -0.4    -0.3
     0.3     0.2    -0.1    -0.1    -0.2    -0.3     0.1     0.0    -0.1     0.3
     0.4     0.2    -0.1    -0.1    -0.1     0.1     0.2     0.6    -0.0    -0.3
     0.2    -0.3    -0.1    -0.3    -0.0     0.2    -0.0     0.6    -0.1    -0.4
    -0.1    -0.5    -0.2    -0.1     0.1    -0.1     0.1     0.3     0.0    -0.1
    -0.1     0.1    -0.0     0.1    -0.1    -0.0     0.2     0.1     0.1    -0.1
     0.5     0.2    -0.1     0.2    -0.4    -0.2    -0.1    -0.1     0.2     0.3
     0.0    -0.1     0.1    -0.2     0.3    -0.0    -0.2     0.3    -0.1     0.5
     0.4     0.0     0.4     0.1     0.1    -0.0    -0.2    -0.2    -0.2     0.3
     0.3     0.2     0.2    -0.1    -0.2     0.1    -0.0    -0.1    -0.2     0.0
     0.5    -0.1    -0.1    -0.2    -0.3     0.6     0.3    -0.0     0.4     0.1
    -0.1    -0.1    -0.0     0.1    -0.1     0.2     0.3     0.1    -0.0    -0.7
    -0.4    -0.3     0.0     0.5    -0.1     0.1    -0.1    -0.4    -0.1     0.1
     0.4     0.1     0.1    -0.3    -0.1     0.3    -0.2    -0.3    -0.0     0.4
    -0.2    -0.1     0.4    -0.3    -0.2    -0.1    -0.0    -0.1    -0.0     0.3
    -0.4    -0.0     0.2    -0.1    -0.3     0.0     0.3    -0.1     0.4    -0.2
    -0.4    -0.0    -0.5    -0.3     0.1     0.3    -0.1     0.0     0.2    -0.4
    -0.1    -0.2     0.2     0.4     0.3     0.0    -0.5    -0.1    -0.2    -0.1
     0.1    -0.0     0.1    -0.2    -0.0    -0.0    -0.3    -0.2     0.1     0.1
     0.2     0.2    -0.1    -0.5    -0.4     0.3     0.1     0.4     0.3    -0.9
    -0.0     0.1    -0.4    -0.2     0.1     0.2    -0.1    -0.0    -0.3     0.1
    -0.2    -0.6     0.0     0.0     0.2    -0.2    -0.2     0.3    -0.2    -0.3
     0.0     0.2     0.2     0.2    -0.3    -0.3     0.0    -0.2    -0.1    -0.1
     0.0    -0.1    -0.3    -0.0    -0.0    -0.3    -0.1     0.1    -0.1    -0.1
    -0.1    -0.1    -0.0    -0.1    -0.3    -0.1     0.0    -0.0    -0.1    -0.2
    -0.1    -0.1     0.1    -0.3    -0.5     0.2    -0.1     0.3     0.1    -0.3
     0.3    -0.2     0.1    -0.1    -0.1     0.1    -0.3     0.3     0.0     0.1
    -0.2    -0.4     0.1    -0.6    -0.3    -0.0    -0.1     0.1     0.0     0.1
    -0.6    -0.3     0.0    -0.4     0.1     0.0    -0.0    -0.1    -0.2    -0.1
    -0.4    -0.2     0.2    -0.0     0.0     0.1    -0.4    -0.2     0.0    -0.0
     0.2    -0.1    -0.1    -0.1    -0.0    -0.1    -0.3    -0.1    -0.1     0.1
    -0.1    -0.3    -0.1     0.1    -0.0     0.1     0.0    -0.0     0.0    -0.3
     0.1     0.1    -0.3    -0.1    -0.3    -0.0    -0.0    -0.1     0.1    -0.1
    -0.0    -0.1    -0.3     0.0     0.2     0.2     0.2    -0.0    -0.3    -0.2
    -0.1    -0.1    -0.4    -0.1     0.2     0.0     0.3     0.1    -0.1    -0.4
    -0.5     0.0    -0.1    -0.3    -0.1    -0.3    -0.1     0.1    -0.3    -0.0
     0.3     0.2     0.2    -0.3    -0.4    -0.1    -0.2    -0.0    -0.1     0.2
     0.2     0.1     0.2    -0.4    -0.1    -0.2    -0.5     0.1    -0.2     0.1
    -0.5    -0.5     0.2    -0.2    -0.0    -0.3    -0.1    -0.1    -0.1     0.1
    -0.1    -0.1    -0.4     0.1     0.1    -0.0     0.3     0.0     0.2     0.1
     0.2    -0.2    -0.3     0.2    -0.1     0.1     0.1    -0.1    -0.0    -0.0
    -0.1     0.1    -0.0     0.1     0.7    -0.5    -0.6    -0.2    -0.5     0.4
    -0.1    -0.0     0.3    -0.4     0.0     0.1     0.0    -0.1    -0.2    -0.0
    -0.1     0.1    -0.1    -0.1    -0.1    -0.2    -0.1     0.1    -0.0    -0.2
     0.4     0.2    -0.3     0.0    -0.0     0.2     0.3     0.2     0.1    -0.0
    -0.0    -0.5    -0.3     0.2     0.3     0.2     0.2     0.1    -0.5    -0.4
    -0.4    -0.3     0.4    -0.2    -0.1     0.1    -0.2     0.1    -0.2    -0.3
     0.1    -0.0    -0.2    -0.1    -0.2    -0.5    -0.0     0.2     0.2     0.6
     0.3    -0.1    -0.0    -0.1    -0.3    -0.3    -0.1    -0.0     0.1    -0.4
    -0.1     0.3    -0.1     0.3     0.2    -0.5    -0.3    -0.3    -0.2     0.1
    -0.1    -0.2    -0.0    -0.0     0.2    -0.2    -0.3     0.0    -0.3     0.1
    -0.2    -0.3     0.3    -0.0     0.4     0.2    -0.4    -0.3    -0.1     0.7
     0.0    -0.3    -0.0    -0.2     0.0     0.1     0.1    -0.2    -0.3     0.1
    -0.0    -0.0     0.0    -0.1    -0.1    -0.1     0.0    -0.1    -0.4     0.1
     0.3    -0.1    -0.2     0.0     0.1     0.2    -0.1    -0.2    -0.1    -0.1
     0.4    -0.1    -0.4     0.2    -0.4    -0.2     0.1    -0.0     0.0    -0.0
     0.4    -0.0    -0.3    -0.1    -0.4    -0.1     0.1     0.1    -0.1    -0.1
    -0.1    -0.2     0.1    -0.0     0.1     0.1     0.3     0.3    -0.2     0.1
    -0.3     0.2     0.3    -0.1     0.3    -0.4    -0.3     0.0    -0.0     0.2
    -0.2    -0.0     0.1     0.2    -0.1    -0.4     0.0    -0.1     0.1     0.3
    -0.2    -0.0     0.2     0.1     0.0    -0.3    -0.2     0.1    -0.2     0.3
     0.3    -0.1    -0.1    -0.0    -0.1    -0.3    -0.1    -0.4     0.0     0.3
    -0.1     0.1    -0.2    -0.2     0.0     0.1    -0.2    -0.2     0.2    -0.2
     0.1    -0.1    -0.1     0.4     0.2     0.5    -0.2    -0.3    -0.2    -0.0
     0.1    -0.1     0.4    -0.1     0.3     0.2     0.1    -0.0    -0.9     0.2
    -0.1    -0.3     0.2    -0.5     0.2     0.0    -0.0    -0.0     0.0     0.3
    -0.3     0.1    -0.2    -0.4    -0.0    -0.1     0.2    -0.0    -0.1    -0.3
     0.1     0.2    -0.2     0.1    -0.3    -0.1     0.2    -0.0    -0.1     0.1
     0.0    -0.1     0.1    -0.2    -0.3    -0.1     0.4     0.4    -0.1     0.1
    -0.3     0.1     0.2    -0.1     0.3    -0.2    -0.1     0.1     0.1    -0.1
    -0.2     0.1     0.2     0.3     0.1    -0.3    -0.2    -0.2    -0.0     0.3
    -0.2    -0.4     0.2    -0.1    -0.2    -0.0    -0.3    -0.1    -0.0    -0.2
    -0.1    -0.1    -0.3    -0.1    -0.0    -0.3    -0.3    -0.0     0.4     0.2
     0.2    -0.0    -0.1     0.1    -0.2     0.0     0.0    -0.3    -0.1     0.3
     0.2    -0.4    -0.1     0.1     0.1    -0.0    -0.3    -0.3    -0.5     0.1
    -0.0     0.1     0.5    -0.1    -0.0     0.0    -0.0    -0.1    -0.3     0.0
    -0.0     0.2    -0.2    -0.5     0.2    -0.1    -0.2     0.5     0.2    -0.0
    -0.0    -0.4    -0.4    -0.2    -0.3    -0.3     0.2    -0.1    -0.3    -0.4
    -0.3     0.2    -0.2    -0.2     0.0     0.0     0.1     0.1     0.2    -0.4
    -0.5    -0.1    -0.1    -0.2    -0.3    -0.3     0.1     0.5     0.0    -0.0
     0.0    -0.2     0.1    -0.2    -0.2     0.1    -0.0    -0.3    -0.2    -0.2
    -0.4     0.2     0.2     0.3     0.2    -0.1     0.2    -0.5    -0.1     0.0
    -0.4     0.2     0.2     0.1    -0.1    -0.1    -0.0    -0.2    -0.1    -0.1
    -0.0    -0.3    -0.1     0.1     0.3    -0.1    -0.4     0.2    -0.3    -0.0
     0.2    -0.3    -0.3    -0.4    -0.1    -0.1    -0.3    -0.3    -0.2     0.1
    -0.1    -0.2    -0.2    -0.3    -0.2     0.0     0.2     0.0     0.1    -0.4
    -0.2     0.1    -0.5     0.1     0.3    -0.1    -0.1    -0.4    -0.4    -0.1
    -0.1     0.1    -0.0    -0.0    -0.0    -0.1    -0.0    -0.3    -0.2    -0.1
    -0.3    -0.0    -0.3    -0.5    -0.0    -0.0    -0.1     0.1     0.1    -0.1
    -0.3    -0.2    -0.3    -0.4    -0.3    -0.0     0.1     0.3    -0.0    -0.2
     0.3    -0.4    -0.7    -0.1    -0.3    -0.0    -0.0    -0.1     0.3    -0.2
    -0.5    -0.1    -0.1     0.1     0.2    -0.1    -0.3    -0.2     0.1    -0.3
    -0.0     0.1    -0.7     0.1     0.1    -0.9    -0.1     0.0     0.0     0.3
    -0.1    -0.0    -0.3    -0.4    -0.1    -0.4    -0.3    -0.2    -0.3    -0.1
    -0.1     0.1     0.2    -0.1    -0.2    -0.2    -0.4    -0.4    -0.2    -0.2
    -0.2    -0.4    -0.3     0.2     0.1     0.1    -0.2    -0.6    -0.2     0.2
     0.3    -0.2    -0.0    -0.1    -0.2     0.1     0.0     0.1    -0.1    -0.1
    -0.1    -0.5    -0.4    -0.2    -0.2    -0.1     0.3     0.2    -0.0    -0.1
    -0.3    -0.1    -0.3    -0.4     0.0     0.1    -0.2    -0.1    -0.2    -0.4
     0.1    -0.2    -0.1     0.1     0.1     0.2    -0.3     0.2    -0.1    -0.4
     0.4    -0.0    -0.2    -0.1    -0.0    -0.1    -0.3    -0.1    -0.2     0.1
    -0.2    -0.1     0.2    -0.3    -0.1    -0.1    -0.1     0.0     0.1     0.4
    -0.2    -0.2     0.0    -0.4    -0.4     0.1    -0.1    -0.5    -0.2     0.0
    -0.2    -0.4    -0.3     0.3    -0.0    -0.2    -0.1    -0.3    -0.2    -0.0
     0.1    -0.4    -0.2     0.0    -0.6    -0.0    -0.2    -0.2     0.1    -0.1
     0.2    -0.4    -0.1     0.3    -0.1    -0.1    -0.5    -0.1    -0.0    -0.3
    -0.1    -0.3    -0.5    -0.1     0.1    -0.1    -0.1    -0.2    -0.0     0.3
     0.1    -0.3    -0.6    -0.1     0.0    -0.2    -0.1     0.1    -0.0    -0.3
    -0.2    -0.2    -0.1    -0.4    -0.3     0.3    -0.0    -0.1     0.1    -0.0
    -0.4    -0.3    -0.2    -0.0     0.0    -0.2     0.1    -0.3    -0.0     0.1
    -0.6     0.1     0.1    -0.2    -0.3    -0.4     0.1    -0.3    -0.1     0.2
    -0.2    -0.2     0.1    -0.2    -0.4    -0.1    -0.0    -0.0    -0.3    -0.1
     0.2    -0.3     0.3     0.2    -0.7    -0.5    -0.1     0.1    -0.1    -0.3
     0.3    -0.1     0.0    -0.3    -0.6    -0.1    -0.4     0.2     0.2    -0.1
     0.1    -0.4    -0.2    -0.1    -0.3    -0.3    -0.2    -0.0    -0.0    -0.1
    -0.1     0.3     0.0    -0.3    -0.1    -0.2    -0.3    -0.4     0.4     0.2
    -0.4    -0.2    -0.3    -0.1    -0.2    -0.2    -0.1     0.2    -0.1    -0.3
    -0.1    -0.4     0.1    -0.3    -0.4     0.3    -0.3    -0.3     0.0     0.2
    -0.1    -0.1     0.0     0.0     0.1    -0.5     0.0    -0.1    -0.5    -0.0
    -0.3    -0.1    -0.1     0.1     0.0    -0.1     0.4    -0.1    -0.1    -0.0
    -0.3    -0.1     0.0    -0.1    -0.0     0.0    -0.0     0.2     0.0    -0.0
     0.2    -0.2    -0.3    -0.3    -0.3    -0.1    -0.1    -0.1     0.0    -0.1
    -0.2     0.1     0.0    -0.2    -0.4     0.0     0.2    -0.2     0.1    -0.1
    -0.5    -0.4     0.0     0.2    -0.5    -0.1     0.2    -0.1    -0.1    -0.1
    -0.3    -0.0     0.1    -0.2    -0.5    -0.4    -0.2    -0.5     0.1     0.3
    -0.3    -0.2    -0.4    -0.4    -0.6    -0.3     0.5     0.0     0.2     0.1
    -0.1    -0.3    -0.2     0.3    -0.6    -0.1    -0.1    -0.5     0.2    -0.2
    -0.0    -0.1    -0.0     0.5    -0.3     0.0    -0.0    -0.6    -0.3    -0.2
    -0.2    -0.0    -0.0     0.0     0.1    -0.1    -0.3    -0.2    -0.1    -0.4
    -0.1     0.3     0.1    -0.0    -0.0     0.0    -0.4    -0.3     0.4     0.1
     0.0     0.1     0.0    -0.3    -0.4     0.3    -0.0     0.0     0.1    -0.1
    -0.1    -0.5    -0.1    -0.1     0.0     0.6     0.1     0.0    -0.1    -0.5
    -0.1    -0.0    -0.3    -0.4    -0.4    -0.2     0.1    -0.7    -0.7     0.3
    -0.4     0.2     0.8    -0.0     0.2     0.0     0.1     0.2    -0.4    -0.3
    -0.1    -0.5    -0.4    -0.2    -0.3    -0.2    -0.2     0.1     0.5     0.2
     0.2     0.0     0.1    -0.1    -0.3     0.2    -0.3    -0.2    -0.2    -0.6
     0.1     0.3     0.2     0.3     0.1    -0.4    -0.6     0.1     0.1     0.1
     0.2     0.1     0.2    -0.1    -0.1    -0.1    -0.1     0.1     0.2     0.2
    -0.2    -0.1    -0.3    -0.4    -0.1    -0.1     0.0     0.2     0.4     0.3
     0.3     0.3     0.1     0.1    -0.2     0.1     0.1    -0.3    -0.2    -0.5
    -0.1    -0.3    -0.5     0.4     0.2     0.3     0.3    -0.1     0.1    -0.2
    -0.0    -0.0    -0.1    -0.1    -0.5    -0.4    -0.1    -0.1     0.0     0.1
     0.2     0.2    -0.3    -0.4    -0.3    -0.0     0.4     0.1     0.3     0.3
    -0.2    -0.0    -0.4    -0.6    -0.3    -0.5    -0.0     0.4     0.1     0.1
     0.6     0.1    -0.4    -0.1    -0.2     0.1    -0.0    -0.1     0.1    -0.5
    -0.3     0.1     0.2     0.2    -0.1     0.0    -0.1    -0.2    -0.2    -0.2
     0.0     0.3     0.4     0.4    -0.1    -0.1     0.1    -0.1     0.2     0.1
     0.0     0.0    -0.3    -0.2    -0.8    -0.6    -0.3     0.0     0.5     0.2
     0.5     0.2    -0.0    -0.1    -0.1    -0.1    -0.4     0.0    -0.2    -0.3
    -0.0    -0.1     0.2     0.3     0.8     0.5    -0.2    -0.1    -0.5    -0.7
     0.0    -0.0    -0.2     0.3     0.0    -0.1     0.0    -0.4    -0.5    -0.2
    -0.1    -0.1     0.2     0.3     0.4     0.1    -0.3     0.0    -0.3    -0.8
    -0.6    -0.2    -0.1    -0.0     0.3     0.3    -0.0     0.0    -0.0    -0.1
    -0.1    -0.4    -0.4    -0.1    -0.5    -0.2    -0.2    -0.1     0.4     0.1
     0.6     0.2     0.0     0.2    -0.5    -0.2    -0.1    -0.4    -0.5    -0.7
    -0.4    -0.0     0.1     0.1    -0.3    -0.3     0.0     0.1     0.3    -0.0
    -0.2    -0.0    -0.1    -0.3    -0.1    -0.4    -0.3     0.1    -0.1     0.4
     0.1     0.0     0.5    -0.2    -0.0    -0.0    -0.1     0.0    -0.5    -0.2
    -0.1    -0.0    -0.1     0.1    -0.0    -0.4     0.1    -0.0     0.1     0.1
     0.0    -0.2    -0.3     0.1    -0.5    -0.2    -0.1    -0.1     0.3    -0.1
     0.1    -0.2    -0.2    -0.2    -0.4     0.1    -0.5    -0.1    -0.0    -0.3
     0.0    -0.2     0.1    -0.1    -0.0     0.1     0.0     0.4    -0.3    -0.1
     0.1    -0.4     0.2    -0.2    -0.1    -0.1    -0.4     0.1     0.0     0.2
     0.3    -0.1    -0.2    -0.1    -0.2    -0.3     0.2    -0.1    -0.5    -0.3
    -0.1     0.0     0.1     0.1    -0.3     0.0    -0.1    -0.4    -0.1    -0.1
     0.1    -0.2     0.1    -0.0    -0.4    -0.2    -0.1     0.3    -0.2    -0.1
     0.1    -0.4    -0.0    -0.4    -0.3    -0.2    -0.3     0.1    -0.1     0.0
    -0.1    -0.2     0.1     0.0    -0.1    -0.2    -0.3     0.0     0.1    -0.3
    -0.1    -0.3    -0.2     0.1    -0.2     0.4    -0.0    -0.4     0.2    -0.5
    -0.6    -0.1    -0.1     0.2     0.2    -0.2    -0.3    -0.5    -0.3    -0.0
    -0.0    -0.1     0.1     0.2    -0.1     0.2     0.1     0.0     0.3    -0.1
     0.0    -0.2    -0.2     0.1    -0.1    -0.0    -0.4    -0.3     0.1    -0.0
    -0.1     0.0     0.1     0.1     0.2     0.1     0.0    -0.1    -0.4    -0.2
    -0.2    -0.3    -0.2    -0.1    -0.1     0.0     0.1    -0.1     0.1    -0.3
    -0.6    -0.2    -0.4    -0.3    -0.1     0.0    -0.1    -0.2    -0.2    -0.2
