Uncorrected accelerogram 20161113_110256_WVFS_20 GNS Science
Site WVFS      41 37 13S  173 21 03E     Cusp file:  20161113_110316_WVFS
Wairau Valley Farm
Instrument Cusp_42247
Resolution: 18-bit   Instr Period: 0.0050 s   Damping: 0.700
Accelerogram 20161113_110256_WVFS_20                 Processed 2016 December 09
5 km south-west of Waiau
2016 November 13         11:02:56 UT
Epicentre  42 41 33S 173 01 19E  Bearing S13W  Dist  122km  Depth   15km Mw 7.82
Number of points  54029    Duration 270.14 s
Raw readings in units of 1.00 mm/s/s  at intervals of 0.005 s
Data is unfiltered
Component N72E
Acceleration:  Peak  -1983.7 mm/s/s at 104.72 s     RMS   151.42 mm/s/s
Velocity record unevaluated
Displacement record unevaluated
    2016      11      13      11       2     560       0       0    2016      11
      42      41      33     173       1      19      15       0      13      11
      41      37      13     173      21       3      72      72     193     122
   54029       0       0   54029       0       0       0       0       2   36905
   200.0    0.70    0.00   0.000  0.0000   0.000   0.000   1.000     0.0    0.00
  41.620 173.351  42.693 173.022    7.82    0.00    0.00    0.00      0.      0.
  270.14    0.00    0.00  270.14  0.0050  0.0050      0.      0.      0.  9806.6
 -1983.7  104.72   151.4      0.      0.     0.0    0.00     0.0     0.0   0.000
    0.00    0.00    0.00    0.00   0.000    0.00    0.00    0.00    0.00   0.000
   0.000   0.000   0.000      0.      0.   0.000   0.000   0.000      0.      0.
     0.1     0.0     0.2     0.1     0.0     0.2     0.1     0.1     0.1     0.1
     0.0     0.1     0.2    -0.0    -0.0     0.0     0.1     0.1     0.1     0.2
     0.2     0.1     0.1     0.2     0.2     0.1     0.1     0.1     0.2     0.3
     0.1     0.0     0.1     0.1     0.1    -0.0     0.1     0.1     0.1     0.2
     0.1     0.0     0.2     0.1    -0.0     0.1     0.0    -0.0     0.1    -0.0
     0.1     0.1     0.0     0.0    -0.1    -0.1     0.0     0.2     0.3     0.1
     0.1     0.1    -0.0     0.0     0.0    -0.0     0.1     0.1     0.0     0.1
     0.2    -0.0     0.1     0.1    -0.1    -0.0    -0.0    -0.0     0.1    -0.0
    -0.2     0.1     0.3     0.0    -0.0     0.1     0.1     0.0    -0.0    -0.0
    -0.1     0.0    -0.0    -0.1     0.1    -0.0    -0.0     0.1     0.2     0.1
     0.1     0.1     0.1     0.2     0.1     0.0     0.0    -0.0     0.2     0.0
     0.1     0.3     0.0     0.1     0.1    -0.1     0.0    -0.0    -0.1    -0.0
     0.0     0.1     0.1     0.0     0.0     0.1     0.1     0.0     0.1     0.1
    -0.0     0.1     0.1     0.1     0.2     0.1     0.1     0.1     0.0     0.1
     0.1     0.3     0.2     0.1     0.1     0.1     0.1     0.1     0.1     0.2
     0.1     0.1     0.1    -0.1     0.1    -0.0    -0.1     0.0    -0.0    -0.0
     0.0     0.0     0.1     0.1     0.2     0.0     0.0     0.0    -0.0     0.1
     0.1    -0.0    -0.1     0.1     0.1     0.1     0.0     0.1     0.2    -0.0
    -0.1     0.2    -0.0    -0.0     0.1    -0.0    -0.0    -0.0     0.0    -0.1
    -0.1     0.1    -0.1    -0.1    -0.1    -0.1    -0.1    -0.2     0.0     0.1
    -0.0    -0.1    -0.0     0.1     0.1     0.1     0.1     0.1     0.0    -0.0
    -0.0    -0.0     0.1    -0.1    -0.2    -0.0     0.0     0.1     0.0    -0.1
     0.0     0.0    -0.1     0.1     0.0     0.0     0.1     0.0    -0.1    -0.1
    -0.0    -0.0    -0.0     0.0    -0.1     0.1    -0.1    -0.1     0.1    -0.1
     0.1    -0.0    -0.1    -0.0    -0.0     0.1    -0.1    -0.1     0.0    -0.1
     0.1    -0.0    -0.1     0.1     0.1    -0.1    -0.0     0.1    -0.0    -0.0
     0.0    -0.1     0.1     0.0    -0.0     0.2     0.0    -0.0     0.0     0.0
    -0.1    -0.2    -0.1    -0.0    -0.1    -0.1    -0.0     0.1     0.0    -0.1
     0.2     0.1    -0.2    -0.1    -0.1    -0.2    -0.1    -0.1    -0.2    -0.3
    -0.1    -0.1    -0.1     0.0    -0.1     0.0     0.1     0.0    -0.0     0.1
     0.2     0.1     0.0    -0.0    -0.0     0.1     0.2     0.3     0.2     0.1
     0.0     0.1     0.1     0.2     0.2     0.1     0.2     0.2     0.2     0.0
    -0.0     0.1     0.1     0.1     0.2    -0.1     0.1     0.2     0.2     0.3
     0.0     0.0     0.2     0.1     0.2     0.1     0.1     0.1     0.0    -0.0
    -0.1    -0.0     0.1     0.1     0.1     0.2     0.1    -0.1     0.0     0.1
     0.1    -0.0     0.0     0.1    -0.1    -0.0     0.0     0.1     0.1     0.1
     0.2     0.1     0.1     0.1     0.0     0.2     0.2    -0.0     0.1     0.2
     0.1     0.2     0.1    -0.0     0.1     0.1    -0.0     0.2     0.1    -0.1
     0.1     0.0     0.1     0.2     0.1     0.2     0.1     0.1     0.0     0.0
     0.2     0.1    -0.1     0.1     0.2     0.1     0.0     0.1     0.1    -0.1
     0.1     0.1     0.0     0.1     0.1     0.1    -0.1    -0.0     0.2     0.1
     0.1     0.1     0.1     0.2     0.1     0.1     0.1     0.0     0.1    -0.0
     0.0     0.0    -0.0     0.1     0.0     0.0     0.3     0.2     0.0     0.2
     0.1     0.1     0.3     0.1     0.1     0.3     0.2     0.1     0.1    -0.0
     0.2     0.0    -0.0     0.1    -0.0    -0.0     0.1     0.1     0.1     0.1
     0.1     0.2     0.0    -0.1    -0.1     0.2     0.3     0.1     0.2     0.2
     0.4     0.3     0.1     0.2     0.1     0.2     0.1    -0.0     0.2     0.1
     0.3     0.3     0.2     0.2    -0.0     0.0     0.1    -0.0     0.0     0.1
     0.1     0.2     0.2     0.1     0.0     0.2    -0.0    -0.0     0.2    -0.1
     0.0     0.2     0.1     0.1    -0.1    -0.0    -0.1    -0.1     0.1     0.1
     0.2     0.1     0.0     0.1     0.1     0.1    -0.0     0.1     0.2     0.0
     0.2     0.2     0.1     0.0    -0.1     0.1    -0.0     0.0    -0.1    -0.2
     0.0    -0.0     0.1     0.2     0.0     0.1     0.1     0.2     0.0     0.1
     0.2     0.1    -0.0     0.0     0.0     0.0     0.0     0.1     0.1     0.1
     0.1     0.2     0.1     0.1     0.1    -0.1     0.1     0.1     0.1     0.2
     0.1     0.1     0.1     0.1     0.1     0.1    -0.0    -0.1     0.1     0.0
     0.1     0.2     0.0     0.2     0.1    -0.0     0.1    -0.0    -0.1     0.0
     0.0     0.1     0.0     0.1     0.0    -0.1    -0.0    -0.1    -0.1     0.1
     0.1    -0.0     0.2     0.1    -0.0    -0.1    -0.0    -0.0     0.1     0.1
    -0.1    -0.1     0.1     0.0     0.0    -0.1     0.1     0.2    -0.0     0.1
     0.2    -0.0     0.0    -0.1    -0.1     0.1     0.1     0.0     0.0    -0.1
    -0.2     0.1     0.1     0.1     0.2     0.0    -0.1    -0.1    -0.0    -0.0
     0.0    -0.0    -0.2    -0.0     0.0    -0.1    -0.1    -0.1    -0.0    -0.0
     0.0     0.1    -0.1    -0.0     0.1     0.0     0.0     0.0     0.0     0.2
     0.2    -0.0    -0.1     0.1     0.0    -0.1     0.1    -0.0     0.0     0.2
    -0.0     0.1     0.1     0.1     0.2     0.1    -0.0     0.1     0.1     0.0
     0.2     0.1    -0.1     0.1     0.1    -0.1     0.1     0.1    -0.0     0.1
     0.2     0.1     0.1     0.2     0.1    -0.1     0.2     0.2    -0.1    -0.0
    -0.1    -0.0     0.3     0.3     0.1     0.1     0.1     0.1     0.0    -0.0
    -0.1    -0.1     0.0     0.1     0.0    -0.0     0.1    -0.0    -0.1     0.1
     0.0    -0.0     0.1     0.0     0.1    -0.1     0.1     0.1    -0.1    -0.1
    -0.0     0.1     0.0    -0.0     0.0     0.2     0.3     0.1     0.1     0.2
     0.0     0.0     0.0     0.1     0.1    -0.0    -0.0    -0.0    -0.1     0.1
     0.1     0.1     0.1     0.1     0.1    -0.0     0.0    -0.0    -0.1    -0.0
     0.1     0.1     0.2     0.3     0.2    -0.0     0.0     0.1     0.1     0.1
    -0.0    -0.1    -0.0    -0.0     0.0     0.0     0.0     0.2     0.0    -0.1
    -0.0    -0.1    -0.1    -0.0    -0.0     0.2     0.1     0.0     0.2     0.0
    -0.1     0.0     0.1    -0.0    -0.2    -0.1     0.2     0.0    -0.0     0.1
     0.1     0.2     0.1     0.1    -0.0    -0.1     0.2    -0.1    -0.1     0.1
    -0.2    -0.1     0.0     0.0    -0.1     0.0     0.2     0.0     0.1    -0.0
    -0.2     0.0    -0.1     0.0     0.3    -0.0    -0.1     0.0     0.0     0.1
     0.1    -0.0     0.0     0.0    -0.1     0.0     0.2     0.0    -0.2    -0.0
     0.0     0.1     0.0     0.0     0.2     0.1    -0.0     0.1     0.1     0.1
     0.1    -0.0    -0.0     0.1     0.0     0.0     0.1     0.0    -0.1    -0.0
     0.1    -0.0     0.0     0.2     0.1     0.0    -0.1     0.0     0.4     0.1
    -0.1     0.1     0.0     0.1     0.0     0.1     0.1    -0.0     0.0    -0.0
     0.1     0.3     0.1     0.0     0.1     0.2     0.2     0.1     0.0     0.0
     0.2     0.2     0.1     0.2     0.1    -0.1     0.0     0.1     0.1     0.1
     0.1     0.2     0.2     0.2     0.1     0.1     0.2     0.0     0.0     0.0
    -0.0    -0.1    -0.0     0.1     0.1     0.0    -0.0     0.0     0.0     0.1
     0.2     0.1     0.1     0.1    -0.1     0.0     0.2     0.2    -0.0    -0.1
     0.1     0.1     0.1     0.1     0.0     0.3     0.1    -0.2     0.0     0.0
    -0.1    -0.1     0.1     0.2     0.1     0.1     0.2     0.2     0.1     0.1
     0.1     0.2     0.1     0.0     0.2     0.1    -0.0     0.1     0.0    -0.0
     0.1     0.2     0.1     0.0     0.0    -0.0     0.1     0.2     0.1     0.1
     0.2     0.3     0.1    -0.1     0.1     0.2     0.0     0.1     0.1     0.2
     0.2    -0.0     0.0     0.1    -0.0     0.0     0.0     0.0     0.1    -0.0
    -0.0     0.1    -0.1    -0.0     0.2     0.1    -0.0     0.0     0.0    -0.0
     0.0     0.1    -0.0    -0.0     0.2     0.0    -0.0     0.1    -0.1     0.1
     0.1    -0.2     0.2     0.1     0.0     0.2    -0.1     0.0     0.1    -0.1
    -0.0     0.2     0.1     0.0     0.0    -0.1     0.1     0.1    -0.2     0.1
     0.1     0.0     0.2     0.0    -0.0     0.1    -0.1    -0.0     0.2     0.2
     0.1     0.1     0.1     0.0    -0.1    -0.1    -0.1    -0.1    -0.0    -0.1
    -0.0     0.1    -0.0     0.1     0.1     0.2     0.1    -0.1    -0.1    -0.1
    -0.0    -0.1    -0.0     0.1    -0.0    -0.0    -0.1     0.0     0.0    -0.1
     0.0     0.0     0.1     0.1    -0.0     0.0    -0.0    -0.0    -0.0    -0.1
     0.1     0.0    -0.1    -0.1    -0.0     0.0     0.0    -0.2     0.1     0.1
    -0.0     0.1    -0.1     0.1     0.0    -0.1     0.2     0.1     0.1     0.1
    -0.1    -0.0    -0.0     0.1     0.0    -0.1     0.1     0.2     0.1     0.2
     0.2     0.0     0.1     0.3     0.2     0.1     0.2     0.1     0.1     0.2
     0.1    -0.0    -0.1    -0.0     0.2     0.2     0.1     0.0     0.2     0.2
     0.1     0.1    -0.0    -0.1     0.0    -0.1     0.1     0.1    -0.0    -0.1
    -0.1     0.2    -0.1    -0.1     0.1    -0.1     0.1    -0.1    -0.1     0.2
     0.1     0.0    -0.1    -0.1     0.1    -0.0    -0.1    -0.0     0.1     0.1
     0.0     0.0     0.2     0.1     0.0     0.1    -0.1    -0.0    -0.0    -0.1
     0.2     0.1    -0.0     0.0     0.1     0.2    -0.0    -0.0     0.1    -0.1
    -0.0    -0.1    -0.0     0.0    -0.1     0.0     0.1     0.0    -0.0     0.1
     0.2     0.1     0.0    -0.0     0.0     0.1     0.1     0.1     0.1     0.2
     0.1    -0.0    -0.0    -0.0     0.0     0.1     0.0     0.1     0.1     0.0
     0.0    -0.0     0.0    -0.1    -0.1     0.0    -0.1     0.0    -0.1    -0.1
     0.1     0.0     0.1     0.2     0.0     0.1     0.1     0.2     0.2    -0.0
     0.0     0.1     0.2     0.1    -0.0     0.0     0.1     0.1    -0.0     0.2
     0.1    -0.1     0.1     0.2     0.1     0.1     0.1    -0.0    -0.0     0.1
    -0.0    -0.0    -0.0     0.0     0.1     0.1     0.2     0.2     0.1     0.0
     0.0     0.1     0.2     0.2     0.0    -0.0     0.1    -0.0    -0.1    -0.1
    -0.2    -0.0    -0.1     0.0     0.1     0.0     0.1     0.0     0.0     0.0
     0.1     0.1    -0.0     0.0     0.0    -0.0     0.0     0.1     0.1     0.0
     0.2     0.1    -0.1    -0.2    -0.0     0.2    -0.0    -0.1    -0.1    -0.1
    -0.0    -0.1     0.1     0.1     0.1     0.1    -0.0     0.0     0.1     0.1
     0.1     0.1     0.2     0.0     0.1     0.2     0.1     0.1     0.1     0.1
     0.1     0.0     0.1     0.2     0.1     0.1     0.1     0.1     0.1    -0.1
     0.1     0.2     0.0     0.1     0.1     0.1     0.1     0.0    -0.0    -0.2
    -0.1     0.1    -0.1    -0.0     0.2     0.1     0.0     0.1    -0.0     0.0
     0.1    -0.0     0.2     0.2     0.0     0.1    -0.1     0.0     0.2    -0.1
     0.1     0.1     0.0     0.1     0.0     0.2     0.2     0.0     0.3     0.1
    -0.1     0.0     0.1     0.0    -0.0     0.0    -0.1     0.0     0.1    -0.0
     0.2     0.1     0.1     0.1     0.1     0.2     0.1     0.0     0.0     0.1
     0.2     0.1     0.0     0.3     0.1    -0.1    -0.0    -0.1     0.1     0.0
     0.0     0.2    -0.0     0.1     0.1     0.0     0.1    -0.1    -0.0     0.3
     0.1     0.1     0.3     0.1     0.1     0.1    -0.0     0.3     0.1    -0.0
     0.2     0.1     0.1     0.2     0.2    -0.0    -0.1     0.0    -0.0    -0.1
     0.2     0.2     0.1     0.1     0.2     0.1    -0.1    -0.1    -0.1     0.0
     0.0    -0.0    -0.1     0.0     0.1     0.1     0.1     0.1     0.2     0.1
     0.1     0.1     0.0     0.1     0.1    -0.0     0.1     0.1     0.2     0.2
     0.0     0.1     0.1     0.0     0.1     0.1     0.2     0.2    -0.0     0.2
     0.2    -0.1     0.1     0.2     0.0     0.1     0.1     0.2     0.1    -0.1
     0.1     0.1     0.0     0.1     0.0    -0.0    -0.0     0.1     0.2     0.1
     0.1     0.0     0.1     0.1    -0.1     0.0     0.2     0.1     0.1     0.1
     0.0     0.1     0.0    -0.1    -0.0     0.1     0.1     0.1     0.0    -0.1
     0.1     0.1     0.0     0.2     0.1    -0.0     0.2     0.1     0.1     0.1
     0.1     0.2     0.0     0.0     0.1     0.0     0.1     0.2     0.0    -0.1
     0.0     0.1     0.1     0.2     0.1     0.2     0.2     0.0     0.0     0.1
    -0.1     0.1     0.2     0.1     0.1    -0.1    -0.1    -0.1    -0.0     0.1
    -0.1     0.1     0.0    -0.1     0.2     0.1     0.1     0.0    -0.0     0.2
    -0.1    -0.1     0.1     0.1     0.1     0.1     0.0    -0.0     0.1     0.0
    -0.0     0.2     0.1     0.1     0.1     0.1     0.1    -0.1    -0.0    -0.1
     0.1     0.1    -0.2    -0.0     0.0    -0.1     0.1     0.1     0.1    -0.0
    -0.0     0.1    -0.0     0.0     0.1    -0.1    -0.1    -0.1    -0.1    -0.0
     0.1     0.3    -0.0    -0.0     0.0    -0.1     0.1    -0.1    -0.2    -0.0
    -0.1     0.0    -0.0    -0.0     0.1    -0.0     0.0     0.1    -0.1    -0.0
     0.0     0.0     0.1     0.0    -0.1    -0.0    -0.0    -0.0    -0.0     0.2
     0.1    -0.0    -0.1    -0.1     0.1     0.1    -0.0     0.0    -0.0    -0.0
    -0.1     0.1     0.0    -0.1     0.1     0.0    -0.0     0.0     0.0     0.0
    -0.0     0.1     0.0    -0.0     0.0    -0.0     0.1     0.0    -0.1     0.1
     0.1    -0.0    -0.1    -0.1     0.1     0.1    -0.0     0.1     0.2     0.1
     0.1     0.1    -0.0     0.0     0.0     0.0     0.1     0.1     0.1     0.1
    -0.0     0.0    -0.0     0.1     0.1     0.0     0.1     0.0    -0.0    -0.0
    -0.0    -0.0     0.1     0.0    -0.0    -0.1    -0.1     0.0     0.1     0.0
    -0.0    -0.1    -0.1    -0.1     0.1     0.2     0.1     0.1     0.0    -0.0
    -0.0    -0.2    -0.0     0.1    -0.1    -0.0     0.0     0.0     0.1    -0.0
     0.1     0.1     0.0     0.1    -0.0     0.0     0.1    -0.0    -0.1     0.0
     0.0     0.0     0.2     0.2    -0.0    -0.1    -0.0     0.2     0.1    -0.0
     0.2     0.2     0.1     0.1     0.2     0.0    -0.1     0.0     0.0     0.2
     0.2    -0.1    -0.0    -0.0     0.1    -0.0    -0.1    -0.0    -0.1     0.1
     0.2     0.1     0.1    -0.1    -0.1    -0.0    -0.1     0.0    -0.1    -0.1
     0.0     0.0     0.0     0.0    -0.1    -0.0     0.0    -0.1     0.0     0.0
    -0.2     0.1     0.1    -0.0     0.2     0.0    -0.0     0.0    -0.0     0.2
    -0.0    -0.1     0.0    -0.0     0.2     0.2     0.0     0.0     0.0     0.1
     0.1     0.1     0.1     0.1     0.0    -0.0     0.1     0.1     0.0     0.1
    -0.1    -0.0     0.0    -0.1     0.1     0.1    -0.1     0.0    -0.1    -0.0
     0.0     0.0     0.1     0.2     0.1    -0.1     0.0    -0.0    -0.1     0.1
    -0.1    -0.0     0.1    -0.0     0.0     0.0    -0.1     0.0    -0.0    -0.0
    -0.0    -0.2    -0.0     0.1     0.0    -0.1    -0.0     0.1    -0.0    -0.0
     0.1     0.0     0.0     0.0    -0.1     0.1     0.2     0.0     0.0    -0.0
     0.1     0.2     0.1     0.1     0.1    -0.0     0.0     0.1     0.0    -0.1
     0.0     0.1    -0.0     0.1     0.1    -0.0    -0.1     0.0    -0.0     0.0
     0.1    -0.1    -0.0     0.1     0.0     0.1     0.1     0.0     0.0     0.1
     0.1     0.0     0.0     0.0    -0.0     0.2     0.2    -0.2    -0.1    -0.1
    -0.1     0.2    -0.0     0.0     0.1    -0.1    -0.1     0.1     0.1     0.0
    -0.1    -0.0     0.1     0.0    -0.0    -0.1    -0.1     0.1     0.0     0.0
     0.0    -0.0    -0.1    -0.1     0.1     0.2    -0.1    -0.0    -0.1    -0.0
     0.2     0.1    -0.1    -0.0     0.0    -0.0    -0.2    -0.2    -0.2    -0.1
    -0.0     0.0     0.2     0.1    -0.1     0.0     0.1    -0.0    -0.0     0.1
     0.1    -0.0     0.1     0.2     0.0    -0.0     0.0     0.1     0.0     0.1
     0.0    -0.0     0.1     0.0    -0.1     0.0     0.1     0.0     0.0     0.0
     0.2     0.1     0.1     0.1     0.1     0.1     0.1     0.0     0.0     0.0
     0.0     0.0     0.1     0.0    -0.1     0.0    -0.0    -0.1     0.0     0.1
     0.1    -0.0    -0.0     0.1     0.0     0.2     0.2    -0.1    -0.0    -0.0
     0.1     0.2     0.0    -0.0    -0.0     0.0    -0.1     0.0     0.1    -0.1
     0.2     0.1    -0.1     0.2     0.0     0.0     0.1     0.1     0.1    -0.1
    -0.0     0.1    -0.1    -0.1     0.1    -0.0    -0.1     0.0     0.2     0.2
     0.1    -0.0    -0.0     0.1     0.1    -0.0    -0.0     0.1     0.0     0.1
     0.1    -0.1    -0.1     0.1    -0.1     0.1     0.3    -0.0     0.0     0.2
    -0.1    -0.1     0.1     0.1    -0.1    -0.0    -0.0    -0.1    -0.0    -0.1
    -0.2     0.1     0.1     0.1     0.1    -0.0    -0.0     0.0     0.0    -0.1
    -0.1     0.0     0.0     0.1    -0.0    -0.1    -0.0     0.0    -0.1    -0.2
     0.0     0.0    -0.1    -0.1    -0.1    -0.1    -0.1    -0.1    -0.1    -0.0
     0.0     0.0    -0.0    -0.1    -0.1    -0.1     0.0    -0.0    -0.1     0.1
     0.1    -0.0     0.1    -0.0    -0.0     0.1    -0.1    -0.0    -0.0     0.0
     0.1    -0.0     0.1     0.1     0.1     0.3     0.1    -0.0    -0.1     0.0
     0.2    -0.1    -0.0     0.1    -0.2    -0.1     0.0    -0.1    -0.1    -0.0
    -0.1     0.1     0.1    -0.2    -0.1    -0.0    -0.1     0.1    -0.1    -0.2
     0.1    -0.0    -0.1    -0.1    -0.2    -0.1    -0.0    -0.1    -0.1    -0.1
    -0.1    -0.1    -0.0     0.0    -0.0     0.1    -0.0    -0.0     0.1    -0.1
     0.0     0.0    -0.0     0.1     0.1     0.1     0.1    -0.0    -0.0     0.1
     0.1    -0.0    -0.2    -0.1     0.1     0.0    -0.1     0.0     0.1    -0.0
    -0.1    -0.2    -0.3    -0.1    -0.0    -0.1     0.0    -0.1    -0.1    -0.0
    -0.0    -0.0     0.0    -0.0    -0.1    -0.1     0.1     0.1     0.0     0.0
    -0.1    -0.3    -0.1     0.0    -0.1     0.1     0.1    -0.1    -0.2    -0.1
     0.0    -0.1    -0.0     0.1    -0.1    -0.2    -0.1    -0.1    -0.1    -0.0
    -0.0     0.0     0.1     0.0    -0.1    -0.1     0.0     0.0     0.0    -0.0
    -0.1     0.0     0.0     0.0     0.1    -0.0    -0.0     0.0     0.1    -0.1
    -0.2    -0.0    -0.0    -0.1    -0.1    -0.1     0.1     0.1    -0.2    -0.1
     0.1    -0.0    -0.1     0.1     0.1    -0.0    -0.1     0.0     0.0    -0.3
    -0.1     0.0    -0.0     0.1    -0.0    -0.0    -0.0    -0.1     0.1    -0.0
    -0.1    -0.0     0.0     0.2     0.0     0.0     0.1     0.0     0.1     0.1
     0.1     0.1     0.1     0.0    -0.1    -0.2    -0.2     0.1     0.1    -0.1
