Uncorrected accelerogram 20161113_110256_HAVS_20 GNS Science
Site HAVS      41 16 20S  173 47 05E     Basalt file:  20161113_110324_HAVS
Havelock
Instrument Basalt_614
Resolution: 24-bit   Instr Period: 0.0050 s   Damping: 0.700
Accelerogram 20161113_110256_HAVS_20                 Processed 2016 December 09
5 km south-west of Waiau
2016 November 13         11:02:56 UT
Epicentre  42 41 33S 173 01 19E  Bearing S22W  Dist  170km  Depth   15km Mw 7.82
Number of points  65536    Duration 327.68 s
Raw readings in units of 1.00 mm/s/s  at intervals of 0.005 s
Data is unfiltered
Component S74E
Acceleration:  Peak  -1323.3 mm/s/s at 102.33 s     RMS    87.85 mm/s/s
Velocity record unevaluated
Displacement record unevaluated
    2016      11      13      11       2     560       0       0    2016      11
      42      41      33     173       1      19      15       0      13      11
      41      16      20     173      47       5     106     106     202     170
   65536       0       0   65536       0       0       0       0       2   44000
   200.0    0.70    0.00   0.000  0.0000   0.000   0.000   1.000     0.0    0.00
  41.272 173.785  42.693 173.022    7.82    0.00    0.00    0.00      0.      0.
  327.68    0.00    0.00  327.68  0.0050  0.0050      0.      0.      0.  9806.6
 -1323.3  102.33    87.9      0.      0.     0.0    0.00     0.0     0.0   0.000
    0.00    0.00    0.00    0.00   0.000    0.00    0.00    0.00    0.00   0.000
   0.000   0.000   0.000      0.      0.   0.000   0.000   0.000      0.      0.
    -0.0     0.8     0.3    -0.5     0.1     0.9     0.3    -0.5    -0.1     0.9
     0.3    -0.6     0.1     0.9     0.3    -0.5    -0.0     0.9     0.2    -0.5
     0.1     0.8     0.4    -0.5     0.0     0.8     0.3    -0.5     0.1     0.9
     0.3    -0.5     0.0     0.8     0.3    -0.5     0.1     0.9     0.2    -0.5
     0.1     0.8     0.3    -0.5     0.1     0.9     0.2    -0.5     0.1     0.8
     0.3    -0.5     0.1     0.8     0.2    -0.5     0.1     0.8     0.2    -0.4
     0.1     0.8     0.2    -0.6     0.1     0.9     0.2    -0.5     0.1     0.8
     0.2    -0.5     0.2     0.8     0.1    -0.5     0.2     0.8     0.2    -0.5
     0.2     0.9     0.1    -0.5     0.1     0.8     0.2    -0.6     0.2     0.9
     0.2    -0.6     0.1     0.9     0.2    -0.6     0.2     0.9     0.1    -0.6
     0.2     0.9     0.1    -0.6     0.3     0.9     0.1    -0.5     0.2     0.9
     0.2    -0.6     0.2     0.9     0.1    -0.6     0.2     0.9     0.1    -0.6
     0.3     0.9     0.1    -0.5     0.1     0.9     0.1    -0.6     0.2     0.9
     0.1    -0.6     0.2     0.9     0.1    -0.6     0.3     0.9     0.1    -0.6
     0.2     0.9     0.1    -0.6     0.2     1.0     0.1    -0.6     0.3     0.9
     0.0    -0.6     0.3     0.9     0.1    -0.6     0.2     0.9     0.0    -0.6
     0.3     0.9     0.1    -0.6     0.2     0.9     0.1    -0.6     0.3     0.9
     0.0    -0.5     0.2     0.9     0.1    -0.6     0.4     0.9     0.0    -0.5
     0.2     0.9    -0.0    -0.6     0.3     0.9     0.1    -0.6     0.3     0.8
     0.0    -0.5     0.4     0.9    -0.0    -0.6     0.3     0.9     0.0    -0.5
     0.4     0.9    -0.0    -0.5     0.3     0.8     0.0    -0.5     0.4     0.8
    -0.0    -0.5     0.3     0.9     0.0    -0.5     0.3     0.7     0.1    -0.5
     0.3     0.9    -0.1    -0.5     0.3     0.8     0.0    -0.5     0.3     0.9
    -0.0    -0.6     0.4     0.8    -0.0    -0.5     0.3     0.8    -0.0    -0.5
     0.4     0.8    -0.0    -0.5     0.3     0.8    -0.0    -0.5     0.3     0.8
    -0.0    -0.5     0.4     0.8    -0.1    -0.5     0.4     0.8    -0.1    -0.6
     0.4     0.8    -0.1    -0.5     0.4     0.8    -0.1    -0.5     0.4     0.9
    -0.1    -0.5     0.4     0.8    -0.1    -0.4     0.4     0.8    -0.1    -0.6
     0.4     0.9    -0.1    -0.5     0.5     0.8    -0.1    -0.5     0.4     0.8
    -0.1    -0.5     0.4     0.8    -0.1    -0.5     0.4     0.8    -0.1    -0.5
     0.4     0.8    -0.2    -0.5     0.5     0.8    -0.1    -0.5     0.5     0.8
    -0.2    -0.4     0.5     0.8    -0.1    -0.5     0.5     0.8    -0.1    -0.5
     0.5     0.8    -0.2    -0.5     0.5     0.8    -0.2    -0.5     0.5     0.9
    -0.2    -0.4     0.6     0.8    -0.2    -0.5     0.5     0.8    -0.1    -0.5
     0.5     0.9    -0.2    -0.4     0.5     0.7    -0.1    -0.5     0.5     0.8
    -0.2    -0.5     0.5     0.8    -0.2    -0.4     0.5     0.8    -0.2    -0.5
     0.7     0.8    -0.2    -0.5     0.5     0.8    -0.3    -0.5     0.6     0.8
    -0.2    -0.5     0.5     0.7    -0.2    -0.4     0.6     0.8    -0.3    -0.5
     0.5     0.7    -0.2    -0.4     0.6     0.8    -0.2    -0.4     0.5     0.8
    -0.2    -0.4     0.6     0.7    -0.2    -0.4     0.6     0.7    -0.2    -0.4
     0.6     0.8    -0.3    -0.5     0.6     0.7    -0.2    -0.3     0.6     0.8
    -0.2    -0.4     0.5     0.7    -0.3    -0.3     0.7     0.7    -0.2    -0.4
     0.5     0.7    -0.3    -0.3     0.6     0.7    -0.2    -0.4     0.6     0.7
    -0.3    -0.3     0.6     0.7    -0.3    -0.4     0.6     0.7    -0.3    -0.3
     0.7     0.7    -0.3    -0.3     0.6     0.7    -0.3    -0.3     0.6     0.7
    -0.4    -0.4     0.7     0.7    -0.3    -0.3     0.6     0.7    -0.3    -0.4
     0.7     0.7    -0.4    -0.3     0.6     0.7    -0.3    -0.4     0.7     0.6
    -0.4    -0.4     0.7     0.7    -0.4    -0.3     0.7     0.7    -0.3    -0.4
     0.7     0.6    -0.3    -0.2     0.7     0.7    -0.4    -0.3     0.7     0.6
    -0.4    -0.3     0.7     0.6    -0.3    -0.3     0.7     0.6    -0.4    -0.3
     0.7     0.6    -0.3    -0.3     0.7     0.6    -0.4    -0.3     0.7     0.7
    -0.4    -0.3     0.7     0.6    -0.4    -0.3     0.7     0.6    -0.3    -0.3
     0.6     0.6    -0.4    -0.3     0.8     0.7    -0.4    -0.3     0.7     0.6
    -0.4    -0.3     0.8     0.6    -0.4    -0.3     0.7     0.6    -0.4    -0.3
     0.7     0.6    -0.5    -0.3     0.8     0.6    -0.4    -0.2     0.8     0.6
    -0.3    -0.3     0.7     0.7    -0.4    -0.3     0.8     0.6    -0.4    -0.2
     0.8     0.6    -0.4    -0.3     0.8     0.5    -0.4    -0.2     0.7     0.6
    -0.4    -0.3     0.8     0.6    -0.5    -0.2     0.8     0.5    -0.3    -0.2
     0.7     0.6    -0.5    -0.2     0.8     0.6    -0.4    -0.3     0.7     0.6
    -0.4    -0.2     0.8     0.5    -0.4    -0.2     0.7     0.5    -0.4    -0.2
     0.8     0.5    -0.4    -0.2     0.8     0.5    -0.5    -0.2     0.8     0.5
    -0.4    -0.1     0.7     0.5    -0.4    -0.2     0.8     0.5    -0.5    -0.2
     0.8     0.5    -0.5    -0.2     0.8     0.5    -0.4    -0.1     0.8     0.5
    -0.5    -0.2     0.8     0.5    -0.5    -0.2     0.8     0.4    -0.4    -0.1
     0.8     0.5    -0.5    -0.2     0.8     0.4    -0.5    -0.1     0.9     0.5
    -0.5    -0.1     0.8     0.4    -0.5    -0.1     0.9     0.4    -0.5    -0.2
     0.8     0.5    -0.5    -0.1     0.9     0.4    -0.6    -0.1     0.8     0.5
    -0.4    -0.1     0.9     0.4    -0.6    -0.1     0.9     0.4    -0.5    -0.0
     0.8     0.4    -0.5    -0.1     0.9     0.4    -0.5    -0.0     0.7     0.4
    -0.5    -0.2     0.9     0.4    -0.5    -0.0     0.8     0.4    -0.5    -0.1
     0.8     0.4    -0.5    -0.0     0.9     0.4    -0.5    -0.1     0.8     0.4
    -0.6    -0.0     0.9     0.3    -0.5    -0.0     0.8     0.4    -0.5    -0.1
     0.9     0.3    -0.5    -0.1     0.8     0.5    -0.5    -0.0     0.8     0.4
    -0.5    -0.1     0.8     0.4    -0.5     0.0     0.8     0.4    -0.6    -0.1
     0.9     0.3    -0.5    -0.0     0.8     0.4    -0.5    -0.0     0.8     0.3
    -0.5    -0.0     0.8     0.4    -0.5    -0.0     0.8     0.4    -0.5    -0.1
     0.8     0.3    -0.5     0.1     0.8     0.3    -0.5    -0.0     0.9     0.3
    -0.5     0.1     0.8     0.3    -0.5     0.0     0.9     0.3    -0.5    -0.0
     0.8     0.4    -0.5     0.1     0.8     0.3    -0.5    -0.0     0.9     0.2
    -0.5     0.1     0.9     0.3    -0.5     0.1     0.8     0.3    -0.5     0.1
     0.8     0.2    -0.5     0.1     0.9     0.2    -0.5     0.1     0.8     0.3
    -0.5     0.1     0.9     0.2    -0.5     0.1     0.8     0.2    -0.5     0.1
     0.9     0.2    -0.5     0.1     0.8     0.2    -0.5     0.1     0.9     0.2
    -0.5     0.2     0.8     0.2    -0.5     0.1     0.8     0.2    -0.5     0.1
     0.8     0.2    -0.6     0.2     0.9     0.1    -0.5     0.2     1.0     0.2
    -0.6     0.2     0.8     0.1    -0.5     0.2     0.9     0.2    -0.6     0.2
     0.9     0.1    -0.5     0.2     0.8     0.2    -0.5     0.1     0.9     0.1
    -0.6     0.2     0.9     0.1    -0.5     0.2     0.9     0.1    -0.6     0.3
     0.9     0.1    -0.6     0.2     0.9     0.1    -0.6     0.2     0.9     0.1
    -0.6     0.2     0.8     0.1    -0.5     0.3     0.9     0.1    -0.5     0.2
     0.9     0.1    -0.5     0.2     0.9     0.2    -0.5     0.2     0.9     0.1
    -0.6     0.2     0.9     0.0    -0.5     0.3     0.9     0.1    -0.6     0.2
     0.9     0.1    -0.5     0.2     0.9     0.1    -0.6     0.3     0.9     0.1
    -0.5     0.3     0.8     0.1    -0.5     0.2     0.9     0.1    -0.6     0.3
     0.9     0.1    -0.5     0.2     0.9     0.1    -0.5     0.4     0.9     0.0
    -0.5     0.2     0.9     0.1    -0.5     0.3     0.9     0.0    -0.5     0.3
     0.9     0.0    -0.5     0.3     0.8     0.0    -0.5     0.3     0.9    -0.0
    -0.5     0.3     0.8     0.1    -0.5     0.3     0.9    -0.1    -0.5     0.4
     0.8     0.0    -0.5     0.3     0.9    -0.1    -0.6     0.4     0.8    -0.0
    -0.5     0.3     0.8    -0.0    -0.6     0.4     0.8    -0.0    -0.5     0.2
     0.8     0.0    -0.5     0.4     0.9    -0.1    -0.5     0.4     0.8    -0.0
    -0.5     0.4     0.9    -0.1    -0.5     0.4     0.8    -0.1    -0.5     0.4
     0.8    -0.1    -0.5     0.4     0.8    -0.1    -0.5     0.3     0.8    -0.1
    -0.5     0.5     0.8    -0.1    -0.5     0.4     0.8    -0.2    -0.5     0.5
     0.8    -0.1    -0.5     0.4     0.8    -0.1    -0.4     0.4     0.8    -0.1
    -0.6     0.5     0.8    -0.2    -0.5     0.5     0.8    -0.2    -0.5     0.5
     0.8    -0.2    -0.5     0.5     0.8    -0.2    -0.5     0.5     0.8    -0.2
    -0.5     0.4     0.8    -0.2    -0.5     0.6     0.8    -0.2    -0.5     0.5
     0.8    -0.2    -0.5     0.5     0.8    -0.3    -0.5     0.6     0.8    -0.2
    -0.5     0.5     0.8    -0.2    -0.5     0.6     0.8    -0.2    -0.5     0.4
     0.9    -0.2    -0.5     0.6     0.8    -0.2    -0.4     0.5     0.8    -0.2
    -0.4     0.5     0.9    -0.1    -0.5     0.5     0.7    -0.2    -0.5     0.6
     0.8    -0.2    -0.5     0.5     0.8    -0.2    -0.5     0.5     0.8    -0.2
    -0.4     0.6     0.7    -0.2    -0.5     0.5     0.8    -0.2    -0.4     0.6
     0.8    -0.2    -0.4     0.5     0.7    -0.3    -0.4     0.6     0.7    -0.2
    -0.5     0.5     0.8    -0.2    -0.4     0.5     0.7    -0.2    -0.4     0.5
     0.7    -0.2    -0.4     0.6     0.7    -0.3    -0.4     0.5     0.7    -0.2
    -0.3     0.6     0.7    -0.3    -0.4     0.6     0.7    -0.2    -0.4     0.6
     0.7    -0.3    -0.4     0.7     0.7    -0.3    -0.3     0.6     0.7    -0.3
    -0.4     0.7     0.7    -0.3    -0.4     0.6     0.7    -0.3    -0.3     0.7
     0.7    -0.4    -0.3     0.6     0.7    -0.4    -0.3     0.7     0.6    -0.4
    -0.3     0.6     0.6    -0.3    -0.3     0.6     0.6    -0.4    -0.3     0.7
     0.7    -0.3    -0.3     0.6     0.6    -0.3    -0.3     0.7     0.6    -0.4
    -0.3     0.7     0.7    -0.4    -0.3     0.8     0.6    -0.4    -0.3     0.7
     0.7    -0.3    -0.3     0.7     0.7    -0.4    -0.3     0.7     0.6    -0.4
    -0.3     0.8     0.7    -0.5    -0.3     0.8     0.7    -0.5    -0.3     0.8
     0.6    -0.4    -0.3     0.7     0.7    -0.4    -0.2     0.7     0.6    -0.4
    -0.4     0.7     0.6    -0.3    -0.3     0.7     0.6    -0.4    -0.3     0.7
     0.6    -0.4    -0.3     0.8     0.6    -0.4    -0.3     0.7     0.6    -0.4
    -0.3     0.8     0.6    -0.5    -0.3     0.7     0.6    -0.4    -0.3     0.7
     0.6    -0.4    -0.3     0.8     0.6    -0.4    -0.2     0.7     0.6    -0.4
    -0.3     0.8     0.5    -0.4    -0.2     0.6     0.6    -0.3    -0.2     0.8
     0.6    -0.4    -0.3     0.8     0.5    -0.4    -0.2     0.8     0.6    -0.5
    -0.3     0.8     0.5    -0.4    -0.2     0.7     0.6    -0.5    -0.2     0.8
     0.5    -0.4    -0.3     0.7     0.6    -0.4    -0.2     0.8     0.6    -0.4
    -0.3     0.8     0.5    -0.5    -0.1     0.8     0.5    -0.4    -0.2     0.7
     0.5    -0.5    -0.1     0.8     0.5    -0.4    -0.2     0.8     0.5    -0.5
    -0.1     0.8     0.5    -0.4    -0.2     0.8     0.5    -0.5    -0.1     0.8
     0.5    -0.4    -0.2     0.8     0.5    -0.5    -0.1     0.9     0.5    -0.5
    -0.1     0.8     0.4    -0.5    -0.1     0.8     0.5    -0.5    -0.2     0.8
     0.4    -0.5    -0.1     0.8     0.5    -0.5    -0.1     0.8     0.4    -0.4
    -0.1     0.8     0.4    -0.5    -0.1     0.8     0.5    -0.5    -0.1     0.9
     0.4    -0.5    -0.1     0.8     0.5    -0.5    -0.1     0.9     0.4    -0.5
    -0.1     0.8     0.5    -0.5    -0.1     0.8     0.4    -0.5    -0.2     0.9
     0.4    -0.5    -0.1     0.9     0.4    -0.6    -0.1     0.8     0.4    -0.5
    -0.1     0.8     0.4    -0.6    -0.1     0.9     0.4    -0.5    -0.1     0.8
     0.4    -0.5     0.0     0.9     0.4    -0.6    -0.1     0.8     0.4    -0.6
    -0.0     0.9     0.4    -0.5    -0.1     0.8     0.4    -0.5     0.0     0.9
     0.4    -0.5    -0.1     0.8     0.4    -0.5    -0.0     0.9     0.3    -0.6
    -0.0     0.8     0.4    -0.5    -0.0     0.8     0.3    -0.5    -0.0     0.9
     0.4    -0.5     0.0     0.9     0.3    -0.6    -0.0     0.9     0.4    -0.5
     0.0     0.9     0.2    -0.6     0.0     0.8     0.4    -0.5    -0.0     0.9
     0.3    -0.6     0.0     0.9     0.3    -0.5     0.0     0.8     0.3    -0.5
     0.1     0.8     0.3    -0.5    -0.0     0.9     0.2    -0.6     0.1     0.9
     0.3    -0.5    -0.0     0.8     0.3    -0.5     0.1     0.9     0.3    -0.5
     0.1     0.8     0.2    -0.5     0.1     0.9     0.2    -0.5     0.0     0.8
     0.3    -0.5     0.1     0.9     0.2    -0.6     0.1     0.9     0.2    -0.5
     0.1     0.8     0.3    -0.5     0.1     0.9     0.2    -0.5     0.1     0.8
     0.3    -0.5     0.1     0.8     0.2    -0.6     0.2     0.9     0.2    -0.5
     0.1     0.9     0.2    -0.6     0.2     0.9     0.2    -0.5     0.1     0.9
     0.2    -0.6     0.2     1.0     0.1    -0.6     0.1     0.8     0.2    -0.5
     0.1     0.9     0.2    -0.6     0.2     0.8     0.2    -0.5     0.1     0.8
     0.2    -0.5     0.2     0.9     0.1    -0.6     0.1     0.9     0.2    -0.6
     0.2     0.9     0.1    -0.5     0.2     0.8     0.2    -0.6     0.1     0.9
     0.1    -0.6     0.2     0.9     0.1    -0.6     0.2     0.8     0.1    -0.5
     0.1     0.9     0.2    -0.6     0.2     0.9     0.1    -0.6     0.2     0.9
     0.1    -0.6     0.2     0.9     0.1    -0.5     0.2     0.8     0.1    -0.6
     0.2     1.0     0.1    -0.6     0.2     0.9     0.1    -0.5     0.2     0.9
     0.1    -0.6     0.2     0.9     0.1    -0.5     0.2     0.9     0.1    -0.6
     0.3     0.9     0.1    -0.6     0.2     0.9     0.1    -0.6     0.3     0.9
     0.1    -0.5     0.2     0.9     0.1    -0.6     0.2     0.8     0.1    -0.5
     0.3     0.9     0.1    -0.5     0.2     0.9     0.0    -0.6     0.3     0.9
     0.1    -0.6     0.2     0.8     0.1    -0.5     0.3     0.9     0.1    -0.5
     0.3     0.8     0.1    -0.5     0.3     0.9     0.0    -0.5     0.3     0.8
     0.1    -0.5     0.3     0.9    -0.0    -0.5     0.3     0.8     0.0    -0.5
     0.3     0.9    -0.0    -0.5     0.4     0.8    -0.0    -0.5     0.3     0.8
     0.1    -0.5     0.3     0.8    -0.0    -0.6     0.3     0.9     0.0    -0.5
     0.4     0.9    -0.0    -0.6     0.4     0.8    -0.0    -0.5     0.3     0.9
    -0.0    -0.6     0.4     0.8    -0.0    -0.5     0.3     0.8    -0.0    -0.5
     0.4     0.9    -0.0    -0.5     0.4     0.8    -0.1    -0.5     0.4     0.9
    -0.1    -0.5     0.4     0.8    -0.0    -0.6     0.4     0.9    -0.1    -0.5
     0.4     0.8    -0.1    -0.5     0.5     0.8    -0.1    -0.5     0.3     0.8
    -0.1    -0.5     0.5     0.8    -0.0    -0.4     0.4     0.8    -0.1    -0.5
     0.4     0.9    -0.1    -0.6     0.4     0.9    -0.1    -0.5     0.5     0.9
    -0.2    -0.6     0.4     0.8    -0.1    -0.5     0.4     0.8    -0.1    -0.5
     0.4     0.8    -0.1    -0.5     0.5     0.8    -0.1    -0.5     0.4     0.9
    -0.1    -0.5     0.4     0.8    -0.2    -0.5     0.5     0.9    -0.1    -0.5
     0.4     0.8    -0.1    -0.5     0.5     0.9    -0.2    -0.5     0.4     0.8
    -0.1    -0.5     0.5     0.8    -0.1    -0.5     0.4     0.9    -0.1    -0.5
     0.6     0.8    -0.1    -0.5     0.4     0.8    -0.2    -0.4     0.5     0.8
    -0.1    -0.5     0.4     0.8    -0.2    -0.4     0.5     0.8    -0.1    -0.5
     0.5     0.7    -0.2    -0.4     0.5     0.8    -0.1    -0.5     0.5     0.7
    -0.2    -0.5     0.5     0.8    -0.2    -0.4     0.5     0.8    -0.2    -0.4
     0.5     0.7    -0.2    -0.4     0.6     0.8    -0.2    -0.4     0.5     0.7
    -0.2    -0.4     0.5     0.7    -0.2    -0.5     0.5     0.9    -0.2    -0.4
     0.6     0.7    -0.2    -0.4     0.5     0.8    -0.2    -0.4     0.6     0.8
    -0.3    -0.5     0.5     0.8    -0.2    -0.4     0.6     0.7    -0.2    -0.4
     0.6     0.8    -0.3    -0.4     0.6     0.7    -0.3    -0.4     0.6     0.8
    -0.2    -0.4     0.6     0.7    -0.3    -0.4     0.5     0.8    -0.2    -0.4
     0.7     0.7    -0.3    -0.5     0.5     0.8    -0.2    -0.5     0.6     0.8
    -0.4    -0.4     0.7     0.8    -0.2    -0.4     0.6     0.7    -0.3    -0.5
     0.6     0.8    -0.3    -0.4     0.6     0.7    -0.3    -0.4     0.6     0.8
    -0.3    -0.4     0.6     0.7    -0.2    -0.4     0.6     0.8    -0.3    -0.4
     0.6     0.7    -0.2    -0.4     0.6     0.8    -0.3    -0.4     0.6     0.8
    -0.3    -0.3     0.6     0.7    -0.3    -0.4     0.7     0.7    -0.3    -0.4
     0.6     0.7    -0.2    -0.4     0.6     0.7    -0.3    -0.4     0.6     0.7
    -0.3    -0.3     0.6     0.7    -0.3    -0.4     0.7     0.6    -0.2    -0.3
     0.6     0.7    -0.4    -0.3     0.6     0.7    -0.3    -0.4     0.7     0.6
    -0.3    -0.4     0.6     0.7    -0.2    -0.4     0.6     0.7    -0.4    -0.3
     0.7     0.7    -0.3    -0.4     0.6     0.7    -0.3    -0.3     0.7     0.7
    -0.3    -0.3     0.6     0.7    -0.3    -0.4     0.7     0.7    -0.3    -0.3
     0.6     0.6    -0.3    -0.3     0.6     0.7    -0.3    -0.3     0.7     0.6
    -0.3    -0.3     0.7     0.6    -0.4    -0.3     0.7     0.7    -0.4    -0.3
     0.7     0.6    -0.3    -0.3     0.7     0.7    -0.4    -0.4     0.8     0.6
    -0.4    -0.3     0.7     0.6    -0.4    -0.3     0.8     0.6    -0.4    -0.3
     0.7     0.7    -0.4    -0.3     0.7     0.6    -0.3    -0.3     0.7     0.6
    -0.5    -0.3     0.7     0.6    -0.4    -0.3     0.7     0.6    -0.4    -0.3
     0.8     0.6    -0.4    -0.3     0.7     0.6    -0.4    -0.3     0.8     0.6
    -0.5    -0.3     0.8     0.6    -0.4    -0.2     0.8     0.6    -0.5    -0.3
     0.7     0.6    -0.4    -0.3     0.8     0.6    -0.5    -0.3     0.7     0.6
    -0.4    -0.2     0.7     0.6    -0.4    -0.3     0.7     0.6    -0.4    -0.3
     0.8     0.6    -0.5    -0.3     0.8     0.6    -0.4    -0.3     0.7     0.6
    -0.4    -0.3     0.7     0.6    -0.4    -0.3     0.8     0.6    -0.4    -0.3
     0.8     0.6    -0.5    -0.2     0.8     0.6    -0.4    -0.3     0.7     0.6
    -0.4    -0.2     0.8     0.6    -0.4    -0.2     0.7     0.6    -0.5    -0.2
     0.9     0.5    -0.4    -0.2     0.7     0.6    -0.4    -0.2     0.8     0.5
    -0.5    -0.3     0.7     0.6    -0.4    -0.2     0.8     0.5    -0.5    -0.2
