Uncorrected accelerogram 20161113_110256_MISS_20 GNS Science
Site MISS      41 18 54S  174 49 06E     Basalt file:  20161113_110329_MISS
Wellington Miramar School
Instrument Basalt_2418
Resolution: 24-bit   Instr Period: 0.0050 s   Damping: 0.700
Accelerogram 20161113_110256_MISS_20                 Processed 2016 December 09
5 km south-west of Waiau
2016 November 13         11:02:56 UT
Epicentre  42 41 33S 173 01 19E  Bearing S44W  Dist  214km  Depth   15km Mw 7.82
Number of points  65536    Duration 327.68 s
Raw readings in units of 1.00 mm/s/s  at intervals of 0.005 s
Data is unfiltered
Component N24E
Acceleration:  Peak   1451.5 mm/s/s at 107.59 s     RMS   119.10 mm/s/s
Velocity record unevaluated
Displacement record unevaluated
    2016      11      13      11       2     560       0       0    2016      11
      42      41      33     173       1      19      15       0      13      11
      41      18      54     174      49       6      24      24     224     214
   65536       0       0   65536       0       0       0       0       2   49000
   200.0    0.70    0.00   0.000  0.0000   0.000   0.000   1.000     0.0    0.00
  41.315 174.818  42.693 173.022    7.82    0.00    0.00    0.00      0.      0.
  327.68    0.00    0.00  327.68  0.0050  0.0050      0.      0.      0.  9806.6
  1451.5  107.59   119.1      0.      0.     0.0    0.00     0.0     0.0   0.000
    0.00    0.00    0.00    0.00   0.000    0.00    0.00    0.00    0.00   0.000
   0.000   0.000   0.000      0.      0.   0.000   0.000   0.000      0.      0.
     0.6     0.6     0.6     0.6     0.6     0.6     0.6     0.6     0.5     0.6
     0.6     0.6     0.6     0.6     0.6     0.6     0.6     0.6     0.6     0.6
     0.6     0.6     0.6     0.6     0.6     0.6     0.6     0.6     0.7     0.6
     0.6     0.6     0.6     0.6     0.6     0.6     0.6     0.6     0.6     0.6
     0.6     0.6     0.6     0.6     0.6     0.6     0.6     0.6     0.6     0.6
     0.6     0.6     0.6     0.6     0.5     0.6     0.6     0.6     0.6     0.6
     0.6     0.6     0.6     0.6     0.6     0.6     0.6     0.6     0.6     0.6
     0.6     0.6     0.6     0.6     0.5     0.6     0.6     0.6     0.6     0.6
     0.6     0.6     0.6     0.6     0.6     0.5     0.5     0.5     0.6     0.6
     0.6     0.6     0.6     0.6     0.6     0.6     0.6     0.6     0.6     0.5
     0.5     0.6     0.6     0.6     0.6     0.6     0.6     0.6     0.6     0.6
     0.6     0.5     0.6     0.6     0.6     0.6     0.6     0.6     0.6     0.6
     0.6     0.6     0.6     0.6     0.6     0.6     0.6     0.6     0.5     0.6
     0.6     0.6     0.6     0.6     0.6     0.6     0.6     0.6     0.6     0.6
     0.6     0.6     0.6     0.6     0.6     0.6     0.6     0.6     0.6     0.6
     0.6     0.6     0.6     0.6     0.6     0.6     0.6     0.6     0.6     0.6
     0.6     0.6     0.6     0.6     0.6     0.6     0.6     0.6     0.6     0.6
     0.6     0.6     0.6     0.6     0.6     0.6     0.6     0.6     0.6     0.6
     0.6     0.5     0.6     0.6     0.6     0.6     0.6     0.7     0.6     0.6
     0.6     0.6     0.6     0.5     0.6     0.6     0.6     0.6     0.5     0.6
     0.6     0.6     0.6     0.6     0.6     0.6     0.6     0.6     0.6     0.6
     0.6     0.7     0.6     0.6     0.6     0.6     0.6     0.5     0.6     0.6
     0.6     0.6     0.6     0.7     0.6     0.6     0.6     0.6     0.6     0.6
     0.6     0.6     0.6     0.6     0.6     0.6     0.6     0.6     0.6     0.7
     0.6     0.6     0.6     0.6     0.5     0.6     0.6     0.6     0.6     0.6
     0.6     0.6     0.6     0.6     0.6     0.6     0.6     0.6     0.6     0.6
     0.6     0.6     0.6     0.6     0.6     0.6     0.6     0.6     0.6     0.6
     0.6     0.6     0.6     0.6     0.6     0.5     0.6     0.6     0.6     0.6
     0.6     0.6     0.6     0.6     0.6     0.6     0.6     0.6     0.6     0.7
     0.6     0.6     0.7     0.6     0.6     0.6     0.6     0.6     0.6     0.6
     0.6     0.6     0.6     0.6     0.6     0.6     0.7     0.6     0.6     0.7
     0.6     0.6     0.6     0.6     0.6     0.6     0.6     0.6     0.6     0.6
     0.6     0.6     0.7     0.6     0.6     0.6     0.6     0.6     0.6     0.6
     0.6     0.6     0.6     0.6     0.7     0.6     0.6     0.7     0.7     0.7
     0.6     0.6     0.6     0.6     0.6     0.6     0.6     0.6     0.6     0.6
     0.6     0.7     0.6     0.6     0.7     0.7     0.6     0.6     0.6     0.6
     0.6     0.6     0.6     0.7     0.6     0.6     0.6     0.6     0.6     0.6
     0.6     0.6     0.5     0.6     0.5     0.6     0.6     0.5     0.6     0.6
     0.6     0.6     0.6     0.6     0.6     0.6     0.6     0.6     0.6     0.6
     0.6     0.6     0.6     0.6     0.6     0.7     0.6     0.6     0.6     0.6
     0.6     0.5     0.6     0.6     0.6     0.6     0.6     0.7     0.6     0.6
     0.6     0.6     0.6     0.5     0.5     0.6     0.6     0.6     0.5     0.6
     0.7     0.6     0.7     0.6     0.6     0.6     0.6     0.6     0.6     0.6
     0.5     0.6     0.6     0.6     0.6     0.6     0.7     0.6     0.6     0.6
     0.6     0.7     0.6     0.6     0.6     0.6     0.6     0.6     0.6     0.7
     0.5     0.6     0.7     0.6     0.6     0.6     0.6     0.6     0.6     0.6
     0.6     0.6     0.6     0.6     0.7     0.6     0.7     0.6     0.6     0.7
     0.6     0.6     0.6     0.6     0.6     0.6     0.6     0.7     0.6     0.6
     0.6     0.6     0.6     0.6     0.6     0.6     0.7     0.6     0.6     0.7
     0.6     0.6     0.6     0.6     0.6     0.6     0.6     0.6     0.6     0.6
     0.5     0.6     0.6     0.5     0.6     0.6     0.6     0.6     0.6     0.6
     0.6     0.6     0.6     0.6     0.6     0.6     0.6     0.6     0.6     0.6
     0.6     0.6     0.6     0.6     0.6     0.6     0.6     0.6     0.6     0.6
     0.6     0.6     0.6     0.6     0.6     0.6     0.5     0.6     0.6     0.6
     0.5     0.6     0.6     0.6     0.6     0.6     0.7     0.7     0.6     0.5
     0.6     0.6     0.6     0.6     0.6     0.6     0.6     0.6     0.6     0.6
     0.7     0.6     0.6     0.6     0.6     0.6     0.6     0.6     0.6     0.6
     0.6     0.6     0.6     0.6     0.6     0.6     0.6     0.6     0.6     0.6
     0.6     0.6     0.6     0.6     0.6     0.6     0.6     0.6     0.7     0.6
     0.7     0.7     0.6     0.6     0.6     0.6     0.6     0.5     0.6     0.6
     0.6     0.6     0.6     0.6     0.6     0.6     0.6     0.6     0.6     0.6
     0.6     0.6     0.6     0.6     0.6     0.6     0.6     0.6     0.6     0.6
     0.6     0.6     0.5     0.6     0.6     0.6     0.6     0.6     0.6     0.6
     0.6     0.6     0.6     0.6     0.6     0.6     0.6     0.5     0.6     0.6
     0.6     0.6     0.6     0.6     0.6     0.6     0.6     0.6     0.6     0.6
     0.5     0.6     0.6     0.6     0.6     0.6     0.6     0.6     0.6     0.6
     0.6     0.6     0.6     0.6     0.7     0.6     0.6     0.6     0.6     0.6
     0.6     0.5     0.6     0.6     0.6     0.6     0.6     0.6     0.6     0.7
     0.6     0.6     0.7     0.6     0.6     0.6     0.6     0.6     0.6     0.6
     0.6     0.6     0.6     0.6     0.6     0.6     0.6     0.6     0.6     0.6
     0.6     0.6     0.6     0.6     0.6     0.6     0.6     0.6     0.6     0.6
     0.6     0.7     0.6     0.6     0.7     0.6     0.6     0.5     0.6     0.6
     0.6     0.6     0.6     0.6     0.6     0.6     0.6     0.6     0.6     0.5
     0.6     0.6     0.5     0.6     0.6     0.6     0.6     0.5     0.6     0.6
     0.5     0.6     0.6     0.6     0.6     0.6     0.6     0.6     0.6     0.6
     0.5     0.6     0.5     0.6     0.6     0.6     0.7     0.6     0.6     0.7
     0.6     0.6     0.6     0.6     0.6     0.6     0.6     0.6     0.6     0.6
     0.6     0.6     0.6     0.5     0.5     0.6     0.6     0.6     0.6     0.7
     0.6     0.6     0.6     0.6     0.6     0.5     0.6     0.6     0.6     0.6
     0.6     0.6     0.7     0.6     0.6     0.7     0.6     0.6     0.6     0.6
     0.6     0.6     0.6     0.6     0.6     0.6     0.6     0.6     0.6     0.6
     0.6     0.6     0.6     0.6     0.6     0.6     0.6     0.6     0.6     0.6
     0.6     0.6     0.5     0.6     0.6     0.6     0.6     0.6     0.6     0.6
     0.6     0.6     0.6     0.6     0.6     0.6     0.7     0.6     0.6     0.6
     0.6     0.6     0.6     0.6     0.6     0.6     0.6     0.6     0.7     0.6
     0.7     0.6     0.6     0.6     0.5     0.5     0.6     0.5     0.6     0.6
     0.6     0.7     0.6     0.7     0.6     0.6     0.6     0.6     0.6     0.6
     0.6     0.6     0.6     0.6     0.6     0.6     0.6     0.6     0.6     0.6
     0.6     0.6     0.6     0.6     0.6     0.6     0.6     0.5     0.6     0.6
     0.6     0.6     0.6     0.6     0.6     0.6     0.6     0.5     0.6     0.6
     0.6     0.6     0.6     0.6     0.6     0.6     0.6     0.6     0.5     0.6
     0.6     0.6     0.6     0.6     0.7     0.6     0.6     0.6     0.6     0.6
     0.6     0.6     0.6     0.6     0.6     0.6     0.6     0.6     0.6     0.6
     0.6     0.6     0.6     0.6     0.6     0.6     0.6     0.6     0.6     0.6
     0.6     0.5     0.6     0.6     0.6     0.6     0.6     0.6     0.7     0.6
     0.6     0.6     0.6     0.6     0.6     0.6     0.6     0.6     0.6     0.7
     0.6     0.6     0.6     0.6     0.6     0.6     0.6     0.6     0.6     0.6
     0.6     0.6     0.6     0.6     0.6     0.6     0.6     0.6     0.6     0.6
     0.6     0.6     0.6     0.6     0.6     0.6     0.6     0.6     0.6     0.6
     0.6     0.6     0.6     0.6     0.6     0.6     0.6     0.6     0.6     0.6
     0.6     0.6     0.6     0.6     0.6     0.6     0.6     0.6     0.6     0.6
     0.6     0.6     0.6     0.6     0.6     0.6     0.6     0.6     0.6     0.6
     0.6     0.6     0.6     0.6     0.6     0.6     0.6     0.6     0.6     0.6
     0.6     0.6     0.6     0.6     0.6     0.6     0.6     0.6     0.6     0.6
     0.6     0.6     0.6     0.6     0.6     0.6     0.6     0.6     0.6     0.6
     0.6     0.6     0.6     0.6     0.6     0.6     0.6     0.6     0.7     0.6
     0.6     0.6     0.6     0.6     0.6     0.6     0.6     0.6     0.6     0.6
     0.6     0.6     0.6     0.6     0.6     0.6     0.6     0.6     0.6     0.6
     0.6     0.6     0.6     0.6     0.6     0.6     0.6     0.7     0.6     0.6
     0.7     0.6     0.6     0.6     0.6     0.6     0.5     0.6     0.7     0.6
     0.6     0.6     0.6     0.6     0.6     0.6     0.7     0.6     0.6     0.6
     0.6     0.6     0.6     0.6     0.6     0.6     0.6     0.6     0.6     0.6
     0.6     0.6     0.6     0.6     0.6     0.6     0.6     0.7     0.6     0.6
     0.6     0.6     0.6     0.6     0.6     0.7     0.6     0.6     0.7     0.6
     0.6     0.6     0.5     0.6     0.6     0.6     0.6     0.6     0.7     0.6
     0.6     0.7     0.6     0.6     0.6     0.6     0.6     0.6     0.6     0.6
     0.6     0.6     0.6     0.6     0.6     0.6     0.6     0.6     0.6     0.6
     0.6     0.6     0.6     0.6     0.6     0.6     0.6     0.6     0.6     0.6
     0.6     0.5     0.6     0.6     0.6     0.6     0.6     0.6     0.6     0.6
     0.6     0.6     0.6     0.6     0.6     0.6     0.6     0.6     0.6     0.6
     0.6     0.6     0.6     0.6     0.6     0.6     0.6     0.6     0.6     0.6
     0.6     0.6     0.6     0.6     0.6     0.6     0.6     0.6     0.6     0.6
     0.6     0.6     0.6     0.6     0.6     0.6     0.6     0.6     0.6     0.6
     0.6     0.6     0.6     0.6     0.6     0.6     0.6     0.6     0.6     0.6
     0.6     0.6     0.6     0.6     0.6     0.6     0.7     0.6     0.6     0.6
     0.6     0.6     0.6     0.7     0.6     0.6     0.7     0.6     0.6     0.6
     0.6     0.6     0.6     0.6     0.6     0.6     0.6     0.6     0.6     0.6
     0.6     0.6     0.6     0.6     0.7     0.6     0.6     0.6     0.6     0.6
     0.6     0.6     0.6     0.6     0.6     0.6     0.6     0.6     0.6     0.6
     0.6     0.6     0.6     0.6     0.6     0.6     0.6     0.6     0.6     0.6
     0.6     0.6     0.6     0.6     0.6     0.6     0.6     0.6     0.6     0.6
     0.6     0.6     0.6     0.6     0.6     0.6     0.6     0.5     0.6     0.6
     0.6     0.6     0.6     0.6     0.6     0.6     0.6     0.6     0.6     0.6
     0.6     0.6     0.6     0.6     0.6     0.6     0.6     0.6     0.6     0.6
     0.6     0.6     0.6     0.6     0.6     0.6     0.6     0.6     0.6     0.6
     0.6     0.6     0.6     0.6     0.6     0.6     0.6     0.6     0.6     0.7
     0.6     0.6     0.7     0.6     0.6     0.6     0.6     0.6     0.6     0.6
     0.6     0.6     0.6     0.6     0.6     0.6     0.6     0.6     0.6     0.6
     0.6     0.6     0.6     0.6     0.6     0.6     0.6     0.6     0.6     0.6
     0.6     0.6     0.6     0.6     0.6     0.6     0.6     0.6     0.6     0.6
     0.6     0.6     0.6     0.6     0.6     0.6     0.6     0.6     0.6     0.6
     0.6     0.6     0.6     0.6     0.6     0.6     0.6     0.6     0.6     0.6
     0.6     0.6     0.6     0.6     0.6     0.6     0.6     0.6     0.6     0.6
     0.6     0.6     0.6     0.6     0.6     0.6     0.6     0.6     0.6     0.6
     0.6     0.6     0.6     0.6     0.6     0.6     0.6     0.6     0.6     0.6
     0.6     0.6     0.6     0.6     0.6     0.6     0.6     0.6     0.6     0.6
     0.6     0.6     0.6     0.6     0.6     0.6     0.6     0.6     0.6     0.6
     0.6     0.7     0.6     0.6     0.7     0.6     0.6     0.6     0.6     0.6
     0.6     0.6     0.6     0.6     0.6     0.6     0.6     0.7     0.6     0.5
     0.7     0.6     0.6     0.6     0.6     0.7     0.6     0.6     0.6     0.6
     0.6     0.6     0.6     0.6     0.6     0.6     0.6     0.6     0.6     0.6
     0.6     0.6     0.6     0.6     0.6     0.7     0.6     0.6     0.6     0.6
     0.6     0.6     0.6     0.6     0.6     0.6     0.6     0.6     0.6     0.6
     0.6     0.6     0.6     0.6     0.6     0.6     0.6     0.6     0.5     0.6
     0.6     0.6     0.6     0.6     0.6     0.6     0.6     0.6     0.6     0.6
     0.6     0.6     0.6     0.6     0.6     0.6     0.6     0.6     0.6     0.6
     0.6     0.6     0.6     0.6     0.6     0.6     0.6     0.6     0.6     0.6
     0.6     0.6     0.6     0.6     0.5     0.6     0.6     0.6     0.6     0.6
     0.6     0.6     0.6     0.6     0.6     0.7     0.6     0.6     0.6     0.6
     0.7     0.6     0.6     0.7     0.6     0.6     0.6     0.6     0.6     0.6
     0.6     0.6     0.6     0.6     0.6     0.6     0.6     0.6     0.6     0.6
     0.6     0.6     0.6     0.6     0.7     0.6     0.6     0.6     0.6     0.6
     0.6     0.6     0.6     0.6     0.6     0.6     0.6     0.5     0.6     0.6
     0.5     0.6     0.5     0.6     0.6     0.6     0.6     0.6     0.6     0.6
     0.6     0.6     0.6     0.6     0.6     0.6     0.6     0.6     0.6     0.6
     0.6     0.6     0.6     0.6     0.6     0.6     0.6     0.6     0.6     0.6
     0.6     0.6     0.6     0.6     0.6     0.6     0.6     0.6     0.6     0.6
     0.6     0.6     0.6     0.6     0.6     0.6     0.6     0.6     0.6     0.6
     0.6     0.6     0.7     0.6     0.6     0.6     0.6     0.6     0.6     0.6
     0.6     0.6     0.6     0.6     0.6     0.6     0.6     0.6     0.6     0.6
     0.6     0.6     0.6     0.6     0.6     0.6     0.6     0.6     0.6     0.6
     0.6     0.6     0.6     0.6     0.6     0.6     0.6     0.6     0.6     0.6
     0.6     0.6     0.6     0.6     0.6     0.5     0.6     0.6     0.6     0.6
     0.6     0.6     0.6     0.6     0.6     0.6     0.6     0.6     0.6     0.6
     0.6     0.6     0.6     0.6     0.6     0.6     0.6     0.6     0.6     0.6
     0.6     0.6     0.6     0.6     0.6     0.6     0.6     0.6     0.6     0.6
     0.6     0.6     0.6     0.6     0.6     0.6     0.5     0.6     0.6     0.6
     0.6     0.6     0.6     0.6     0.6     0.6     0.6     0.6     0.6     0.6
     0.6     0.6     0.6     0.6     0.6     0.6     0.6     0.6     0.6     0.6
     0.6     0.6     0.6     0.6     0.6     0.6     0.6     0.6     0.6     0.6
     0.6     0.6     0.6     0.6     0.6     0.6     0.6     0.6     0.6     0.6
     0.6     0.6     0.6     0.6     0.6     0.6     0.6     0.7     0.7     0.6
     0.6     0.6     0.7     0.6     0.6     0.6     0.6     0.6     0.6     0.6
     0.6     0.6     0.6     0.6     0.7     0.6     0.6     0.6     0.6     0.6
     0.6     0.6     0.6     0.6     0.6     0.6     0.6     0.6     0.6     0.6
     0.6     0.6     0.6     0.6     0.6     0.6     0.6     0.6     0.7     0.5
     0.6     0.6     0.6     0.6     0.6     0.6     0.6     0.6     0.6     0.6
     0.7     0.6     0.6     0.6     0.6     0.6     0.6     0.6     0.6     0.7
     0.6     0.6     0.6     0.6     0.6     0.5     0.6     0.7     0.6     0.6
     0.6     0.6     0.6     0.6     0.6     0.6     0.6     0.6     0.6     0.6
     0.6     0.6     0.6     0.6     0.6     0.6     0.6     0.6     0.6     0.6
     0.6     0.6     0.6     0.6     0.6     0.7     0.6     0.6     0.6     0.6
     0.7     0.6     0.6     0.6     0.6     0.6     0.6     0.6     0.6     0.6
     0.6     0.6     0.6     0.6     0.6     0.6     0.6     0.6     0.6     0.7
     0.6     0.6     0.6     0.6     0.7     0.6     0.6     0.6     0.6     0.6
     0.6     0.6     0.6     0.6     0.6     0.6     0.6     0.6     0.6     0.6
     0.6     0.6     0.5     0.6     0.6     0.6     0.6     0.6     0.6     0.6
     0.6     0.5     0.6     0.6     0.6     0.6     0.6     0.7     0.6     0.6
     0.6     0.6     0.6     0.6     0.6     0.6     0.6     0.6     0.6     0.6
     0.6     0.6     0.6     0.6     0.6     0.6     0.6     0.7     0.6     0.6
     0.6     0.6     0.6     0.6     0.6     0.6     0.6     0.7     0.6     0.6
     0.7     0.6     0.6     0.7     0.7     0.6     0.6     0.7     0.6     0.6
     0.6     0.6     0.6     0.6     0.6     0.6     0.7     0.6     0.6     0.6
     0.7     0.6     0.6     0.6     0.6     0.6     0.6     0.6     0.6     0.6
     0.6     0.6     0.6     0.6     0.6     0.6     0.7     0.6     0.6     0.6
     0.6     0.7     0.6     0.6     0.7     0.6     0.6     0.6     0.6     0.6
     0.6     0.6     0.6     0.6     0.6     0.6     0.6     0.5     0.6     0.5
     0.6     0.6     0.6     0.6     0.6     0.6     0.6     0.6     0.6     0.6
     0.6     0.6     0.6     0.6     0.6     0.6     0.6     0.6     0.6     0.6
     0.6     0.6     0.6     0.6     0.6     0.6     0.6     0.6     0.6     0.6
     0.6     0.6     0.6     0.6     0.6     0.6     0.6     0.6     0.6     0.6
     0.6     0.6     0.6     0.6     0.6     0.6     0.6     0.6     0.6     0.6
     0.6     0.6     0.6     0.6     0.6     0.6     0.6     0.6     0.6     0.6
     0.6     0.6     0.6     0.6     0.6     0.6     0.6     0.6     0.6     0.6
     0.6     0.6     0.6     0.6     0.6     0.6     0.6     0.6     0.6     0.6
     0.6     0.6     0.6     0.6     0.7     0.6     0.6     0.6     0.6     0.6
     0.6     0.6     0.6     0.6     0.6     0.6     0.6     0.6     0.6     0.6
     0.7     0.6     0.6     0.7     0.6     0.6     0.6     0.6     0.6     0.6
     0.6     0.6     0.6     0.6     0.6     0.6     0.6     0.6     0.6     0.6
     0.6     0.6     0.5     0.6     0.6     0.6     0.6     0.6     0.6     0.6
     0.6     0.6     0.6     0.6     0.6     0.6     0.6     0.5     0.6     0.6
     0.6     0.6     0.6     0.6     0.5     0.6     0.5     0.6     0.6     0.5
     0.6     0.6     0.6     0.6     0.6     0.6     0.6     0.7     0.5     0.7
     0.7     0.6     0.6     0.6     0.6     0.6     0.6     0.6     0.6     0.6
     0.6     0.6     0.6     0.6     0.6     0.6     0.6     0.6     0.6     0.6
     0.7     0.6     0.6     0.6     0.6     0.6     0.6     0.6     0.6     0.7
     0.6     0.6     0.7     0.6     0.6     0.6     0.6     0.6     0.6     0.6
