Uncorrected accelerogram 20161113_110256_WANS_20 GNS Science
Site WANS      41 13 52S  174 55 52E     Basalt file:  20161113_110343_WANS
Wainuiomata Hill
Instrument Basalt_1673
Resolution: 24-bit   Instr Period: 0.0050 s   Damping: 0.700
Accelerogram 20161113_110256_WANS_20                 Processed 2016 December 09
5 km south-west of Waiau
2016 November 13         11:02:56 UT
Epicentre  42 41 33S 173 01 19E  Bearing S44W  Dist  227km  Depth   15km Mw 7.82
Number of points  60600    Duration 303.00 s
Raw readings in units of 1.00 mm/s/s  at intervals of 0.005 s
Data is unfiltered
Component N72W
Acceleration:  Peak  -1354.6 mm/s/s at  97.04 s     RMS    70.43 mm/s/s
Velocity record unevaluated
Displacement record unevaluated
    2016      11      13      11       2     560       0       0    2016      11
      42      41      33     173       1      19      15       0      13      11
      41      13      52     174      55      52     288     288     224     227
   60600       0       0   60600       0       0       0       0       3    3000
   200.0    0.70    0.00   0.000  0.0000   0.000   0.000   1.000     0.0    0.00
  41.231 174.931  42.693 173.022    7.82    0.00    0.00    0.00      0.      0.
  303.00    0.00    0.00  303.00  0.0050  0.0050      0.      0.      0.  9806.6
 -1354.6   97.04    70.4      0.      0.     0.0    0.00     0.0     0.0   0.000
    0.00    0.00    0.00    0.00   0.000    0.00    0.00    0.00    0.00   0.000
   0.000   0.000   0.000      0.      0.   0.000   0.000   0.000      0.      0.
     1.0     0.5     1.6     1.0     0.1    -1.1    -2.8    -2.3     0.1     2.4
     1.0    -0.6     0.8     1.3    -0.5    -1.3    -0.4     0.5    -0.4    -1.2
     1.5     2.4    -0.2    -0.6     0.9    -0.7    -4.0    -3.4     2.8     5.5
     1.9    -0.6    -2.2    -1.5     1.0     2.5     0.4    -3.9    -4.8     0.1
     5.4     2.6    -0.3     0.9     0.4    -2.4    -2.9     0.4     1.8    -0.5
    -1.7     2.6     2.5    -1.5    -0.8    -0.2     0.2    -0.3     0.0     1.2
    -1.5    -3.6    -1.0     3.8     5.9     2.1    -3.7    -4.2    -2.9    -1.2
     4.3     4.5    -0.1    -1.6    -1.4     0.0    -0.4    -2.2    -0.7     1.5
     1.5     1.2     1.2     1.2    -0.1    -0.8    -1.9    -3.1    -0.2     0.1
     0.4     2.3     0.1    -0.2     1.3     3.6     2.3    -2.3    -5.7    -4.9
     0.0     1.8     3.9     5.7     1.7    -5.0    -5.0     0.2     2.5     2.3
    -1.4    -1.0     0.4    -0.3     2.1     1.9     0.6    -1.6    -3.4    -1.8
    -0.3    -0.5     0.3     3.3     4.1     2.7    -0.5    -3.3    -4.8    -4.8
     1.1     6.0     4.4     0.1    -2.4    -1.6    -0.6    -0.1     0.8     1.3
    -2.1    -2.9     1.7     3.2     0.8    -1.8    -0.3    -0.2    -0.2     0.8
     1.0     1.8    -1.3    -2.4    -0.2     0.7     0.0    -0.8    -0.1    -0.5
    -0.7     1.4     3.1     3.2     0.3    -2.4    -2.6    -2.9    -0.0     2.3
     2.5    -0.0    -3.7    -1.2     2.3     2.3     1.7     0.3    -2.6    -2.6
    -2.3     0.5     3.7     2.4     0.4    -2.3    -0.7     0.9     0.9     1.4
    -1.0    -3.7    -2.9     0.7     3.9     2.9    -0.8    -0.1    -1.3    -1.5
     0.6     1.7     1.4    -3.4    -2.8     2.8     4.2     1.8    -1.5    -3.7
    -3.6    -0.8     2.5     1.4     0.6     1.7     1.1     1.7    -1.2    -2.7
    -1.5    -2.1    -0.4     1.7     2.2     0.9    -1.7     0.2     4.6     2.7
    -1.5    -4.7    -6.0    -2.1     2.8     6.1     4.1    -0.5    -3.0    -4.4
    -1.8     0.6     3.4     3.5    -0.8    -1.6    -0.9     1.9     1.8    -1.3
    -1.9    -2.2    -1.4    -0.2     3.2     3.9     1.8    -1.8    -3.7    -1.2
    -0.1     1.3    -0.2    -0.9     1.3     0.9     2.2     2.4    -1.1    -3.1
    -3.2    -2.3     1.0     2.9     2.1     1.7    -0.0    -3.4    -1.4     1.1
     2.6     2.0    -2.5    -1.1     0.1     0.0     0.1     2.4     3.1    -3.1
    -3.4    -2.7    -1.5     0.9     1.0     4.3     2.6     0.1     0.9    -1.2
    -1.7    -0.5    -0.2    -0.9    -2.8    -0.4     2.8     0.1    -1.6     1.7
     4.0     1.8    -2.5    -3.9    -1.7     0.4     2.7     3.1     1.6    -0.3
    -3.8    -3.1     1.2     1.4    -0.1    -1.4    -0.0     2.6     0.8    -0.2
    -0.6    -2.0    -1.6     0.6     4.1     4.9     0.4    -3.3    -3.7    -2.1
     1.2     0.3    -1.0    -2.2    -2.6     2.2     4.6     3.8     2.5     1.8
    -1.2    -4.4    -3.0    -1.5    -1.8     1.0     3.8     2.8     1.8    -3.0
    -4.5    -1.3    -0.5     0.7     2.2     2.7     0.7    -0.2     0.4     1.5
     3.8     1.3    -4.6    -5.4    -4.0    -0.7     2.2     1.3     2.8     2.0
     2.0     0.7    -2.7    -2.5    -2.8    -0.0     2.2     3.9     3.8     0.0
    -2.5    -1.8    -0.2    -2.2    -2.4    -1.2     0.5     0.9     0.8     1.7
     1.4     2.8     2.2     1.6    -3.2    -7.2    -3.3     0.4     5.3     7.1
     3.4    -2.7    -6.3    -3.9    -1.4    -0.9     0.1     2.9     3.6     1.1
     0.9     2.4     1.3    -1.3    -4.1    -1.8     0.3    -1.9    -0.4     1.4
     2.8     1.3     0.5     0.1    -3.0    -2.2    -0.7     2.1     2.6     0.3
     0.1     2.7     1.6    -3.7    -4.1    -1.4     1.9     1.0     0.7     1.4
    -0.1    -1.0    -2.4     0.3     2.2    -0.3    -2.0    -1.0     1.1     2.6
     4.4     2.2    -3.4    -2.8    -1.6    -3.2    -2.6    -0.4     4.9     6.0
     1.0    -0.4     1.5    -0.8    -3.9    -1.0    -0.6    -2.8    -1.6    -0.2
     2.4     3.2     2.2     3.8     2.1    -4.9    -6.4    -1.4     2.4     2.2
    -0.6    -0.3     1.9     2.8     2.6    -0.0    -3.2    -6.6    -4.8     2.3
     5.9     6.5     2.0    -4.6    -4.4    -1.6     1.8     1.2    -1.3     0.8
     0.4     2.3     1.4    -1.3     0.1    -1.1    -1.1    -3.1    -2.1     0.9
     3.5     4.4    -0.5     0.7     0.7    -1.2    -0.8    -2.7    -2.0    -0.4
     0.6     3.5     2.6    -0.1    -1.1    -4.3    -1.5     3.4     1.6     0.4
    -1.2    -1.2     1.6     0.2    -0.2     0.0    -1.1     0.5    -1.6    -0.9
     2.5     1.4     2.4    -0.4    -2.7    -0.5    -0.4    -0.6    -1.4     1.4
     1.6    -1.0     1.2     1.8     2.1    -0.4    -3.6    -3.3    -2.7     1.4
     4.7     3.5     0.0    -1.6    -0.6    -0.2    -1.7    -1.1     1.0    -0.8
    -1.5     1.2     3.0     3.2    -0.7    -4.7    -2.2     0.3     2.7     3.1
    -0.8    -0.3    -0.5     0.5     2.8    -1.7    -5.1    -3.4    -0.3     3.9
     4.7    -0.1    -0.5    -0.2    -0.1     2.9     1.8    -1.2    -6.5    -4.7
     2.2     4.5     4.0    -0.7    -1.6    -0.7    -1.7     0.2     1.8    -0.2
    -1.9    -0.4     1.1     3.3     1.3    -2.0    -0.2    -1.0    -0.6     0.2
    -1.5    -0.3     0.7     1.5     2.2     0.4    -1.6    -1.0    -0.7    -1.4
    -0.8     0.9     2.6     2.5     0.8     0.1     0.4    -2.6    -3.7    -1.5
     0.4     2.3     0.4    -0.8     2.2     3.8     2.0    -1.1    -3.5    -2.1
    -0.8    -2.0    -0.5     2.0     0.7     1.3     3.1     0.6    -0.5    -2.0
    -3.3    -0.1     1.2     1.1     2.0     2.3    -1.5    -2.5     0.2    -0.8
    -0.4     0.4    -0.7     0.1     0.3     1.0     3.8     1.6    -2.6    -3.1
    -1.8     1.2     1.5    -0.8    -0.8     0.7     1.9     1.4    -0.3    -1.6
    -2.6    -0.9     2.0     1.8     0.0     1.2     1.6    -1.7    -1.7     0.3
     1.3     0.8    -1.4    -0.8     0.3    -2.8    -0.7     5.5     2.4    -2.9
    -3.9    -2.9     2.0     4.0     2.1     2.4    -0.5    -2.9     0.0    -0.6
    -1.7    -3.5    -2.9     3.4     4.3     2.7     1.5     0.0    -1.2    -2.7
    -2.2    -0.2     1.6    -0.4    -1.5     0.4     1.0     2.7     2.2    -0.5
    -1.9    -2.7    -3.1    -0.3     2.8     3.2     1.4    -1.4    -0.3     0.5
     0.2     0.5    -1.4    -2.4     0.2     3.7     2.1    -0.5    -2.7    -4.0
     0.6     2.7     1.5     2.0    -2.6    -4.8     1.4     3.3     2.4     1.4
    -2.9    -3.0    -1.4     0.1     3.9     3.0    -0.8    -1.6    -1.3    -1.3
     0.5     1.2    -1.1    -0.3     0.5     1.1     3.4     0.6    -2.6    -1.8
    -2.8    -0.7     4.3     2.2    -1.3     0.2    -0.2    -0.2     1.8    -1.2
    -3.3    -1.9    -0.3     3.5     2.8     0.5     1.1    -0.3    -1.1    -1.5
    -2.0    -0.4     0.7     0.2     0.2     0.7     1.0     1.3     0.1    -1.1
    -1.7    -0.9     1.6     2.1     0.8    -1.3    -2.2    -1.2     1.5     2.9
     0.3    -2.0    -2.2    -1.4     2.2     3.8     0.5    -1.3    -2.3    -1.3
     1.8     0.7    -0.5     0.1    -0.8    -1.2     1.0     3.0     1.6     0.2
    -1.9    -3.1    -1.1     0.0     0.1     1.3     2.0     0.7     0.5    -0.2
     0.3     0.7    -2.8    -3.2    -1.8     1.5     3.0     1.5     1.5    -0.8
    -1.0     0.0    -0.2     0.8    -1.0    -1.8     1.1     1.3     0.0     1.2
     1.2    -1.4    -3.1    -2.3     0.5     3.0     2.9     0.4    -0.8     0.5
     0.0    -1.2    -1.1    -1.4    -1.5    -1.7     0.9     5.3     4.1    -1.3
    -3.1    -1.5    -0.6    -0.4     0.1    -0.1    -1.1     0.4     4.1     3.2
    -0.6    -3.0    -1.7     0.5    -1.8    -1.6     0.9     2.1     1.3    -1.0
     0.2     1.6     0.4    -1.0    -1.0    -0.8    -1.1     0.4     0.9     1.1
     1.8     0.0    -1.9    -0.4     1.1    -0.9    -1.7    -0.8     0.6     2.2
     1.4     1.1     0.5    -1.8    -2.8    -0.3     0.5    -1.4     0.1     1.6
     3.1     2.0    -1.1    -0.2    -1.0    -3.0    -2.3    -0.2     2.0     1.8
     0.6     1.0     1.1    -0.3    -0.7    -0.6    -0.8    -0.5    -1.3    -0.9
     1.6     3.2     1.3    -2.5    -1.6     0.7     0.1    -0.5     0.3     1.3
    -0.1    -0.5     0.4     0.2    -0.3    -0.9    -0.8    -0.6    -0.2     1.2
     2.5     2.4    -0.2    -2.6    -2.2    -0.5     0.3     0.5    -0.5    -0.8
     1.3     1.8     2.1     2.1    -1.6    -4.0    -4.1    -0.4     4.7     2.7
    -1.3    -1.9     0.5     1.6     0.6     0.6    -1.2    -2.6    -1.4     1.9
     4.3     0.7    -2.2    -1.4    -2.0    -1.1     2.5     1.2    -0.6     0.3
     0.3     1.8     1.5    -1.1    -2.4    -2.2    -1.0    -0.2     1.0     2.0
     2.0     0.4    -0.8     0.8     0.1    -1.9    -1.7    -0.4     0.4     0.4
     0.6     1.4     1.8    -0.5    -1.2    -0.3     0.0    -0.4    -1.5     0.3
    -0.1    -0.6     1.7     2.1     0.8    -1.2    -1.7    -1.5     0.5     1.7
     0.3     1.0    -0.9    -1.7     1.5     0.2     0.0     0.8    -3.1    -1.9
     2.6     1.7     1.0     1.2     0.3    -0.8    -1.9    -0.4    -0.9    -1.8
    -0.4     1.3     2.5     2.2     2.4    -0.2    -3.9    -2.5     0.1     0.1
    -0.9     0.1     3.0     1.6    -0.8    -0.0     0.0     0.3    -0.8    -1.6
    -0.1     0.6     0.8     0.2     0.9     0.4    -2.4    -1.2     0.6     1.3
     1.1    -0.5     0.1     0.8     0.5     1.5     0.0    -3.7    -1.9    -0.4
     0.1     2.5     1.9     1.7    -0.7    -2.7    -1.5     0.2     1.5    -0.2
    -0.1    -0.2     0.3     2.3     1.0     0.0    -1.8    -2.2     0.5     0.9
    -0.5    -1.0     0.4     1.0     0.2     0.9     0.3    -0.9    -0.3    -1.1
    -0.1     2.2     1.5     0.1    -1.3    -1.5     0.4    -1.0    -1.6     0.8
     0.7    -0.3     0.2     3.7     3.5    -2.1    -3.2    -2.3    -0.7     1.6
     1.3     1.4    -0.5    -2.5     0.5     2.3     1.1    -1.1    -2.3    -1.0
    -1.2     0.4     4.0     2.0    -0.2    -0.7    -1.9    -0.3     0.6     0.1
     0.2    -0.8    -1.9     0.8     3.5     0.7    -0.2    -1.8    -3.8     0.7
     2.3     1.8     1.9    -2.5    -2.9     2.6     2.5     1.0     0.1    -6.2
    -5.3     1.6     3.3     6.0     4.5    -4.1    -5.3    -1.2     1.3     5.7
     0.0    -8.2    -1.9     2.3     4.3     6.5     0.5    -4.4    -6.5    -4.0
     4.3     7.0    -0.4    -5.2    -2.4     0.6     5.8     5.9    -1.6    -5.5
    -6.0    -2.8     5.9     6.7    -1.4    -3.3    -2.6     0.3     6.1     3.0
    -3.0    -4.5    -4.4     0.1     6.3     4.1    -1.6    -2.8    -2.9     0.2
     3.6     1.1    -1.1    -1.0    -1.1     0.6     1.7     0.7    -0.5    -1.2
    -0.7     0.1    -0.2    -0.8     0.4     1.9     1.7    -0.3    -2.7    -0.9
     2.8     3.3    -0.7    -5.1    -3.7     0.8     3.9     4.6     1.3    -4.0
    -5.4    -0.1     3.9     3.8     0.7    -4.4    -3.2     1.5     3.6     3.3
    -0.7    -5.4    -4.8     0.8     5.0     4.6    -0.9    -4.5    -0.4     3.0
     1.4    -0.7    -2.4    -3.6    -1.6     2.2     5.4     4.4     0.2    -2.5
    -3.2    -2.4    -2.1    -0.6     0.5     1.1     3.3     2.7     1.6    -0.0
    -2.6    -1.9    -1.0    -0.9    -1.4    -0.1     3.9     3.5     0.0    -2.2
    -3.3    -0.6     1.2    -0.1     1.1     0.0    -1.9     1.6     5.2     3.7
    -2.9    -6.6    -4.9    -0.6     5.5     4.6     0.3    -1.4    -3.6     0.8
     4.8     0.1    -3.6    -5.1    -2.4     4.1     5.0     2.4     0.0    -2.9
    -2.5    -0.0     2.7     1.8    -3.0    -3.3    -1.4     2.8     5.1    -0.6
    -2.2    -1.1    -1.6     1.7     2.3     0.9     0.4    -2.3    -1.5     1.6
     0.9    -1.7    -0.8     1.1    -1.5    -1.5     1.6     1.8     2.1     1.1
    -1.0    -1.5    -2.6    -1.0     2.5     2.4    -1.1    -3.1    -0.4     3.3
     3.9     0.7    -3.3    -3.1    -1.3    -0.2     1.4     0.6    -0.9    -0.4
     2.4     3.3     0.2     0.3    -1.8    -4.2    -0.5     0.9     1.7     1.7
    -0.5    -0.8     0.4    -0.9    -1.6     0.8     0.2     1.4     3.1     0.0
    -0.8    -0.3    -1.8    -0.8    -0.3    -2.7    -0.2     2.9     1.5     2.4
     2.3    -2.1    -3.1    -1.8    -0.1     3.4    -0.4    -4.2    -0.1     2.7
     5.2     4.0    -3.1    -6.4    -4.3     1.1     6.4     4.0    -3.5    -5.7
    -1.7     4.5     6.2     0.0    -4.6    -4.3    -1.4     4.0     6.3     1.5
    -5.3    -6.4    -1.0     6.0     3.9    -2.9    -3.1    -2.3     1.8     8.1
     4.1    -3.0    -5.9    -5.5    -0.0     4.6     2.0    -0.8    -1.1    -2.7
     2.1     5.2     0.9    -0.9    -3.5    -3.7     0.5     2.0     1.1     1.8
     0.3    -2.3    -1.4    -0.5     2.0     2.9    -0.6    -2.9    -2.7    -0.7
     4.3     6.1     1.2    -3.5    -6.2    -3.6     2.5     5.1     3.0    -1.6
    -4.2    -2.6     3.4     5.8     1.7    -4.4    -8.7    -3.0     5.5     7.3
     4.3    -3.5    -5.9     0.4     3.5     4.1     0.4    -8.6    -8.3     1.6
     7.6     7.3     0.8    -5.6    -3.4     1.5     3.6     3.1    -1.6    -7.7
    -4.7     4.1     7.3     5.1    -2.2    -7.3    -3.4     1.3     2.7     3.0
    -0.3    -3.1     0.5     2.2     1.7     1.0    -2.1    -2.5    -0.4    -0.1
    -0.3     2.5     2.1    -0.3    -0.1    -3.3    -2.8     0.1     0.8     4.7
     4.0    -3.2    -4.3     1.2     3.8     3.6    -2.1    -7.4    -3.1     1.2
     3.9     6.5     0.7    -6.6    -4.4     1.0     4.2     4.5    -0.5    -3.9
    -2.5    -0.1     4.1     5.1    -1.8    -6.1    -4.0     0.4     4.2     3.0
    -1.0    -1.6    -0.1     1.4     4.2     1.2    -3.4    -4.0    -2.8     1.5
     2.5     0.8    -0.2    -0.1     1.3     0.5    -0.4    -0.1    -1.0    -2.4
    -0.8     1.4     2.1     0.2     0.2     3.0     0.5    -2.2    -4.3    -1.9
     3.1     0.2    -0.6     0.9     1.4     2.5     1.3    -1.3    -3.2    -4.1
    -2.3     4.1     5.3     2.3    -0.8    -4.5    -2.6     1.4     3.1     0.4
    -3.3    -3.7    -0.8     4.8     5.8     2.7    -2.1    -5.5    -2.5    -0.3
     1.6     2.8    -0.6    -3.1    -1.1     3.4     3.5     0.4    -2.3    -2.7
    -1.5    -0.5     3.1     4.2     0.6    -3.6    -2.8     0.4    -0.5     0.5
     1.7     0.6    -0.8    -1.3     2.4     3.3     0.5    -1.6    -4.0    -3.0
    -1.0     1.1     5.1     3.0    -1.0    -2.3    -1.7     1.2     1.2    -0.4
    -2.3    -2.3    -0.5     2.8     4.7     1.5    -0.9    -3.5    -3.0     1.1
     1.9     0.4    -1.5    -2.2    -0.1     4.6     4.1     0.0    -2.6    -4.6
    -2.1     0.8     2.1     1.8     1.0    -0.0    -1.1     0.3    -0.2    -0.7
     0.0    -2.5    -2.3     1.5     3.0     2.9     2.3     0.8    -1.9    -3.9
    -3.1     0.4     2.7    -0.7    -2.1     1.9     2.4     2.6     1.9    -2.4
    -3.8    -3.1    -0.6     3.3     4.0     0.4    -2.3    -1.2    -0.1     1.6
     2.4    -1.9    -4.7    -1.8     1.2     3.2     4.0     1.3    -2.0    -3.4
    -2.1     1.8     3.7    -0.2    -3.2    -0.3     1.8     1.5     2.3    -1.0
    -4.7    -2.7    -1.4     1.7     4.7     1.0     0.0     1.7    -0.7    -1.6
    -0.3    -1.0    -0.8    -0.6    -1.9     2.6     4.8    -0.6    -1.6    -1.0
    -2.8    -0.3     1.3     0.6     2.7     1.0    -1.6     0.0    -0.0     0.2
     1.1    -0.8    -4.0    -2.2     3.0     4.5     2.0    -2.9    -2.8     0.2
    -1.0    -0.6     1.6     1.6     0.3    -1.6     1.6     4.1    -0.2    -1.8
    -2.8    -3.0     0.3    -0.2     1.2     2.7    -0.6    -0.5     1.4     1.8
     0.5    -1.6    -2.0    -1.2     0.8    -0.2     0.9     4.8    -0.4    -4.5
    -0.8     0.5     1.1    -1.0    -2.5     2.2     2.0    -0.7     1.7     2.5
    -0.9    -4.0    -1.8     1.4     0.9     0.5     0.3     1.7     0.9    -2.7
     0.3     1.6    -1.7    -2.9    -1.9     2.3     3.1     1.1     1.4     1.0
    -0.7    -3.7    -2.3     2.1     0.8    -1.5    -1.4     0.7     3.7     1.5
    -1.3    -0.1    -0.8    -2.7    -1.1     2.9     2.9    -0.6    -0.5     0.5
     0.9    -1.1    -2.7     0.3    -1.0    -1.6     1.7     3.0     2.2    -0.9
    -0.7    -0.0    -1.5    -1.2    -1.3     0.2     1.7     0.3     1.0     2.3
     1.7    -1.1    -3.2    -2.1    -1.5     0.8     1.8     1.1     2.5    -0.5
    -2.0     1.5     0.7    -1.0    -0.9    -2.0    -0.7     1.1     1.4     1.9
     1.4    -1.7    -3.5     0.3     0.9    -0.5     1.3     0.1     0.7     2.3
    -0.8    -0.2    -0.4    -2.8    -0.6    -0.1     0.4     2.4     1.6     0.3
    -1.1    -0.6    -0.4    -1.2     0.5    -0.5    -1.0     1.1     1.3     1.4
    -0.3     0.2     0.6    -1.5    -1.1    -0.7    -0.3    -0.2     0.0     2.2
     2.1    -0.0    -0.5    -0.9    -1.3    -1.0    -0.4     1.0     0.8     1.0
     1.8     0.1    -1.1    -2.5    -0.6     0.8    -1.9    -0.2     1.6     1.2
     2.4     1.2    -0.3    -0.6    -2.5    -1.9     0.3    -0.0    -0.1     1.4
     2.4     1.8     0.1    -1.7    -2.3    -0.9    -0.8    -1.4     1.6     3.3
     1.1     1.0     1.0    -0.9    -2.5    -2.7    -0.3     0.9     0.2    -0.3
     1.6     2.9     0.8    -1.3    -1.9    -1.3    -1.2    -0.8     1.5     2.5
     1.4    -0.0    -0.0    -0.3    -1.0    -0.4    -0.4    -1.2    -1.5     0.0
     2.2     3.5     2.1    -0.9    -2.5    -2.5     0.1     0.5    -0.6     0.4
     1.0     0.3     1.2     2.7    -0.3    -4.0    -3.1     0.6     2.0     0.4
    -0.2     1.4     1.6    -1.1    -1.1    -0.4    -0.7     0.3     0.5     1.5
     0.3    -1.7    -0.7     1.4     3.5     0.4    -4.1    -3.7    -1.2     1.4
     3.7     3.2     0.6    -2.4    -3.5     0.9     3.4     0.2    -3.4    -2.1
     1.4     2.4     3.5    -0.1    -3.4    -2.4    -1.4     2.0     2.5    -1.5
    -2.6     0.4     3.3     4.4     1.8    -3.1    -4.2    -2.3    -0.4     1.1
     1.4     1.8     0.4    -0.8     2.0     1.7    -2.2    -4.5    -2.2     2.1
     2.8     1.6     1.5     0.5    -1.2    -0.3    -0.2    -2.1    -3.0    -1.4
     1.7     3.4     2.9    -0.3    -0.8    -0.0    -1.6    -0.1    -1.1    -2.0
     2.4     1.6     0.4     2.2    -1.1    -2.7    -1.2    -0.1     2.1     0.9
    -2.5    -1.5     0.7     1.8     3.3     2.3    -1.2    -3.7    -2.1     0.8
     1.8    -0.8    -1.6     1.5     2.2     2.7    -0.4    -4.2    -2.5    -1.0
     1.2     3.9     1.4    -1.8    -1.5    -0.0     3.0     2.4    -1.4    -3.2
    -2.8    -0.6     1.6     2.7     1.7    -0.8    -0.7     0.2     0.6     0.7
    -2.9    -1.5     2.1     1.2     1.4    -1.3    -1.8     0.3    -0.4     0.5
     1.5     0.4     0.0    -0.8    -1.3     1.3     0.7    -1.5    -0.1     1.9
     0.1    -2.2    -0.7     1.6     2.2     0.4    -0.1     0.8    -2.0    -4.4
