Uncorrected accelerogram 20161113_110256_WNAS_20 GNS Science
Site WNAS      41 19 35S  174 48 33E     Cusp file:  20161113_110329_WNAS
Wellington International Airport
Instrument Cusp_42033
Resolution: 18-bit   Instr Period: 0.0050 s   Damping: 0.700
Accelerogram 20161113_110256_WNAS_20                 Processed 2016 December 09
5 km south-west of Waiau
2016 November 13         11:02:56 UT
Epicentre  42 41 33S 173 01 19E  Bearing S44W  Dist  212km  Depth   15km Mw 7.82
Number of points  56272    Duration 281.36 s
Raw readings in units of 1.00 mm/s/s  at intervals of 0.005 s
Data is unfiltered
Component S53E
Acceleration:  Peak   1240.3 mm/s/s at 106.70 s     RMS    94.49 mm/s/s
Velocity record unevaluated
Displacement record unevaluated
    2016      11      13      11       2     560       0       0    2016      11
      42      41      33     173       1      19      15       0      13      11
      41      19      35     174      48      33     127     127     224     212
   56272       0       0   56272       0       0       0       0       2   49838
   200.0    0.70    0.00   0.000  0.0000   0.000   0.000   1.000     0.0    0.00
  41.326 174.809  42.693 173.022    7.82    0.00    0.00    0.00      0.      0.
  281.36    0.00    0.00  281.36  0.0050  0.0050      0.      0.      0.  9806.6
  1240.3  106.70    94.5      0.      0.     0.0    0.00     0.0     0.0   0.000
    0.00    0.00    0.00    0.00   0.000    0.00    0.00    0.00    0.00   0.000
   0.000   0.000   0.000      0.      0.   0.000   0.000   0.000      0.      0.
     0.6     0.6     0.6     0.6     0.6     0.6     0.5     0.6     0.6     0.6
     0.6     0.7     0.6     0.5     0.5     0.6     0.6     0.5     0.7     0.7
     0.6     0.6     0.5     0.5     0.6     0.6     0.4     0.5     0.5     0.5
     0.5     0.5     0.7     0.7     0.6     0.6     0.6     0.6     0.5     0.5
     0.7     0.8     0.6     0.6     0.6     0.5     0.5     0.5     0.5     0.6
     0.5     0.5     0.4     0.6     0.6     0.4     0.6     0.7     0.7     0.7
     0.6     0.6     0.5     0.6     0.7     0.6     0.7     0.6     0.6     0.7
     0.7     0.6     0.6     0.6     0.6     0.7     0.7     0.5     0.5     0.8
     0.7     0.7     0.7     0.6     0.5     0.4     0.6     0.7     0.5     0.5
     0.4     0.5     0.7     0.6     0.6     0.5     0.5     0.5     0.6     0.7
     0.6     0.4     0.4     0.6     0.8     0.7     0.7     0.5     0.4     0.6
     0.7     0.7     0.5     0.4     0.4     0.5     0.6     0.5     0.6     0.5
     0.6     0.7     0.6     0.6     0.5     0.4     0.5     0.6     0.6     0.6
     0.5     0.4     0.6     0.6     0.5     0.5     0.5     0.6     0.5     0.6
     0.6     0.5     0.6     0.5     0.6     0.7     0.6     0.6     0.4     0.5
     0.7     0.6     0.7     0.6     0.7     0.7     0.5     0.5     0.5     0.4
     0.6     0.7     0.6     0.7     0.5     0.6     0.7     0.5     0.5     0.6
     0.5     0.5     0.5     0.6     0.6     0.5     0.5     0.7     0.6     0.7
     0.7     0.5     0.5     0.5     0.5     0.5     0.5     0.6     0.6     0.7
     0.7     0.6     0.5     0.5     0.5     0.6     0.7     0.7     0.6     0.6
     0.6     0.6     0.6     0.6     0.7     0.7     0.6     0.6     0.5     0.5
     0.6     0.5     0.7     0.6     0.6     0.6     0.5     0.7     0.5     0.6
     0.7     0.5     0.6     0.6     0.6     0.7     0.5     0.4     0.6     0.6
     0.5     0.5     0.6     0.6     0.5     0.5     0.5     0.6     0.6     0.7
     0.6     0.5     0.5     0.6     0.6     0.6     0.5     0.5     0.7     0.6
     0.5     0.6     0.5     0.4     0.5     0.6     0.5     0.5     0.5     0.6
     0.6     0.5     0.5     0.5     0.5     0.5     0.6     0.6     0.6     0.6
     0.5     0.6     0.7     0.5     0.6     0.6     0.6     0.6     0.6     0.6
     0.5     0.5     0.5     0.5     0.6     0.5     0.5     0.5     0.6     0.6
     0.5     0.5     0.5     0.5     0.5     0.4     0.5     0.7     0.6     0.5
     0.7     0.7     0.6     0.6     0.5     0.6     0.6     0.5     0.5     0.6
     0.7     0.6     0.5     0.6     0.7     0.6     0.5     0.6     0.5     0.4
     0.4     0.4     0.6     0.5     0.4     0.5     0.6     0.6     0.6     0.6
     0.6     0.6     0.4     0.4     0.6     0.7     0.6     0.6     0.7     0.7
     0.5     0.4     0.4     0.5     0.5     0.6     0.8     0.6     0.6     0.6
     0.6     0.5     0.5     0.6     0.6     0.6     0.5     0.5     0.6     0.5
     0.4     0.6     0.7     0.7     0.5     0.5     0.5     0.4     0.5     0.6
     0.6     0.6     0.7     0.5     0.5     0.5     0.5     0.5     0.6     0.7
     0.5     0.6     0.6     0.6     0.6     0.6     0.6     0.6     0.6     0.5
     0.6     0.8     0.5     0.4     0.6     0.6     0.6     0.6     0.6     0.6
     0.6     0.6     0.6     0.6     0.7     0.5     0.6     0.6     0.5     0.4
     0.6     0.7     0.6     0.5     0.4     0.5     0.5     0.4     0.6     0.6
     0.5     0.5     0.5     0.6     0.6     0.5     0.4     0.5     0.7     0.6
     0.5     0.5     0.6     0.6     0.6     0.6     0.6     0.5     0.5     0.5
     0.5     0.6     0.5     0.7     0.7     0.4     0.6     0.6     0.6     0.5
     0.5     0.5     0.4     0.6     0.5     0.4     0.5     0.4     0.5     0.5
     0.5     0.6     0.5     0.5     0.6     0.6     0.6     0.6     0.7     0.7
     0.6     0.5     0.4     0.5     0.5     0.6     0.6     0.6     0.6     0.5
     0.6     0.6     0.6     0.6     0.5     0.5     0.6     0.6     0.4     0.4
     0.4     0.4     0.6     0.6     0.6     0.5     0.5     0.6     0.6     0.6
     0.5     0.5     0.6     0.6     0.6     0.5     0.4     0.4     0.6     0.6
     0.5     0.6     0.6     0.7     0.5     0.5     0.6     0.5     0.5     0.5
     0.5     0.5     0.5     0.5     0.5     0.6     0.6     0.5     0.6     0.6
     0.5     0.4     0.6     0.6     0.5     0.5     0.3     0.4     0.6     0.5
     0.3     0.4     0.6     0.6     0.6     0.5     0.5     0.5     0.3     0.6
     0.6     0.3     0.4     0.4     0.6     0.6     0.5     0.5     0.5     0.5
     0.5     0.6     0.6     0.5     0.4     0.4     0.6     0.6     0.5     0.4
     0.4     0.5     0.5     0.6     0.6     0.6     0.6     0.5     0.7     0.7
     0.6     0.5     0.5     0.7     0.7     0.5     0.5     0.6     0.6     0.7
     0.7     0.7     0.5     0.4     0.4     0.5     0.5     0.5     0.4     0.4
     0.6     0.6     0.5     0.5     0.5     0.5     0.5     0.6     0.5     0.5
     0.4     0.5     0.8     0.7     0.5     0.5     0.4     0.5     0.7     0.6
     0.5     0.5     0.4     0.5     0.7     0.6     0.5     0.4     0.4     0.5
     0.6     0.6     0.5     0.6     0.5     0.6     0.5     0.5     0.5     0.4
     0.6     0.6     0.5     0.5     0.4     0.5     0.4     0.3     0.5     0.5
     0.5     0.4     0.6     0.6     0.4     0.4     0.4     0.5     0.6     0.6
     0.6     0.5     0.5     0.6     0.6     0.5     0.5     0.4     0.5     0.6
     0.6     0.5     0.5     0.5     0.5     0.6     0.7     0.5     0.3     0.5
     0.5     0.6     0.6     0.5     0.6     0.6     0.3     0.6     0.6     0.6
     0.5     0.4     0.5     0.5     0.5     0.4     0.3     0.6     0.6     0.5
     0.5     0.4     0.4     0.5     0.5     0.5     0.5     0.4     0.5     0.6
     0.6     0.7     0.4     0.4     0.6     0.7     0.7     0.5     0.4     0.4
     0.5     0.7     0.7     0.6     0.4     0.4     0.6     0.5     0.4     0.5
     0.5     0.5     0.4     0.5     0.6     0.5     0.4     0.5     0.6     0.5
     0.4     0.4     0.5     0.6     0.5     0.5     0.4     0.4     0.4     0.4
     0.6     0.6     0.5     0.4     0.6     0.7     0.5     0.5     0.5     0.5
     0.5     0.7     0.6     0.4     0.5     0.4     0.6     0.7     0.5     0.5
     0.4     0.6     0.6     0.5     0.5     0.3     0.4     0.4     0.5     0.6
     0.5     0.4     0.4     0.5     0.5     0.4     0.4     0.4     0.4     0.4
     0.6     0.6     0.4     0.5     0.5     0.5     0.5     0.6     0.6     0.6
     0.6     0.6     0.6     0.5     0.4     0.5     0.5     0.7     0.6     0.4
     0.5     0.6     0.6     0.5     0.4     0.5     0.7     0.7     0.6     0.7
     0.6     0.5     0.6     0.6     0.6     0.6     0.4     0.4     0.5     0.6
     0.6     0.6     0.5     0.5     0.4     0.4     0.7     0.6     0.3     0.5
     0.6     0.7     0.6     0.5     0.4     0.5     0.7     0.6     0.5     0.5
     0.3     0.5     0.6     0.7     0.6     0.5     0.5     0.5     0.8     0.5
     0.3     0.5     0.3     0.4     0.7     0.5     0.4     0.4     0.5     0.7
     0.6     0.4     0.4     0.4     0.5     0.5     0.6     0.6     0.5     0.4
     0.3     0.5     0.7     0.6     0.4     0.4     0.6     0.6     0.6     0.5
     0.4     0.6     0.6     0.6     0.6     0.5     0.5     0.4     0.5     0.7
     0.5     0.4     0.5     0.5     0.6     0.6     0.5     0.5     0.4     0.5
     0.6     0.5     0.4     0.5     0.5     0.6     0.6     0.5     0.4     0.5
     0.5     0.5     0.6     0.4     0.5     0.5     0.6     0.6     0.6     0.5
     0.4     0.4     0.5     0.5     0.5     0.4     0.3     0.4     0.6     0.7
     0.5     0.5     0.5     0.3     0.6     0.5     0.4     0.4     0.3     0.6
     0.6     0.6     0.5     0.4     0.5     0.5     0.5     0.6     0.5     0.4
     0.5     0.6     0.6     0.5     0.4     0.6     0.5     0.5     0.5     0.4
     0.4     0.5     0.5     0.5     0.5     0.4     0.4     0.5     0.6     0.7
     0.6     0.4     0.3     0.4     0.6     0.7     0.6     0.4     0.4     0.5
     0.7     0.6     0.4     0.4     0.4     0.4     0.6     0.6     0.5     0.5
     0.5     0.6     0.7     0.6     0.6     0.5     0.5     0.6     0.5     0.5
     0.4     0.5     0.6     0.5     0.5     0.4     0.4     0.5     0.4     0.5
     0.5     0.4     0.5     0.4     0.5     0.8     0.5     0.3     0.5     0.5
     0.6     0.7     0.7     0.6     0.5     0.5     0.6     0.6     0.5     0.3
     0.3     0.6     0.5     0.4     0.5     0.4     0.5     0.6     0.5     0.5
     0.4     0.5     0.5     0.6     0.7     0.7     0.4     0.3     0.5     0.6
     0.6     0.5     0.5     0.5     0.4     0.5     0.6     0.4     0.6     0.6
     0.7     0.6     0.4     0.5     0.6     0.7     0.6     0.5     0.5     0.5
     0.6     0.6     0.5     0.6     0.5     0.4     0.4     0.5     0.5     0.5
     0.5     0.4     0.5     0.6     0.6     0.4     0.3     0.4     0.5     0.6
     0.6     0.4     0.4     0.5     0.5     0.5     0.5     0.5     0.5     0.6
     0.6     0.6     0.6     0.4     0.4     0.4     0.5     0.6     0.6     0.5
     0.6     0.6     0.5     0.6     0.6     0.4     0.5     0.6     0.6     0.5
     0.5     0.5     0.6     0.7     0.7     0.7     0.5     0.4     0.4     0.5
     0.6     0.6     0.4     0.4     0.7     0.7     0.5     0.5     0.5     0.4
     0.6     0.8     0.5     0.4     0.5     0.5     0.7     0.7     0.5     0.4
     0.4     0.6     0.6     0.5     0.6     0.6     0.6     0.6     0.7     0.7
     0.5     0.5     0.3     0.5     0.7     0.5     0.5     0.5     0.6     0.7
     0.7     0.8     0.7     0.5     0.6     0.7     0.6     0.4     0.3     0.5
     0.6     0.6     0.5     0.5     0.5     0.5     0.6     0.6     0.5     0.5
     0.4     0.5     0.7     0.7     0.5     0.5     0.4     0.5     0.6     0.6
     0.5     0.5     0.6     0.4     0.4     0.6     0.5     0.6     0.7     0.7
     0.6     0.4     0.5     0.6     0.7     0.6     0.6     0.8     0.7     0.5
     0.6     0.6     0.5     0.6     0.6     0.5     0.6     0.6     0.5     0.5
     0.4     0.5     0.6     0.6     0.6     0.6     0.5     0.4     0.5     0.5
     0.5     0.4     0.5     0.5     0.5     0.6     0.6     0.6     0.5     0.6
     0.7     0.6     0.7     0.5     0.5     0.5     0.5     0.6     0.6     0.5
     0.5     0.5     0.6     0.6     0.6     0.5     0.4     0.5     0.5     0.4
     0.4     0.5     0.6     0.6     0.6     0.5     0.6     0.7     0.5     0.4
     0.7     0.5     0.4     0.6     0.5     0.6     0.6     0.3     0.6     0.6
     0.5     0.4     0.5     0.7     0.5     0.5     0.4     0.4     0.5     0.3
     0.4     0.5     0.6     0.6     0.5     0.6     0.5     0.5     0.6     0.6
     0.7     0.5     0.4     0.5     0.5     0.6     0.5     0.5     0.5     0.5
     0.5     0.6     0.6     0.4     0.5     0.5     0.5     0.5     0.4     0.4
     0.5     0.5     0.4     0.3     0.5     0.5     0.3     0.5     0.3     0.4
     0.5     0.4     0.5     0.6     0.5     0.4     0.5     0.5     0.6     0.5
     0.5     0.5     0.4     0.5     0.5     0.6     0.6     0.4     0.5     0.5
     0.6     0.7     0.7     0.7     0.6     0.6     0.6     0.7     0.6     0.5
     0.4     0.6     0.7     0.6     0.6     0.6     0.5     0.5     0.6     0.6
     0.6     0.6     0.5     0.5     0.6     0.5     0.5     0.6     0.6     0.5
     0.6     0.7     0.7     0.5     0.4     0.7     0.6     0.4     0.5     0.5
     0.6     0.5     0.5     0.5     0.5     0.5     0.4     0.5     0.5     0.5
     0.5     0.5     0.5     0.4     0.5     0.6     0.4     0.4     0.4     0.5
     0.4     0.4     0.4     0.4     0.6     0.6     0.4     0.5     0.6     0.4
     0.4     0.5     0.6     0.6     0.4     0.4     0.5     0.5     0.6     0.3
     0.4     0.6     0.4     0.5     0.4     0.6     0.6     0.4     0.6     0.6
     0.6     0.5     0.6     0.7     0.5     0.4     0.5     0.5     0.5     0.5
     0.5     0.5     0.6     0.5     0.5     0.4     0.6     0.7     0.4     0.5
     0.6     0.6     0.6     0.4     0.7     0.7     0.4     0.7     0.7     0.6
     0.5     0.6     0.6     0.5     0.5     0.4     0.5     0.5     0.5     0.7
     0.6     0.5     0.6     0.6     0.6     0.6     0.5     0.4     0.5     0.6
     0.5     0.4     0.6     0.5     0.6     0.7     0.5     0.4     0.5     0.6
     0.6     0.5     0.5     0.5     0.6     0.5     0.5     0.6     0.5     0.5
     0.5     0.4     0.4     0.5     0.5     0.5     0.5     0.6     0.7     0.6
     0.6     0.5     0.4     0.5     0.6     0.5     0.5     0.5     0.4     0.5
     0.5     0.4     0.6     0.6     0.5     0.5     0.5     0.7     0.5     0.5
     0.5     0.5     0.6     0.6     0.5     0.6     0.6     0.4     0.4     0.5
     0.5     0.5     0.4     0.6     0.6     0.5     0.5     0.6     0.5     0.4
     0.4     0.5     0.5     0.5     0.5     0.6     0.6     0.5     0.5     0.6
     0.5     0.5     0.5     0.4     0.6     0.6     0.5     0.5     0.4     0.5
     0.5     0.6     0.7     0.6     0.6     0.4     0.4     0.6     0.5     0.6
     0.6     0.6     0.5     0.4     0.5     0.6     0.5     0.5     0.5     0.5
     0.6     0.5     0.5     0.6     0.5     0.5     0.6     0.6     0.7     0.6
     0.5     0.4     0.4     0.5     0.6     0.6     0.5     0.4     0.4     0.4
     0.5     0.5     0.4     0.5     0.6     0.5     0.3     0.5     0.7     0.6
     0.5     0.7     0.6     0.5     0.5     0.7     0.6     0.4     0.4     0.4
     0.5     0.4     0.5     0.4     0.5     0.5     0.4     0.5     0.4     0.6
     0.7     0.6     0.6     0.5     0.5     0.5     0.5     0.5     0.5     0.5
     0.5     0.5     0.8     0.6     0.5     0.6     0.5     0.5     0.5     0.4
     0.4     0.4     0.5     0.5     0.5     0.5     0.5     0.5     0.4     0.6
     0.6     0.6     0.6     0.5     0.5     0.5     0.6     0.5     0.5     0.6
     0.5     0.7     0.8     0.6     0.6     0.4     0.5     0.6     0.4     0.5
     0.6     0.7     0.6     0.5     0.6     0.5     0.5     0.6     0.6     0.6
     0.6     0.5     0.5     0.6     0.7     0.6     0.6     0.7     0.5     0.4
     0.4     0.3     0.5     0.5     0.5     0.7     0.6     0.7     0.6     0.5
     0.7     0.5     0.5     0.5     0.5     0.5     0.3     0.5     0.6     0.6
     0.6     0.5     0.5     0.6     0.5     0.6     0.6     0.6     0.7     0.6
     0.6     0.6     0.6     0.6     0.5     0.6     0.6     0.5     0.4     0.5
     0.4     0.4     0.6     0.5     0.5     0.7     0.6     0.6     0.5     0.6
     0.5     0.5     0.6     0.4     0.5     0.5     0.5     0.6     0.5     0.5
     0.6     0.5     0.5     0.5     0.5     0.4     0.6     0.6     0.5     0.6
     0.5     0.5     0.6     0.5     0.5     0.5     0.5     0.5     0.5     0.6
     0.6     0.6     0.6     0.5     0.5     0.5     0.5     0.4     0.5     0.7
     0.8     0.7     0.6     0.7     0.6     0.6     0.5     0.5     0.7     0.6
     0.4     0.3     0.3     0.4     0.6     0.7     0.6     0.8     0.7     0.4
     0.3     0.4     0.5     0.5     0.4     0.5     0.7     0.7     0.6     0.6
     0.7     0.6     0.5     0.5     0.5     0.6     0.4     0.5     0.6     0.5
     0.5     0.5     0.5     0.5     0.4     0.5     0.7     0.6     0.6     0.5
     0.6     0.6     0.5     0.6     0.5     0.6     0.5     0.6     0.6     0.6
     0.5     0.4     0.6     0.6     0.6     0.7     0.6     0.6     0.5     0.4
     0.5     0.5     0.6     0.6     0.4     0.5     0.6     0.5     0.5     0.5
     0.6     0.6     0.6     0.6     0.7     0.5     0.5     0.5     0.5     0.6
     0.5     0.6     0.6     0.6     0.7     0.5     0.5     0.6     0.5     0.6
     0.5     0.5     0.5     0.6     0.5     0.4     0.5     0.6     0.6     0.6
     0.5     0.5     0.5     0.6     0.5     0.5     0.5     0.6     0.7     0.6
     0.4     0.5     0.4     0.5     0.6     0.5     0.5     0.6     0.6     0.4
     0.5     0.6     0.6     0.6     0.5     0.4     0.6     0.5     0.4     0.4
     0.5     0.6     0.5     0.6     0.4     0.5     0.6     0.5     0.5     0.5
     0.5     0.5     0.4     0.7     0.7     0.4     0.6     0.6     0.5     0.5
     0.5     0.6     0.6     0.4     0.4     0.5     0.6     0.6     0.5     0.6
     0.5     0.4     0.6     0.6     0.6     0.7     0.5     0.5     0.5     0.5
     0.5     0.5     0.5     0.6     0.6     0.5     0.5     0.5     0.4     0.4
     0.4     0.5     0.5     0.5     0.5     0.6     0.5     0.4     0.7     0.6
     0.4     0.5     0.6     0.8     0.6     0.6     0.5     0.4     0.6     0.5
     0.6     0.7     0.6     0.5     0.5     0.6     0.6     0.5     0.7     0.6
     0.6     0.5     0.4     0.5     0.6     0.6     0.5     0.5     0.6     0.5
     0.6     0.6     0.5     0.6     0.6     0.5     0.5     0.5     0.6     0.6
     0.6     0.5     0.7     0.6     0.4     0.5     0.4     0.5     0.6     0.6
     0.5     0.5     0.6     0.4     0.5     0.5     0.5     0.5     0.4     0.5
     0.6     0.4     0.5     0.5     0.5     0.6     0.7     0.5     0.5     0.6
     0.5     0.5     0.5     0.5     0.5     0.5     0.5     0.4     0.6     0.5
     0.4     0.5     0.5     0.5     0.6     0.5     0.4     0.6     0.5     0.7
     0.6     0.3     0.5     0.4     0.4     0.5     0.5     0.5     0.4     0.4
     0.5     0.5     0.5     0.5     0.5     0.5     0.5     0.5     0.5     0.6
     0.5     0.5     0.6     0.6     0.5     0.5     0.5     0.7     0.7     0.5
     0.4     0.5     0.5     0.5     0.6     0.7     0.6     0.6     0.6     0.6
     0.6     0.5     0.5     0.6     0.5     0.5     0.4     0.6     0.6     0.4
     0.5     0.4     0.6     0.5     0.4     0.6     0.5     0.7     0.6     0.5
     0.5     0.5     0.6     0.4     0.5     0.5     0.4     0.5     0.5     0.6
     0.6     0.5     0.5     0.5     0.5     0.6     0.6     0.5     0.5     0.6
     0.6     0.5     0.6     0.5     0.4     0.6     0.5     0.4     0.5     0.5
     0.5     0.5     0.5     0.5     0.5     0.6     0.5     0.5     0.5     0.5
     0.6     0.4     0.5     0.7     0.5     0.6     0.6     0.6     0.7     0.6
     0.6     0.5     0.6     0.7     0.5     0.5     0.6     0.6     0.7     0.6
     0.7     0.7     0.5     0.5     0.6     0.5     0.7     0.7     0.5     0.4
     0.4     0.6     0.7     0.7     0.8     0.7     0.6     0.6     0.7     0.8
     0.6     0.6     0.7     0.6     0.6     0.7     0.6     0.6     0.5     0.6
