Uncorrected accelerogram 20161113_110256_ARKS_20 GNS Science
Site ARKS      41 14 31S  174 56 39E     Cusp file:  20161113_110332_ARKS
Wainuiomata Arakura School
Instrument Cusp_42238
Resolution: 18-bit   Instr Period: 0.0050 s   Damping: 0.700
Accelerogram 20161113_110256_ARKS_20                 Processed 2016 December 09
5 km south-west of Waiau
2016 November 13         11:02:56 UT
Epicentre  42 41 33S 173 01 19E  Bearing S44W  Dist  227km  Depth   15km Mw 7.82
Number of points  65536    Duration 327.68 s
Raw readings in units of 1.00 mm/s/s  at intervals of 0.005 s
Data is unfiltered
Component S09W
Acceleration:  Peak  -2450.7 mm/s/s at 107.88 s     RMS   126.76 mm/s/s
Velocity record unevaluated
Displacement record unevaluated
    2016      11      13      11       2     560       0       0    2016      11
      42      41      33     173       1      19      15       0      13      11
      41      14      31     174      56      39     189     189     224     227
   65536       0       0   65536       0       0       0       0       2   52408
   200.0    0.70    0.00   0.000  0.0000   0.000   0.000   1.000     0.0    0.00
  41.242 174.944  42.693 173.022    7.82    0.00    0.00    0.00      0.      0.
  327.68    0.00    0.00  327.68  0.0050  0.0050      0.      0.      0.  9806.6
 -2450.7  107.88   126.8      0.      0.     0.0    0.00     0.0     0.0   0.000
    0.00    0.00    0.00    0.00   0.000    0.00    0.00    0.00    0.00   0.000
   0.000   0.000   0.000      0.      0.   0.000   0.000   0.000      0.      0.
    -0.2    -0.1     0.0    -0.0    -0.1    -0.0    -0.1    -0.2    -0.1     0.1
     0.0    -0.0    -0.0    -0.0    -0.2    -0.2    -0.1     0.0    -0.0    -0.2
     0.0     0.1    -0.2    -0.2    -0.3    -0.3     0.0     0.0    -0.2    -0.2
    -0.0    -0.0    -0.1     0.0    -0.0     0.0    -0.0    -0.2    -0.1    -0.1
    -0.0    -0.1    -0.2    -0.2    -0.1     0.0    -0.2    -0.2    -0.1    -0.2
    -0.1    -0.0     0.0     0.2     0.1    -0.1    -0.0    -0.0    -0.1     0.0
     0.0    -0.2    -0.2    -0.2    -0.1     0.1    -0.1    -0.1    -0.1    -0.2
    -0.2    -0.1     0.1     0.0    -0.0    -0.1    -0.2    -0.0    -0.0     0.1
    -0.0    -0.1     0.1    -0.1    -0.1    -0.0    -0.1    -0.1     0.0     0.1
    -0.0    -0.1     0.1     0.0    -0.2    -0.1    -0.2    -0.2    -0.0    -0.1
     0.0    -0.1    -0.2    -0.1    -0.1    -0.1    -0.2    -0.3    -0.2     0.0
    -0.1    -0.1    -0.1    -0.1    -0.2    -0.2    -0.2    -0.2    -0.3    -0.3
    -0.3    -0.2     0.2     0.0    -0.3    -0.2    -0.1    -0.2    -0.2    -0.1
    -0.2    -0.2    -0.1    -0.0    -0.1    -0.1    -0.0    -0.0    -0.1    -0.1
    -0.0    -0.2    -0.0    -0.0    -0.2    -0.0    -0.1    -0.1    -0.0    -0.0
    -0.0    -0.1    -0.0    -0.0    -0.0    -0.1    -0.1    -0.0    -0.1    -0.2
    -0.1    -0.0    -0.1    -0.1    -0.0    -0.1     0.0     0.1    -0.0    -0.1
    -0.2    -0.1    -0.1    -0.0     0.0     0.0     0.1    -0.1    -0.2    -0.2
    -0.2    -0.1    -0.1    -0.2    -0.1    -0.1    -0.2    -0.1    -0.2     0.1
     0.2    -0.3    -0.2     0.1    -0.0    -0.2     0.0     0.1    -0.2    -0.1
    -0.0    -0.0    -0.0    -0.1    -0.0    -0.2    -0.1     0.1    -0.1    -0.1
     0.1    -0.1    -0.1     0.1    -0.1    -0.1    -0.0    -0.1    -0.1    -0.2
    -0.1    -0.0    -0.0     0.1    -0.1    -0.2     0.1    -0.1    -0.2    -0.2
    -0.3    -0.3    -0.3    -0.2    -0.0    -0.2    -0.2    -0.1    -0.1     0.0
     0.1     0.2     0.0    -0.2    -0.2    -0.1     0.0    -0.2    -0.2    -0.0
    -0.2    -0.2    -0.1    -0.1    -0.1    -0.2    -0.3    -0.3    -0.1     0.0
    -0.0    -0.2    -0.0    -0.1    -0.2     0.1     0.1     0.0     0.0    -0.1
     0.0    -0.1    -0.3    -0.1    -0.1    -0.3    -0.2    -0.0    -0.0    -0.1
    -0.3    -0.3    -0.2    -0.2    -0.2    -0.2    -0.1     0.1    -0.1    -0.2
    -0.0    -0.0    -0.1    -0.1    -0.2    -0.1    -0.0    -0.2    -0.0     0.0
    -0.2    -0.0     0.0    -0.1     0.1    -0.0    -0.1    -0.0    -0.1    -0.0
     0.1     0.1    -0.1     0.1     0.0    -0.2     0.0    -0.2    -0.1     0.1
    -0.1    -0.2    -0.2    -0.2    -0.1    -0.1    -0.0    -0.2    -0.1    -0.1
    -0.1     0.2    -0.0    -0.1    -0.0     0.0     0.1    -0.1    -0.0     0.0
    -0.2    -0.1    -0.1    -0.0    -0.1    -0.1     0.0    -0.2    -0.2    -0.2
    -0.2    -0.0     0.0     0.0     0.0    -0.1    -0.3    -0.1    -0.1    -0.0
     0.0    -0.1    -0.1    -0.1    -0.1    -0.1     0.0     0.2    -0.0     0.0
     0.0    -0.1    -0.1    -0.1    -0.0    -0.1    -0.0    -0.1    -0.1     0.1
    -0.2    -0.1    -0.1    -0.2    -0.2    -0.1     0.1    -0.1    -0.2    -0.0
    -0.1    -0.1     0.1     0.1    -0.2    -0.2    -0.2    -0.2    -0.2    -0.1
     0.0    -0.0    -0.2    -0.2    -0.1     0.0    -0.2    -0.3    -0.2    -0.1
    -0.0    -0.2    -0.1    -0.1     0.0     0.1    -0.0     0.1    -0.0    -0.1
     0.0    -0.1     0.0     0.0    -0.1     0.0     0.0    -0.1    -0.1     0.1
     0.1    -0.2    -0.1    -0.0    -0.2    -0.1    -0.2    -0.1    -0.0    -0.2
     0.0    -0.0    -0.1     0.2     0.1    -0.2    -0.2     0.1     0.1    -0.1
    -0.1     0.0     0.0     0.0    -0.0    -0.1    -0.0     0.0    -0.0    -0.2
    -0.2     0.0    -0.1    -0.1    -0.0    -0.1    -0.1    -0.2    -0.2     0.0
    -0.1    -0.1    -0.1     0.0     0.1    -0.1    -0.1     0.0    -0.1    -0.1
     0.0    -0.2    -0.2    -0.1    -0.1     0.0     0.0     0.0    -0.1    -0.1
    -0.1    -0.1     0.0    -0.0    -0.1     0.0    -0.1    -0.0    -0.0    -0.1
     0.1     0.0    -0.1     0.0    -0.0    -0.1    -0.1    -0.0    -0.1    -0.3
    -0.0     0.2     0.1     0.2    -0.1    -0.2    -0.0    -0.0     0.0    -0.1
    -0.2     0.1     0.1    -0.0     0.1     0.0    -0.1     0.0    -0.0    -0.1
    -0.0     0.0     0.0    -0.1    -0.1     0.0    -0.0    -0.1    -0.0    -0.1
    -0.0    -0.1    -0.1     0.0    -0.1    -0.1    -0.0    -0.1    -0.1     0.1
     0.1     0.0    -0.1    -0.1    -0.2    -0.0     0.0     0.2     0.1    -0.1
     0.0     0.0    -0.1    -0.1     0.0    -0.0    -0.1    -0.2    -0.1     0.1
     0.0    -0.2    -0.1     0.0    -0.1    -0.0    -0.0    -0.1    -0.1    -0.1
    -0.0     0.2    -0.1    -0.2    -0.0     0.0    -0.0    -0.1    -0.1    -0.1
    -0.2    -0.1    -0.2     0.0     0.1    -0.2     0.1    -0.1    -0.1     0.1
    -0.2    -0.0     0.1    -0.3    -0.1     0.1     0.1     0.1    -0.2    -0.0
     0.2    -0.1    -0.3    -0.1    -0.1    -0.2    -0.1    -0.1     0.1     0.2
    -0.0    -0.1    -0.1    -0.2    -0.1    -0.2    -0.2    -0.0     0.0    -0.0
    -0.0    -0.0     0.0     0.2     0.1     0.0     0.2     0.2    -0.0    -0.0
     0.2    -0.1    -0.1     0.3    -0.0    -0.2    -0.1    -0.2    -0.0    -0.0
    -0.1     0.1     0.0    -0.1    -0.0     0.1     0.1    -0.0    -0.0    -0.2
    -0.2     0.0     0.0     0.1    -0.1    -0.0     0.0    -0.2    -0.0    -0.1
     0.1     0.1    -0.3     0.0     0.0    -0.1    -0.1    -0.0     0.2     0.0
    -0.2    -0.2    -0.1     0.0    -0.1     0.0     0.1    -0.0    -0.1    -0.1
    -0.1    -0.1     0.1     0.1    -0.0     0.1     0.0    -0.3    -0.2     0.1
    -0.1    -0.1    -0.0    -0.0     0.0     0.1    -0.1     0.0     0.1    -0.2
    -0.0     0.1    -0.0     0.0    -0.0    -0.0    -0.1    -0.1     0.1     0.0
    -0.1    -0.2    -0.1    -0.1    -0.3    -0.3    -0.1    -0.1    -0.2    -0.1
    -0.0    -0.1    -0.0    -0.1    -0.1    -0.0    -0.0     0.1     0.1    -0.1
    -0.2    -0.2    -0.0    -0.0    -0.0    -0.0    -0.2    -0.2    -0.2    -0.1
    -0.2    -0.2     0.0     0.1    -0.1    -0.2    -0.2    -0.1    -0.2    -0.3
     0.0     0.1    -0.2    -0.2    -0.2    -0.2    -0.2    -0.2    -0.2    -0.4
    -0.2    -0.1    -0.3    -0.2    -0.1    -0.1    -0.2    -0.2    -0.1    -0.2
     0.1     0.1    -0.1     0.1    -0.1    -0.1     0.0    -0.2    -0.0    -0.1
    -0.3    -0.1    -0.1    -0.1    -0.1    -0.0     0.1    -0.1    -0.1    -0.1
    -0.3    -0.3    -0.2    -0.2    -0.2    -0.1    -0.2    -0.3    -0.0     0.0
    -0.1     0.0    -0.0    -0.2    -0.1     0.1    -0.1    -0.1     0.1    -0.2
     0.0     0.1    -0.2    -0.0    -0.1    -0.2    -0.1    -0.1    -0.0     0.1
    -0.2    -0.3    -0.0    -0.0    -0.2    -0.1    -0.1    -0.3    -0.2    -0.1
    -0.3    -0.2    -0.0    -0.2     0.1     0.1    -0.1     0.0    -0.1    -0.1
    -0.0     0.0    -0.1    -0.3    -0.1    -0.1    -0.1    -0.1    -0.1    -0.2
    -0.1    -0.1    -0.1     0.0    -0.1    -0.2    -0.3    -0.2    -0.1    -0.2
    -0.1    -0.0    -0.2    -0.1    -0.1    -0.1    -0.1    -0.2    -0.1    -0.0
    -0.2    -0.2    -0.1    -0.2    -0.2    -0.3    -0.1     0.0    -0.1    -0.2
    -0.2    -0.2    -0.3    -0.2    -0.1    -0.3    -0.2    -0.1    -0.1    -0.1
    -0.1    -0.1    -0.1    -0.1    -0.1     0.0    -0.1    -0.4    -0.3    -0.2
    -0.1     0.1    -0.2    -0.1     0.1    -0.1    -0.1    -0.2    -0.1     0.1
    -0.1    -0.2    -0.0    -0.1    -0.2    -0.1    -0.2    -0.1    -0.0    -0.2
    -0.1    -0.1    -0.2    -0.1    -0.1    -0.1    -0.1     0.0    -0.0    -0.1
    -0.1    -0.2    -0.1    -0.0    -0.2    -0.0    -0.1    -0.1    -0.1    -0.2
    -0.0    -0.2    -0.2    -0.1    -0.0     0.0     0.0    -0.1    -0.1     0.1
     0.0    -0.3    -0.0     0.1    -0.0    -0.1    -0.2    -0.0     0.0    -0.0
    -0.0    -0.2    -0.1    -0.1    -0.2    -0.1    -0.0    -0.0    -0.1    -0.0
    -0.0     0.0    -0.1    -0.2    -0.2    -0.2     0.0     0.1    -0.2    -0.1
    -0.1    -0.2    -0.3    -0.1    -0.0    -0.3    -0.1    -0.1    -0.1     0.0
     0.1     0.0    -0.2    -0.3    -0.2    -0.1    -0.0    -0.2    -0.2     0.1
    -0.0    -0.1    -0.1    -0.1    -0.1    -0.1    -0.0    -0.1    -0.2    -0.0
    -0.0     0.0    -0.1    -0.3    -0.2    -0.1    -0.1    -0.1    -0.1     0.0
    -0.1    -0.2     0.1    -0.1    -0.1     0.1    -0.2    -0.1     0.1    -0.1
    -0.3    -0.2    -0.1    -0.2    -0.0    -0.0    -0.1    -0.0    -0.1    -0.2
    -0.0    -0.0    -0.1    -0.1    -0.0    -0.0    -0.1    -0.2     0.0    -0.1
    -0.2     0.0     0.0    -0.1     0.0    -0.1    -0.2    -0.2    -0.1    -0.2
     0.1     0.1    -0.1    -0.0    -0.0     0.0     0.0    -0.1     0.0    -0.0
    -0.3    -0.1    -0.0    -0.1     0.0     0.0    -0.1    -0.1    -0.1    -0.1
    -0.0     0.1     0.0     0.0     0.0     0.0     0.1    -0.1     0.0     0.0
    -0.0     0.1    -0.1    -0.1    -0.0    -0.2    -0.2     0.0     0.0    -0.1
    -0.0    -0.1    -0.2    -0.0     0.0     0.0    -0.0    -0.1    -0.2    -0.0
     0.1    -0.0    -0.1    -0.1    -0.1    -0.1    -0.2    -0.1    -0.2    -0.3
    -0.1    -0.0    -0.2    -0.1    -0.1     0.0     0.0    -0.2    -0.1    -0.1
    -0.1    -0.1    -0.3    -0.4    -0.2    -0.0    -0.1    -0.1    -0.1    -0.2
    -0.1     0.1     0.0    -0.2     0.0    -0.0    -0.2    -0.0    -0.1    -0.2
    -0.1    -0.1     0.0    -0.1    -0.2    -0.1    -0.2    -0.2    -0.1    -0.1
    -0.2    -0.0     0.0    -0.1     0.0    -0.0    -0.0     0.0     0.0    -0.1
    -0.1    -0.0    -0.1    -0.2    -0.1    -0.0    -0.1     0.0    -0.0    -0.2
    -0.1    -0.1    -0.1    -0.0    -0.0    -0.2    -0.1    -0.2    -0.3    -0.1
    -0.0    -0.1    -0.3    -0.3    -0.1     0.0     0.0    -0.0    -0.1    -0.3
    -0.3    -0.1    -0.2    -0.1     0.0    -0.0    -0.1    -0.0     0.0    -0.3
    -0.2     0.0    -0.0    -0.0    -0.1    -0.1    -0.0    -0.1    -0.1    -0.0
    -0.1    -0.3    -0.2    -0.0    -0.1    -0.2    -0.2    -0.2    -0.1    -0.0
    -0.0     0.0    -0.0    -0.1     0.1     0.1    -0.1    -0.0    -0.1    -0.2
     0.0    -0.1    -0.1    -0.0    -0.2    -0.3    -0.2    -0.0    -0.1    -0.1
    -0.1    -0.1    -0.0    -0.1    -0.1     0.0    -0.1    -0.1    -0.1    -0.2
    -0.1     0.1     0.0     0.2     0.0    -0.1     0.0    -0.1    -0.1     0.1
    -0.1    -0.1     0.1    -0.0     0.1    -0.0    -0.1    -0.1    -0.2    -0.1
     0.0    -0.1    -0.2    -0.1    -0.3    -0.2    -0.1    -0.0     0.0    -0.1
    -0.1    -0.1    -0.2    -0.0    -0.2    -0.2     0.0     0.2    -0.1    -0.1
     0.2     0.0    -0.0     0.1    -0.0     0.0    -0.0    -0.0     0.1     0.0
    -0.0    -0.1    -0.1    -0.0    -0.0     0.0     0.0    -0.1    -0.0    -0.1
    -0.2    -0.0    -0.1    -0.1    -0.2    -0.2    -0.2    -0.2    -0.0     0.0
    -0.1    -0.3    -0.3    -0.2    -0.1    -0.3    -0.2     0.0    -0.2    -0.2
    -0.0    -0.2    -0.1    -0.0    -0.2    -0.2    -0.2    -0.2    -0.0     0.0
    -0.1    -0.1    -0.1    -0.1    -0.1    -0.3    -0.3    -0.2    -0.2    -0.1
    -0.1    -0.2    -0.1    -0.1    -0.2     0.0    -0.1    -0.1    -0.2    -0.2
    -0.1    -0.2    -0.2    -0.3    -0.2    -0.1    -0.2    -0.1    -0.0    -0.0
    -0.1    -0.2    -0.1     0.0    -0.1    -0.1     0.1     0.0    -0.1    -0.2
    -0.2     0.1     0.0    -0.2    -0.2    -0.1    -0.1    -0.3    -0.2    -0.1
     0.0     0.2     0.1     0.1     0.0    -0.3    -0.1    -0.0    -0.2    -0.3
    -0.2    -0.1    -0.1    -0.1    -0.0    -0.1    -0.1    -0.1    -0.1    -0.0
    -0.2    -0.1     0.0    -0.1    -0.2    -0.1    -0.0     0.0     0.1    -0.0
    -0.2    -0.2    -0.1    -0.0    -0.1    -0.0    -0.2    -0.3     0.0    -0.2
    -0.2    -0.1    -0.2    -0.1    -0.1     0.0    -0.0    -0.2     0.1    -0.1
    -0.1     0.0    -0.2    -0.0     0.1    -0.2    -0.3     0.1     0.0    -0.1
    -0.1    -0.2    -0.2    -0.1    -0.1    -0.1    -0.1     0.0    -0.0    -0.2
    -0.1    -0.0    -0.1    -0.0    -0.0    -0.1    -0.1    -0.1    -0.2    -0.2
    -0.1    -0.0    -0.2    -0.2     0.1     0.0    -0.1    -0.1    -0.1     0.0
    -0.0    -0.0     0.0    -0.2    -0.0    -0.0    -0.2    -0.1    -0.2    -0.1
     0.1     0.0    -0.0    -0.2    -0.2     0.1    -0.0    -0.2    -0.1    -0.1
    -0.1    -0.1    -0.0    -0.2    -0.1    -0.1    -0.2    -0.1    -0.1    -0.1
    -0.1     0.0     0.0    -0.2    -0.1     0.0     0.0     0.0    -0.1    -0.1
    -0.1    -0.0    -0.1    -0.1     0.1    -0.1    -0.3    -0.2    -0.1    -0.0
     0.1    -0.0    -0.1    -0.1    -0.2    -0.2    -0.0     0.1    -0.2    -0.1
     0.0    -0.1    -0.1    -0.1    -0.2     0.0     0.1    -0.1    -0.2    -0.0
    -0.1    -0.1    -0.1     0.0    -0.1    -0.3    -0.2    -0.2    -0.0    -0.1
    -0.1     0.1    -0.1     0.0    -0.1    -0.3    -0.1    -0.1    -0.0    -0.0
    -0.2    -0.2    -0.1     0.0     0.0     0.0    -0.0    -0.1    -0.1    -0.0
    -0.0    -0.0     0.0     0.0    -0.1    -0.0     0.1    -0.1    -0.1    -0.1
    -0.3    -0.1     0.1    -0.0    -0.1    -0.1     0.0     0.1    -0.1    -0.2
    -0.0     0.2    -0.1    -0.1     0.1    -0.0    -0.1    -0.1    -0.1    -0.1
    -0.2    -0.1    -0.0    -0.2    -0.3    -0.1     0.0    -0.0    -0.1    -0.1
     0.0    -0.1    -0.2    -0.1    -0.2    -0.2    -0.0    -0.0    -0.0    -0.0
    -0.1    -0.1     0.0    -0.1    -0.1    -0.1    -0.1     0.0    -0.1    -0.4
    -0.2     0.0     0.0    -0.1    -0.2    -0.0    -0.1    -0.2    -0.1    -0.2
    -0.1    -0.1    -0.2     0.0    -0.0    -0.2    -0.1    -0.0    -0.0     0.0
    -0.1    -0.1     0.1    -0.2    -0.3    -0.0    -0.1    -0.1     0.1    -0.1
    -0.1    -0.1    -0.2    -0.2    -0.2    -0.2    -0.1    -0.2    -0.1    -0.1
    -0.3    -0.1    -0.0    -0.2    -0.0    -0.1    -0.1    -0.1    -0.2    -0.0
     0.0    -0.1    -0.1    -0.1    -0.0    -0.1    -0.1    -0.2    -0.2    -0.2
    -0.1    -0.1    -0.1    -0.2    -0.1    -0.2    -0.2    -0.2    -0.2    -0.1
    -0.1    -0.2    -0.2    -0.2     0.0     0.1     0.0     0.1    -0.0    -0.1
    -0.1    -0.1    -0.1    -0.0    -0.1    -0.2     0.0     0.1    -0.1    -0.1
    -0.2    -0.2     0.0    -0.0    -0.0    -0.0    -0.1    -0.1    -0.1    -0.1
    -0.1     0.0    -0.1     0.0     0.1    -0.2    -0.2    -0.0    -0.1    -0.2
    -0.2    -0.0    -0.2    -0.1     0.0    -0.0    -0.0    -0.1    -0.0    -0.0
    -0.2    -0.1     0.1     0.0    -0.1    -0.1    -0.0    -0.1    -0.1    -0.0
    -0.1    -0.0     0.0    -0.2    -0.3    -0.2    -0.2    -0.1    -0.2    -0.1
     0.0     0.0    -0.1    -0.1     0.1    -0.2    -0.1     0.1    -0.2    -0.1
     0.0    -0.1    -0.1    -0.1    -0.2    -0.2     0.1     0.1    -0.1     0.2
     0.0    -0.1    -0.2    -0.2     0.1     0.0    -0.1     0.0    -0.0    -0.1
    -0.1    -0.2    -0.2    -0.0    -0.1    -0.1    -0.1    -0.2    -0.1    -0.2
    -0.1    -0.0    -0.1     0.1     0.1     0.1    -0.1    -0.2    -0.0    -0.1
    -0.0    -0.1    -0.1     0.1    -0.1    -0.1    -0.0    -0.1    -0.2    -0.1
     0.1    -0.2    -0.1    -0.1    -0.2     0.0    -0.0    -0.1    -0.1    -0.1
    -0.1    -0.1    -0.1    -0.1    -0.1    -0.1     0.0    -0.0    -0.1    -0.0
    -0.2    -0.2    -0.1    -0.1    -0.1    -0.1    -0.0    -0.1    -0.2    -0.1
    -0.0    -0.1    -0.0     0.0    -0.1    -0.1     0.0     0.1    -0.0    -0.0
     0.1    -0.0    -0.2    -0.2     0.0    -0.1    -0.0     0.0    -0.2    -0.1
    -0.1    -0.2    -0.1    -0.2    -0.2    -0.2    -0.1     0.1    -0.2    -0.3
    -0.2    -0.2    -0.1    -0.0    -0.1    -0.1    -0.0    -0.1    -0.1    -0.0
    -0.1    -0.1    -0.0    -0.1    -0.2    -0.3    -0.2    -0.1     0.0    -0.0
    -0.1     0.1    -0.1    -0.2    -0.1    -0.3    -0.1    -0.1    -0.2    -0.1
    -0.1    -0.0    -0.1    -0.0     0.0    -0.1    -0.1    -0.1    -0.1    -0.1
    -0.0    -0.0    -0.1    -0.0    -0.0    -0.1    -0.1    -0.0    -0.1    -0.1
    -0.1    -0.1     0.0     0.1    -0.0    -0.0    -0.1    -0.0     0.0    -0.1
     0.1     0.3    -0.1    -0.1     0.0    -0.2     0.0     0.0    -0.2     0.0
     0.1    -0.0    -0.1    -0.2    -0.1     0.1     0.1     0.1     0.0     0.0
     0.0    -0.1    -0.1    -0.1    -0.2    -0.1    -0.1    -0.1    -0.1    -0.2
    -0.2    -0.0    -0.0     0.0    -0.0    -0.1    -0.0    -0.1    -0.2    -0.1
    -0.2    -0.2    -0.1    -0.1    -0.0    -0.0    -0.1    -0.1    -0.3    -0.1
     0.0    -0.2    -0.1     0.1    -0.1    -0.1    -0.1    -0.0    -0.1    -0.2
     0.2     0.1    -0.1     0.0     0.0     0.2    -0.0    -0.2     0.0    -0.0
     0.0     0.2     0.1    -0.3    -0.1    -0.1    -0.3     0.1    -0.1    -0.2
     0.1    -0.1     0.1     0.2    -0.1    -0.2     0.1    -0.0    -0.1    -0.2
    -0.1    -0.1    -0.1     0.0     0.2     0.2     0.0    -0.1     0.2     0.1
    -0.1    -0.1    -0.2    -0.1     0.0    -0.1    -0.2    -0.1    -0.1    -0.1
     0.1    -0.1    -0.3     0.1    -0.1    -0.1    -0.1    -0.2     0.1    -0.0
    -0.1     0.0    -0.1     0.0    -0.1     0.1     0.0    -0.1     0.0    -0.1
     0.1     0.0    -0.2     0.0    -0.0    -0.0     0.0     0.0    -0.1    -0.1
    -0.0     0.0     0.2     0.0    -0.2     0.0     0.0    -0.1    -0.0    -0.1
    -0.1     0.2     0.1    -0.1    -0.0    -0.2    -0.2    -0.1    -0.1     0.0
    -0.1    -0.2     0.0     0.0    -0.1    -0.1    -0.0     0.3     0.0    -0.1
     0.1    -0.0     0.0     0.1     0.0    -0.1    -0.0     0.2     0.1    -0.1
    -0.0    -0.0    -0.1    -0.0    -0.1     0.0     0.1    -0.2    -0.0     0.1
    -0.1     0.0    -0.0    -0.1     0.1     0.1    -0.1     0.1    -0.0    -0.2
     0.1    -0.0    -0.1    -0.0    -0.1    -0.1    -0.1    -0.1    -0.0    -0.1
    -0.1     0.1     0.0    -0.1    -0.2    -0.1     0.0     0.0     0.1    -0.0
    -0.1    -0.2    -0.1     0.1    -0.0    -0.1    -0.0     0.0     0.0    -0.0
    -0.1    -0.1    -0.1     0.1     0.1    -0.1    -0.0    -0.0    -0.2    -0.0
     0.1    -0.1     0.1    -0.0    -0.1     0.0     0.1     0.1     0.1     0.0
     0.0    -0.2    -0.0     0.0    -0.2     0.0    -0.0    -0.0     0.1    -0.1
     0.1     0.1     0.0     0.1    -0.0    -0.0    -0.0    -0.1    -0.0    -0.0
    -0.1    -0.1     0.0     0.1    -0.1     0.2     0.3    -0.1    -0.1    -0.1
    -0.2     0.0     0.1    -0.0    -0.2    -0.0     0.0    -0.1    -0.1    -0.2
