Uncorrected accelerogram 20161113_110256_SCAC_20 GNS Science
Site SCAC      42 56 19S  172 55 18E     Cusp file:  20161113_110304_SCAC
Scargill
Instrument Cusp_10455
Resolution: 18-bit   Instr Period: 0.0050 s   Damping: 0.700
Accelerogram 20161113_110256_SCAC_20                 Processed 2016 December 09
5 km south-west of Waiau
2016 November 13         11:02:56 UT
Epicentre  42 41 33S 173 01 19E  Bearing N17E  Dist   29km  Depth   15km Mw 7.82
Number of points  65536    Duration 327.68 s
Raw readings in units of 1.00 mm/s/s  at intervals of 0.005 s
Data is unfiltered
Component N10W
Acceleration:  Peak   2063.4 mm/s/s at  52.21 s     RMS   147.76 mm/s/s
Velocity record unevaluated
Displacement record unevaluated
    2016      11      13      11       2     560       0       0    2016      11
      42      41      33     173       1      19      15       0      13      11
      42      56      19     172      55      18     350     350      17      29
   65536       0       0   65536       0       0       0       0       2   24136
   200.0    0.70    0.00   0.000  0.0000   0.000   0.000   1.000     0.0    0.00
  42.939 172.922  42.693 173.022    7.82    0.00    0.00    0.00      0.      0.
  327.68    0.00    0.00  327.68  0.0050  0.0050      0.      0.      0.  9806.6
  2063.4   52.21   147.8      0.      0.     0.0    0.00     0.0     0.0   0.000
    0.00    0.00    0.00    0.00   0.000    0.00    0.00    0.00    0.00   0.000
   0.000   0.000   0.000      0.      0.   0.000   0.000   0.000      0.      0.
    -0.3    -0.5    -0.9     0.2     0.4     0.3    -0.1    -0.6    -0.2    -0.7
    -0.6    -0.1    -0.4    -0.5    -0.1     0.2    -0.4    -0.6    -0.2    -0.4
    -0.6    -0.5    -0.8    -0.5    -0.3    -0.6    -0.4    -0.5    -0.5     0.2
    -0.4     0.1     0.7    -0.6     0.0    -0.6    -1.2    -0.1    -0.5     0.3
    -0.1    -0.8    -0.4    -0.6     0.1    -0.2    -0.3    -0.1    -1.0    -0.6
    -0.4    -0.7    -0.4     0.2    -0.3    -1.4    -1.0    -0.2    -0.7    -0.4
    -0.3    -0.8     0.3    -0.4    -0.9     0.3    -0.4    -0.8    -0.7    -0.9
    -0.6    -0.7    -0.3     0.2    -0.4    -0.6    -0.6    -0.4     0.0    -1.0
    -0.9    -0.1    -0.0     0.1    -0.6    -0.7     0.1    -0.3    -0.5    -0.3
    -0.4    -0.5     0.3     0.7     0.2    -0.2    -0.8    -0.8    -0.6    -0.8
    -1.0    -0.5    -0.4    -0.9     0.1     0.1    -0.8    -0.3    -0.6    -0.6
    -0.5    -0.5    -0.4    -0.5     0.2     0.4    -0.3    -0.7    -0.6    -0.0
    -0.1    -0.6    -0.5    -0.8    -0.9    -0.3    -0.2    -0.8    -0.4    -0.2
    -0.7    -0.1    -0.6    -0.7    -0.4    -0.5    -0.3    -1.2    -0.3    -0.6
    -0.6     0.3    -1.3    -0.9    -0.3    -0.7    -0.6    -0.6    -0.1    -0.4
    -1.0    -1.0    -0.6    -0.3    -0.8    -0.3    -0.8    -1.0     0.0    -0.5
     0.1    -0.5    -1.2    -0.2    -0.6     0.1    -0.3    -1.0    -0.6    -0.6
    -0.2    -0.2    -0.3    -0.6    -0.2    -0.7    -0.9     0.1    -0.8    -0.3
    -0.2    -0.8    -1.0    -1.6    -0.5     0.2    -0.2    -0.4    -1.0    -1.0
    -0.2    -0.2    -0.7    -0.0     0.2    -0.6    -0.3    -0.7    -0.8    -0.4
    -0.6    -0.6    -0.6    -0.4    -1.0    -0.6    -0.2    -1.0    -0.7    -0.3
    -0.5     0.2    -0.2    -1.5    -0.6    -0.5    -0.6     0.2    -0.7    -0.9
    -1.0    -0.5    -0.4    -1.0     0.0    -0.2    -0.6    -0.7    -0.2     0.5
    -0.6    -0.9    -0.4    -0.3    -0.4     0.1    -0.1    -0.7    -0.4    -1.0
    -0.6    -0.6    -1.2    -0.3     0.1     0.1    -0.7    -1.0    -0.5    -0.5
    -0.6    -0.7     0.0    -0.5    -1.0    -0.7    -1.2    -0.8    -0.4    -0.5
    -0.9    -0.8    -0.4    -0.7    -0.2    -0.1    -0.8    -0.7    -0.8    -1.2
    -0.4    -0.1    -1.1    -0.8    -0.7    -0.2     0.5    -0.5    -0.4     0.1
     0.1    -0.4    -1.3    -0.5    -0.0    -0.1    -0.4    -0.6    -0.2    -0.4
    -0.4    -0.9    -0.7     0.2    -0.3    -0.4     0.3     0.2    -0.1    -0.2
    -0.4     0.3     0.1    -0.6     0.0    -0.2    -1.0    -0.3     0.1    -0.1
    -0.2    -0.9    -0.9    -0.3     0.1    -0.4    -0.8    -0.3    -0.4     0.2
    -0.2    -0.4     0.0    -0.5    -0.4    -0.9    -0.2    -0.1    -1.0    -0.3
    -0.4    -0.5    -0.1    -0.4    -1.0    -0.5    -0.1    -0.7    -0.8    -0.4
    -0.3    -0.8    -0.9    -0.7    -0.5    -0.4    -0.4    -0.6    -0.6    -0.3
    -0.5    -0.5    -0.7    -0.3    -0.3    -0.9     0.4    -0.0    -0.6    -0.3
    -0.7    -0.5    -1.0    -0.5    -0.5    -0.6    -0.3    -1.0    -0.6    -1.3
    -1.2    -0.1    -0.4    -0.8    -0.6    -0.2    -0.3     0.1    -0.1    -0.9
    -0.7    -1.3    -1.5    -0.9    -1.4    -0.8    -0.5    -0.5    -0.9    -0.7
     0.0    -0.3    -0.4    -0.7    -0.7    -0.6    -0.6    -0.4    -0.8    -0.0
     0.1    -1.0    -0.8    -0.6    -0.2     0.2    -1.2    -1.0    -0.7    -1.0
    -0.2    -0.7    -0.3    -0.3    -0.6    -0.4    -1.2    -0.5    -0.3    -0.9
    -0.3    -1.0    -1.8    -1.3    -0.7     0.1    -0.6    -0.8    -0.5    -0.7
     0.4    -0.7    -1.2    -0.4    -0.8    -0.9    -0.6     0.0    -0.5    -0.2
    -0.5    -0.9    -0.4    -1.4    -0.8    -0.7    -0.9    -0.5    -0.4     0.1
    -0.6    -0.7    -0.3    -1.0    -1.0    -0.2    -0.1    -0.3     0.1    -0.5
    -0.2    -0.2    -0.8    -0.8    -0.0     0.3    -1.1    -0.9    -0.7    -0.8
    -0.0    -0.2    -0.7    -1.3    -1.2    -1.2    -1.0    -0.9    -1.1    -0.9
    -1.0    -0.5    -0.3    -0.7    -1.2    -1.5    -0.6    -0.0    -0.9    -1.0
    -1.2    -1.1    -0.8    -1.5    -1.4    -1.0    -0.6    -1.0    -1.7    -1.5
    -0.9    -0.7    -0.9    -0.1    -0.4    -1.6    -1.1    -0.6    -0.8    -0.9
    -1.2    -0.5    -0.2    -0.4    -0.2    -0.2    -0.8    -0.8    -0.2    -0.5
    -0.5     0.3     0.0    -0.9    -1.0    -0.5    -0.7    -0.5    -0.4    -0.9
    -0.5    -0.4    -1.2    -1.6    -1.4    -0.5    -0.8    -0.8    -0.7    -0.9
    -0.5    -1.1    -0.6    -0.4    -1.3    -0.4    -0.1    -1.2    -1.1    -0.4
     0.1    -0.4    -0.9    -0.1    -0.6    -1.0    -0.3    -0.7    -0.4    -0.3
    -0.7    -0.2    -0.0    -0.5    -0.7    -0.0    -0.7    -0.8    -0.4    -0.8
    -1.1    -1.0    -0.1    -0.5    -0.9    -1.2    -1.5    -1.3    -1.3    -0.6
    -0.9    -1.0    -1.1    -1.0    -0.9    -1.5    -1.1    -0.3    -0.8    -0.8
    -0.4    -0.7    -1.1    -0.9    -0.5    -0.8    -0.2    -0.4    -0.5    -0.4
    -1.7    -0.7    -0.4    -0.8    -1.3    -1.6    -1.0    -0.8    -0.5    -0.4
    -0.4    -0.4     0.3    -0.3    -1.1    -0.3    -1.1    -1.0    -0.4    -0.7
    -0.8    -0.5    -0.4    -0.7    -0.1    -0.2    -0.3    -0.5    -1.1    -0.5
    -0.8    -1.1    -0.4    -0.7    -0.9    -0.7    -0.7    -0.5    -0.3    -0.6
    -0.6    -0.3    -0.9    -0.2    -0.2    -0.9    -0.4    -1.1    -1.0    -0.6
    -1.0    -0.5    -0.9    -1.0    -0.7    -0.7    -0.9    -1.4    -0.7    -0.6
    -0.9    -0.4    -0.4    -0.2    -0.6    -0.8    -0.4    -0.3    -0.4    -0.4
    -0.4    -0.4    -0.4    -0.7    -0.9    -1.0    -1.3    -0.9    -0.7    -1.3
    -0.5    -0.0    -0.6    -0.3    -0.8    -1.1    -0.9    -0.8    -0.4    -0.8
    -0.1    -0.3    -1.4    -0.0    -0.4    -0.9    -0.8    -2.1    -1.2    -0.9
    -0.9    -0.4    -1.5    -0.8    -0.6    -1.6    -1.5    -0.9    -0.6    -0.9
    -0.7    -0.6    -0.6    -0.9    -0.8    -0.6    -0.9    -0.1    -0.2    -0.4
     0.3    -0.9    -0.7    -0.2    -1.6    -0.8    -0.2    -0.6    -0.6    -1.2
    -0.9    -0.7    -1.0    -1.0    -0.9    -0.7    -0.4    -1.1    -1.4    -0.7
    -0.8    -0.9    -1.2    -0.6     0.0    -1.0    -0.8    -0.8    -1.3    -0.5
    -1.1    -1.4     0.0    -0.3    -0.3    -0.5    -1.0    -0.5    -1.0    -0.7
    -0.3    -0.7    -1.2    -1.4    -0.5    -0.7     0.1    -0.5    -1.7    -0.3
    -0.8    -0.4    -0.8    -1.4    -0.8    -1.2    -0.3    -0.8    -1.0    -0.3
    -0.9    -0.3    -0.3    -0.8    -0.8    -0.7    -0.4    -0.3    -0.6    -0.7
    -1.5    -0.8     0.2    -0.4    -1.1    -0.5    -0.2    -0.9    -0.5    -1.0
    -1.1    -0.8    -0.7    -0.6    -1.4     0.0     0.6    -0.6    -1.3    -1.3
    -1.3    -1.0     0.5    -0.5    -1.4    -0.4    -1.0    -0.7    -0.8    -1.5
    -1.2    -0.7    -0.8    -0.6    -0.5    -1.2    -1.1    -0.8    -0.5    -0.8
    -1.1    -0.4    -1.1    -1.2    -0.4    -0.7    -1.3    -0.7    -0.3    -0.4
    -0.3    -1.2    -0.7    -0.8    -1.5    -0.2    -0.3    -0.8    -0.9    -0.3
    -0.7    -0.8     0.5    -0.5    -0.9    -0.4    -0.8    -0.4    -0.3    -0.7
    -0.3    -0.2    -0.5    -1.1    -1.2    -0.7    -0.8    -0.7    -1.1    -1.0
     0.2    -1.0    -0.9     0.0    -0.4    -1.2    -0.7    -0.2    -1.0    -0.0
    -0.6    -0.6     0.4    -1.0    -0.9    -0.4    -0.4    -0.4    -0.4    -0.9
    -0.3     0.2    -1.3    -0.6    -0.8    -1.2    -0.3    -0.8     0.0    -0.5
    -1.3    -0.9    -1.6    -0.4    -0.5    -1.2    -0.8    -0.7    -0.7    -0.9
    -0.3    -0.6    -0.7    -0.1    -0.5    -1.0    -0.8    -0.1    -0.5    -0.8
    -0.1    -0.6    -0.5     0.1    -0.7    -0.3    -0.6    -1.0    -0.6    -1.2
    -0.2     0.4     0.0    -0.5    -1.1    -1.1    -1.1    -0.6    -0.4    -0.3
     0.3    -1.0    -1.3    -0.7    -1.3    -1.1    -0.7    -0.3    -0.5    -0.8
    -0.4    -0.5    -0.9    -1.0    -0.4    -0.6    -0.7    -0.3    -0.5    -0.8
    -0.7    -0.4    -0.5    -0.4    -0.4    -0.8    -0.4    -0.7    -1.0    -1.0
    -1.2    -0.8    -0.6    -0.7    -0.4    -0.1    -0.4    -0.4    -0.6    -0.4
    -0.1    -0.2    -0.3    -0.7    -0.4    -0.0    -0.7    -0.3    -0.2    -0.8
    -0.3    -0.5    -1.2    -0.1    -0.3    -0.2    -0.2    -1.6    -0.9    -0.5
    -1.0    -0.8    -0.6    -0.7    -0.4    -0.5    -0.7    -0.6    -0.7    -0.3
    -0.7    -0.3    -0.2    -0.7    -0.8    -1.0     0.0    -0.0    -0.9    -0.7
    -0.0    -0.4    -0.8    -0.5    -0.9    -0.6    -0.6    -0.7    -0.1    -0.9
    -0.8    -0.2    -0.4    -0.8    -1.4    -1.1    -1.0    -1.3    -1.1    -1.4
    -1.3    -0.8    -1.1    -1.0    -1.6    -1.6    -0.9    -0.7    -0.6    -1.0
    -0.4    -0.9    -1.1     0.2    -0.5    -0.6    -0.2    -1.0    -0.8    -0.2
    -0.7    -0.7    -0.4     0.1    -0.1    -1.3    -0.7    -0.7    -0.7    -0.4
    -0.5    -0.3    -1.0    -0.5    -0.5    -1.1    -0.3    -0.6    -0.7    -0.9
    -1.1    -0.6    -1.1    -1.2    -0.6    -0.8    -1.0     0.1     0.2    -0.5
    -0.2    -0.5    -0.1     0.1    -0.2     0.0    -0.3    -0.7    -0.4    -1.0
    -1.2     0.1    -0.2    -1.1    -0.7    -0.0    -0.3    -0.9    -0.5    -0.5
    -0.7    -0.3    -0.4    -0.1    -0.0    -0.5    -0.6    -1.1    -1.0    -1.0
    -1.4    -1.6    -1.0    -0.1    -0.6    -0.5    -0.5    -1.3    -1.1    -0.6
    -0.6    -0.6    -0.5    -0.9    -0.3     0.5     0.3    -0.6    -0.9    -1.1
    -1.1    -0.7    -0.6    -0.4    -0.5    -0.7    -0.8    -1.0    -1.0    -0.9
    -0.6    -0.3    -0.4    -1.2    -0.9    -0.4    -0.9    -0.7    -0.7    -0.5
    -0.4    -0.1    -0.2    -0.4     0.3    -1.2    -1.2    -0.7    -1.2    -1.2
    -1.7    -0.8    -0.8    -1.4    -0.7    -1.0    -1.3    -0.8    -0.7    -0.7
     0.2     0.3    -0.3    -0.0    -0.1    -0.2    -0.6    -0.9    -0.4    -1.0
    -1.2    -0.1    -0.7    -1.2    -0.1    -0.4    -0.6     0.2     0.0    -0.1
     0.1    -0.3    -0.7    -0.6    -0.7    -0.9    -1.1    -0.8    -0.8    -1.1
    -0.8    -0.8    -1.2    -1.1    -0.3    -0.5    -0.7    -0.4    -0.5    -0.2
    -0.6    -0.7    -1.0    -1.3    -0.2    -0.1    -0.6    -0.8    -0.7    -1.3
    -1.1     0.2    -0.4    -1.1    -1.0    -0.1    -0.2    -0.6    -0.2    -1.2
    -0.4     0.1    -0.0     0.2    -0.7    -0.3    -1.1    -1.3    -0.1    -1.1
    -1.5    -0.5    -0.2    -0.9    -0.1     0.2    -0.8    -0.5    -1.1    -1.2
    -0.5    -0.8    -0.8    -0.5    -0.8    -0.6     0.0    -0.5    -0.2     0.3
     0.3    -0.1    -0.9    -0.6    -0.1    -0.5    -0.3     0.2    -0.3    -0.8
    -0.8    -0.8    -0.2    -0.4    -1.6    -0.6    -0.6    -1.1    -0.6    -0.9
    -0.6    -0.9    -0.4     0.2    -0.6    -0.6    -0.5    -0.3    -0.4    -0.8
    -1.0    -0.7    -0.6    -0.4    -0.2    -0.7    -1.1    -1.0    -0.4    -0.5
    -0.4    -0.6    -0.5    -0.2    -0.5    -0.2    -0.4    -0.8    -1.3    -1.0
    -0.1    -0.4    -0.5     0.1    -0.2    -0.9    -0.7    -0.9    -0.7    -0.7
    -0.7    -0.8    -0.9    -0.7    -0.6    -0.0    -0.5    -1.3    -1.0    -1.4
    -1.2    -0.4    -0.5    -0.9    -0.5    -0.2    -0.8    -0.7    -0.6    -0.8
    -1.2    -1.0    -0.5    -0.9    -0.5    -0.6    -1.1    -1.1    -1.3    -1.2
    -0.5    -0.3    -1.2    -0.9    -1.2    -1.5    -0.5    -0.9    -0.7    -0.7
    -1.3    -0.7    -0.5    -0.9    -0.8    -0.6    -0.9    -1.3    -1.1    -0.4
    -0.4    -1.4    -0.9     0.0    -0.4    -0.8    -1.0    -0.7    -0.4    -0.1
    -0.3    -0.9    -0.4    -0.3    -0.5    -0.9    -0.5    -0.2    -1.2    -0.8
    -0.5    -1.0    -0.5    -0.1    -0.6    -1.0    -0.9    -1.0    -0.7    -0.8
    -1.5    -0.4    -0.8    -1.8    -0.7    -0.6    -0.7    -1.1    -1.1    -1.3
    -1.4     0.0    -1.0    -0.9    -0.6    -1.4    -0.8    -1.1    -0.7    -0.8
    -1.1    -0.0    -0.3    -0.5     0.3    -0.4    -0.5    -1.4    -2.0    -0.3
    -1.1    -0.6    -0.2    -1.0    -0.6    -0.9    -0.5    -1.2    -1.2    -0.5
    -0.2     0.0    -0.7    -0.7    -0.8    -0.3    -0.8    -0.8     0.0    -0.9
    -0.5    -0.6    -0.5     0.0    -0.4    -0.6    -1.0    -0.4    -1.1    -1.2
    -0.9    -1.0    -0.6    -1.3    -0.7    -0.4    -0.8    -1.1    -0.8    -0.7
    -0.9    -0.7    -1.4    -0.4    -0.4    -1.3    -0.5    -0.9    -0.7     0.0
    -0.2    -0.6    -0.4    -0.4    -0.8    -0.9    -0.9    -0.8    -0.6    -0.6
    -0.2    -0.1     0.0    -0.3    -0.8    -0.1    -0.4    -0.5    -0.7    -0.2
     0.6    -0.4     0.0     0.5    -0.2    -0.9    -0.9    -0.7    -1.3    -1.2
    -0.7    -0.4    -0.4    -0.2    -0.1     0.3    -0.0    -0.3    -0.4    -1.2
    -0.1    -0.2    -1.0    -0.3    -0.5    -1.6    -1.0    -0.4    -0.3    -0.3
    -1.0    -0.0    -0.3    -1.5    -1.0    -0.8    -0.5    -0.0    -0.1    -0.7
    -0.9    -0.7    -0.3    -0.3    -1.1    -0.6     0.0    -0.7    -0.7    -1.0
    -1.1     0.0    -0.7    -0.9    -0.7    -0.7    -0.6    -1.1    -0.4    -0.4
    -0.6    -0.6    -0.7    -0.1    -0.9    -1.2    -0.6    -0.7    -0.7    -0.9
    -1.0    -0.6    -0.8    -0.6    -0.4    -0.7    -0.7    -0.5     0.1    -0.3
    -0.7     0.7    -0.0    -0.8    -0.1    -0.6    -1.4    -0.7     0.1    -1.0
    -1.1    -0.4    -0.8    -0.4    -0.8    -1.3    -0.5    -1.0    -1.0    -0.4
    -1.2    -1.2    -1.2    -0.8    -0.6    -0.6    -1.1    -1.4    -0.2    -0.7
    -0.7    -1.0    -1.3    -0.7    -0.7    -0.7    -0.9    -0.2    -0.8    -0.9
    -0.9    -1.6    -0.5    -0.7    -0.9    -0.6    -0.6    -1.3    -1.3    -0.9
    -1.1     0.1    -0.6    -1.0    -0.2    -0.9    -1.0    -0.9    -0.6    -0.6
    -0.8    -1.2    -0.8    -0.1    -0.5    -1.1    -1.2    -0.6    -0.7    -0.7
    -0.5    -1.0    -1.2    -1.0    -0.5    -0.5    -0.8    -1.3    -1.0    -0.8
    -0.3    -0.2    -0.3    -0.2    -1.4    -0.7    -0.1    -1.0    -0.7    -0.8
    -0.5     0.0    -1.1    -1.9    -1.6    -0.9    -0.6    -1.2    -0.8    -0.4
    -0.9    -0.7    -0.1    -0.8    -1.2    -0.7    -1.1    -1.2    -0.7    -0.7
    -0.6    -0.2    -0.6    -0.5    -0.3    -0.6    -0.8    -1.4    -1.1    -1.6
    -1.7    -1.0    -1.3    -1.0    -1.3    -1.0    -0.5    -1.3    -1.0    -0.6
    -0.9    -0.5    -1.0    -1.5    -0.9    -0.7    -0.4    -0.3    -1.1    -1.0
    -0.8    -1.2    -0.7    -0.2    -0.8    -0.9    -0.8    -0.9    -0.8    -0.8
    -0.5    -0.7    -1.2    -0.4    -1.3    -1.7    -0.6    -1.1    -0.8    -0.6
    -1.3    -1.1    -0.6    -0.2    -0.2    -0.7    -1.4    -1.0    -0.7    -0.8
    -0.4    -0.9    -0.8    -0.8    -0.3    -0.1    -1.1    -0.6    -0.4    -0.7
    -0.2    -0.2    -0.7    -0.7    -0.1    -0.3    -0.6    -0.5    -1.0    -1.5
    -1.0    -0.1    -0.1    -0.6    -1.0    -1.2    -0.2     0.0    -0.4    -0.6
    -1.0    -0.6    -0.7    -0.8    -0.9    -0.7    -0.5    -0.3    -0.2    -0.7
    -0.3    -0.2    -0.6    -0.8    -0.9    -0.9    -1.1    -0.6    -0.9    -0.8
    -0.6    -0.8    -0.8    -1.0    -0.7    -0.6    -0.4    -0.4    -0.9    -0.7
    -0.4    -1.0    -1.0    -0.6    -0.6    -0.9    -0.5    -0.3    -0.8    -0.2
    -0.1    -0.9    -0.7    -0.5    -0.0    -0.2    -0.7    -0.6    -0.6    -0.3
    -0.6    -0.5    -0.0    -0.8    -0.0    -0.3    -1.1    -0.1    -0.5    -0.6
    -0.1    -0.5    -0.9    -0.6    -0.4    -0.4    -0.6    -0.9    -0.7    -0.4
     0.1    -0.4     0.2     0.3    -1.2    -0.4     0.5    -0.1    -0.5    -0.6
    -0.2     0.2    -0.4    -1.1    -0.4    -0.1    -0.4    -0.6    -0.6    -0.7
    -0.9    -0.5    -0.7    -0.6    -0.2    -0.7    -0.4    -0.6    -1.0    -0.2
    -0.4    -0.9    -0.8    -0.9    -0.6    -0.5    -0.8    -1.0    -0.9    -0.1
    -0.2    -0.4    -0.4    -0.6    -0.8    -0.9    -1.2    -0.4    -0.2    -0.8
     0.1    -0.3    -0.1     0.4    -0.5     0.1    -0.8    -0.6     0.5    -0.6
    -0.3    -0.4    -1.0    -0.4    -0.2    -0.3    -0.9    -0.8     0.1     0.3
     0.4    -0.5    -1.0    -0.6    -0.6    -0.6    -0.5    -0.0    -0.2    -0.6
    -0.6    -0.9    -0.2    -0.0    -0.7    -0.4     0.4    -0.5    -1.2    -0.8
    -1.2    -0.3    -0.1    -1.0    -0.1    -0.0    -1.0    -0.6     0.3     0.5
    -0.2    -0.3    -0.5    -0.4     0.0    -0.9    -0.3    -0.1    -0.9    -0.2
    -1.0    -0.5     0.0    -0.8    -0.3    -0.6    -0.2     0.0    -0.5    -0.4
    -0.2    -0.2    -0.2     0.6    -0.0    -0.4    -0.3    -0.5     0.3     0.3
     0.3    -0.5    -1.0     0.2    -0.2    -0.4     0.3     0.1    -0.6    -0.7
    -0.2    -0.6    -0.5    -0.0    -0.5    -0.4    -0.6    -0.9    -0.1    -0.1
    -0.6    -0.4    -0.0    -0.4    -0.5    -0.2    -0.2    -0.0    -0.3    -0.6
    -0.6    -0.8    -0.3    -0.4    -0.8     0.2     0.1    -0.3    -0.7    -0.9
     0.1    -0.5    -1.2    -0.8    -0.4    -0.2    -0.5    -0.7    -1.3    -0.8
    -0.7    -0.6    -0.1    -0.9    -0.2     0.4     0.1    -0.3    -0.9    -0.2
    -0.5    -0.6    -0.1    -0.3    -0.7    -0.7    -0.1    -0.0    -0.5    -1.6
    -0.8     0.0    -0.3     0.0    -0.5    -0.5    -0.7    -1.2    -0.5    -0.3
     0.1     0.1    -0.3    -0.3    -0.3    -0.2    -0.2    -0.6    -1.2    -1.1
    -1.1    -0.2    -0.5    -0.4     0.4    -0.6    -0.6    -0.4    -0.3     0.1
    -0.2    -0.4    -0.0     0.1    -0.1    -0.3    -0.3    -0.2    -0.7    -0.1
    -0.1    -0.7    -0.7    -0.6    -0.1    -0.4     0.1    -0.3    -1.0     0.7
     0.9    -0.2    -0.1     0.2    -0.0    -0.8    -1.0     0.0     0.2    -0.0
     0.3    -0.7    -1.0    -0.3    -0.2    -0.1    -0.2    -0.2    -0.5    -0.6
     0.5     0.2    -0.6    -0.1    -0.3    -0.9    -0.5    -0.6    -0.1    -0.2
    -0.9    -0.2    -0.1    -0.4    -0.2    -1.0    -0.9    -0.3    -0.7    -0.7
    -0.6    -0.1    -0.1    -0.5    -0.5    -0.9    -0.9    -0.8    -0.5    -0.5
    -0.6    -0.5    -0.8     0.2    -0.2    -0.9    -0.3    -0.8    -0.5    -0.6
    -0.5    -0.3    -0.6     0.2    -0.4    -0.6    -0.3    -0.4    -0.3    -1.1
    -0.5    -0.4    -1.0    -0.4    -0.7    -0.4    -0.2    -0.2    -0.2    -0.5
    -0.5    -0.8    -0.4    -1.1    -0.8    -0.0    -0.3    -0.3    -1.2    -0.6
    -0.4    -0.6    -0.2    -0.6    -0.9    -0.9    -0.1    -0.2    -0.4    -0.2
    -1.5    -0.9    -0.5    -1.1    -0.0    -0.2    -0.4    -0.4    -0.8    -0.3
    -0.1    -0.8    -0.9     0.0    -0.9    -0.7    -0.2    -1.0     0.0    -0.2
    -0.3     0.1    -0.3    -0.1    -1.0    -0.9    -0.9    -1.0     0.2     0.0
    -0.2    -0.4    -0.4    -0.5    -0.4     0.2    -0.7    -1.4    -0.9    -1.0
    -0.7    -0.2    -0.9    -0.7     0.1    -0.8    -1.1    -0.2    -0.2    -0.4
    -0.7    -1.1    -0.1     0.2    -0.4    -0.5    -0.7    -1.1    -0.6    -0.7
