Uncorrected accelerogram 20161113_110256_NLMS_20 GNS Science
Site NLMS      41 15 59S  173 16 37E     Cusp file:  20161113_110323_NLMS
Nelson Nelmac
Instrument Cusp_42041
Resolution: 18-bit   Instr Period: 0.0050 s   Damping: 0.700
Accelerogram 20161113_110256_NLMS_20                 Processed 2016 December 09
5 km south-west of Waiau
2016 November 13         11:02:56 UT
Epicentre  42 41 33S 173 01 19E  Bearing S08W  Dist  160km  Depth   15km Mw 7.82
Number of points  41186    Duration 205.93 s
Raw readings in units of 1.00 mm/s/s  at intervals of 0.005 s
Data is unfiltered
Component S27W
Acceleration:  Peak  -1049.9 mm/s/s at 107.95 s     RMS   102.62 mm/s/s
Velocity record unevaluated
Displacement record unevaluated
    2016      11      13      11       2     560       0       0    2016      11
      42      41      33     173       1      19      15       0      13      11
      41      15      59     173      16      37     207     207     188     160
   41186       0       0   41186       0       0       0       0       2   43547
   200.0    0.70    0.00   0.000  0.0000   0.000   0.000   1.000     0.0    0.00
  41.267 173.277  42.693 173.022    7.82    0.00    0.00    0.00      0.      0.
  205.93    0.00    0.00  205.93  0.0050  0.0050      0.      0.      0.  9806.6
 -1049.9  107.95   102.6      0.      0.     0.0    0.00     0.0     0.0   0.000
    0.00    0.00    0.00    0.00   0.000    0.00    0.00    0.00    0.00   0.000
   0.000   0.000   0.000      0.      0.   0.000   0.000   0.000      0.      0.
     0.2     0.0    -0.1     0.0     0.0     0.0     0.0    -0.1    -0.0     0.1
     0.0    -0.1    -0.0     0.0     0.1    -0.0    -0.1     0.1     0.1    -0.1
     0.0     0.1    -0.1    -0.1     0.0     0.1     0.0     0.0     0.0     0.1
     0.0     0.0    -0.0    -0.0     0.1     0.0     0.0     0.1     0.0     0.1
     0.1     0.1     0.2     0.0    -0.0     0.1     0.0    -0.1    -0.0     0.0
     0.1     0.1     0.1     0.0    -0.1    -0.0    -0.0     0.1     0.2    -0.0
    -0.1     0.1     0.0    -0.0     0.1     0.0     0.0    -0.0    -0.0     0.2
     0.1    -0.1    -0.1     0.1     0.1    -0.0    -0.1    -0.0    -0.0    -0.0
    -0.0    -0.0     0.2     0.1    -0.0     0.1     0.1     0.1     0.1    -0.0
     0.0     0.1     0.0     0.0     0.0     0.1     0.0     0.1     0.1     0.0
     0.1     0.0     0.1     0.1    -0.1    -0.1    -0.0     0.0    -0.0     0.0
     0.1     0.0    -0.0    -0.0     0.0    -0.0     0.0     0.1     0.0     0.0
    -0.0     0.0     0.0    -0.1     0.0    -0.0    -0.0     0.0     0.0     0.1
    -0.0     0.1     0.0    -0.0     0.1     0.0     0.1     0.1    -0.1     0.0
     0.0    -0.1     0.0     0.0     0.0    -0.0    -0.1    -0.0    -0.0     0.0
     0.2     0.1     0.0    -0.1     0.0     0.1    -0.0    -0.1     0.0     0.1
     0.1    -0.0     0.0     0.1     0.0    -0.0    -0.0    -0.0    -0.0     0.0
     0.1     0.1     0.0    -0.1    -0.0    -0.0     0.0     0.1    -0.1    -0.0
     0.0     0.1     0.1     0.0     0.1    -0.0    -0.1     0.0    -0.0    -0.0
    -0.0     0.0     0.1     0.0    -0.0     0.0    -0.1    -0.1    -0.0     0.0
    -0.0    -0.0     0.1     0.1    -0.0     0.1     0.1     0.1     0.1    -0.1
    -0.0     0.1     0.1     0.0    -0.0     0.0     0.0    -0.0    -0.0     0.1
     0.1    -0.1     0.0     0.1    -0.1    -0.0     0.2     0.1     0.0     0.0
    -0.0     0.0     0.1     0.1    -0.0     0.1     0.1    -0.1    -0.1     0.0
     0.0     0.0     0.0     0.1     0.1     0.0    -0.0     0.1     0.1    -0.0
     0.1     0.1     0.1     0.1     0.1    -0.0    -0.0     0.0    -0.0     0.0
     0.0    -0.0     0.1     0.1    -0.0     0.2     0.0    -0.2     0.1     0.0
     0.0     0.2     0.1     0.0     0.0     0.0     0.1     0.0     0.0     0.0
     0.1     0.1    -0.0    -0.0     0.0     0.0    -0.0     0.1     0.0    -0.0
     0.0     0.0     0.2     0.1    -0.0     0.0     0.1     0.0    -0.1     0.0
     0.0     0.1     0.2    -0.0     0.0     0.1    -0.0     0.1     0.1     0.1
     0.1     0.1     0.1     0.1     0.0     0.1     0.0     0.1    -0.0    -0.1
     0.1     0.2     0.1     0.1     0.0     0.0    -0.0    -0.1     0.0     0.0
    -0.1     0.0     0.0    -0.2    -0.1     0.0     0.2     0.2    -0.1    -0.0
     0.0     0.1     0.0    -0.2    -0.0     0.1     0.1    -0.0     0.0     0.1
     0.0     0.1    -0.0     0.0     0.0     0.0     0.2     0.0     0.0    -0.0
    -0.1     0.1    -0.1    -0.1     0.0    -0.0     0.0     0.0    -0.0     0.0
    -0.1    -0.0     0.0     0.1     0.1    -0.0    -0.1    -0.1    -0.0    -0.1
    -0.1    -0.0    -0.2     0.0     0.0     0.0     0.1    -0.2    -0.0     0.1
    -0.1     0.1     0.1     0.0     0.0    -0.2    -0.1    -0.0    -0.1    -0.0
     0.0     0.1     0.1     0.0    -0.0     0.1     0.1     0.0     0.1     0.1
     0.1    -0.0    -0.1    -0.0     0.1     0.1     0.1     0.1    -0.0    -0.0
     0.1     0.0    -0.1    -0.1     0.1     0.1    -0.1    -0.1    -0.1    -0.0
     0.1    -0.1     0.0     0.0    -0.0    -0.1    -0.1    -0.0     0.1     0.0
    -0.1    -0.0     0.1    -0.1     0.0     0.1    -0.0     0.0     0.0     0.1
     0.2    -0.0    -0.0     0.0    -0.1     0.0     0.0    -0.1     0.0     0.0
     0.0    -0.0    -0.0    -0.1    -0.2     0.0    -0.0    -0.1    -0.1    -0.1
     0.1     0.1     0.0    -0.0    -0.0     0.1    -0.0    -0.1    -0.0    -0.1
    -0.1    -0.0     0.0     0.0     0.0    -0.1    -0.0     0.1     0.1    -0.1
    -0.0     0.1     0.0     0.1     0.1     0.0     0.0    -0.1     0.0     0.1
     0.0    -0.0    -0.1     0.0    -0.1    -0.1     0.1     0.1    -0.0    -0.1
    -0.0     0.0    -0.0    -0.1    -0.0    -0.1    -0.1    -0.0    -0.0    -0.1
    -0.1     0.0     0.0    -0.0    -0.0    -0.1    -0.1    -0.1    -0.1     0.0
     0.1     0.0    -0.1     0.0     0.0    -0.0    -0.1    -0.1     0.0     0.1
     0.1     0.0     0.0     0.1     0.1     0.0     0.1     0.1    -0.1     0.0
     0.2     0.2     0.1    -0.1     0.0     0.0     0.0     0.2    -0.0    -0.0
     0.1     0.0    -0.0    -0.0     0.0    -0.1    -0.0     0.1     0.0     0.1
     0.1     0.0     0.1     0.1    -0.1     0.1     0.1    -0.1    -0.1    -0.0
     0.0    -0.0    -0.0     0.1     0.0     0.0    -0.1    -0.0     0.1     0.0
    -0.1    -0.0     0.1     0.0     0.0     0.0     0.1     0.1    -0.1    -0.1
     0.0     0.0    -0.0     0.0     0.1    -0.1    -0.1     0.1     0.0    -0.1
     0.0    -0.0    -0.1     0.1     0.0    -0.1    -0.0     0.0     0.0    -0.1
    -0.1     0.0     0.0     0.1     0.0    -0.1    -0.1    -0.0     0.1     0.1
    -0.0    -0.1    -0.0    -0.1    -0.1     0.1     0.0     0.0     0.1    -0.0
     0.0     0.1     0.0     0.0     0.1     0.1     0.1    -0.0     0.0     0.0
    -0.0    -0.0     0.0    -0.0     0.0     0.1     0.1     0.0    -0.0     0.1
     0.0    -0.1     0.0    -0.1    -0.1    -0.0    -0.1    -0.1     0.1    -0.0
     0.0     0.0    -0.0     0.1     0.0     0.0     0.1     0.0     0.1     0.1
     0.0     0.0    -0.0     0.0    -0.1    -0.0     0.1    -0.1     0.0    -0.0
     0.0    -0.0    -0.1     0.0    -0.2    -0.2     0.1    -0.0     0.0     0.0
    -0.2     0.0     0.1    -0.0    -0.0     0.0     0.0    -0.0     0.0     0.1
     0.1     0.0     0.0     0.1     0.2     0.1     0.1     0.1    -0.0    -0.1
     0.1     0.0    -0.0    -0.0    -0.1     0.1     0.1    -0.0     0.0    -0.1
     0.0     0.0    -0.1     0.1    -0.0    -0.1     0.0    -0.0     0.0    -0.0
    -0.1    -0.0    -0.1    -0.2    -0.0     0.1    -0.0     0.0    -0.0    -0.0
     0.1     0.0    -0.0    -0.1     0.0    -0.0    -0.2    -0.1     0.0     0.1
     0.1    -0.1     0.0     0.1    -0.1    -0.1     0.1     0.1     0.1     0.0
     0.1     0.1    -0.0    -0.0     0.1     0.0    -0.1    -0.1     0.0     0.0
     0.0     0.1     0.0    -0.1    -0.1     0.0    -0.0     0.0     0.0     0.0
     0.1     0.0    -0.0    -0.0    -0.0     0.0     0.1     0.1    -0.0    -0.0
    -0.0    -0.1     0.1     0.1     0.0    -0.0     0.0     0.2     0.0     0.0
     0.1    -0.1    -0.0     0.0    -0.0     0.1    -0.0    -0.1     0.2     0.2
    -0.1    -0.1     0.0     0.1    -0.0    -0.0     0.1     0.1     0.0     0.1
     0.0     0.0    -0.0     0.0     0.2     0.1     0.0     0.0     0.0    -0.0
    -0.1    -0.0     0.0     0.1     0.1    -0.0    -0.1     0.1     0.1     0.0
     0.1     0.1     0.1     0.0    -0.1     0.1     0.1    -0.1     0.1     0.0
     0.0     0.0    -0.1    -0.0    -0.0    -0.0    -0.0    -0.1     0.0    -0.1
     0.0     0.2     0.0     0.1     0.1    -0.1     0.0     0.1     0.1     0.0
     0.1     0.0    -0.1     0.1     0.1    -0.0    -0.0    -0.0     0.1     0.0
    -0.1     0.0    -0.0    -0.0    -0.1    -0.0     0.0    -0.1    -0.0     0.0
     0.0     0.1     0.0     0.0     0.0    -0.1     0.1     0.2     0.0     0.1
    -0.0     0.0     0.1    -0.1     0.0     0.0    -0.0     0.1    -0.0     0.1
     0.0     0.0     0.0    -0.1     0.0     0.0    -0.1     0.1     0.0    -0.0
    -0.1    -0.2     0.0     0.1    -0.1    -0.0     0.0    -0.1     0.1     0.1
     0.0     0.1    -0.1    -0.1     0.0     0.0    -0.0     0.0    -0.0     0.0
    -0.1    -0.2     0.0     0.0    -0.1    -0.0     0.0     0.0    -0.0     0.0
     0.1    -0.0    -0.0     0.0     0.0    -0.0    -0.0     0.1     0.0     0.1
    -0.1     0.0     0.1     0.1     0.1    -0.1    -0.1     0.1     0.0    -0.1
     0.1     0.1     0.0    -0.0    -0.1     0.0     0.1    -0.0     0.0     0.1
     0.0    -0.0    -0.1     0.0    -0.1    -0.2     0.0     0.1     0.0    -0.0
     0.0     0.2    -0.1    -0.1     0.1     0.1     0.0    -0.1     0.0     0.0
    -0.1    -0.0    -0.0    -0.0     0.1     0.0    -0.1     0.0    -0.1    -0.1
     0.1    -0.1    -0.1    -0.1    -0.2    -0.1    -0.0     0.0     0.1    -0.0
     0.0    -0.0    -0.0     0.1    -0.0    -0.0    -0.0    -0.1    -0.0    -0.1
    -0.0     0.1     0.0    -0.1     0.0     0.0    -0.1    -0.0     0.1    -0.0
     0.0     0.1     0.0    -0.0    -0.0     0.0    -0.0     0.0     0.0     0.0
    -0.0    -0.1    -0.0    -0.1    -0.1    -0.0    -0.1    -0.1    -0.1    -0.0
    -0.0    -0.0     0.1    -0.0    -0.0    -0.0     0.0     0.1     0.0    -0.1
    -0.1    -0.0    -0.0    -0.0    -0.1     0.0     0.1    -0.2    -0.2     0.0
    -0.0     0.0     0.1    -0.0     0.1     0.1    -0.1    -0.0    -0.1    -0.1
     0.0    -0.1     0.0    -0.0    -0.1     0.0     0.0    -0.1    -0.1     0.0
     0.2     0.1    -0.1    -0.1    -0.0    -0.1     0.0     0.0    -0.0     0.1
     0.1    -0.1    -0.0     0.1    -0.0    -0.1     0.1     0.0     0.0     0.1
    -0.0    -0.0    -0.0    -0.0    -0.1    -0.2    -0.1    -0.1     0.0     0.0
     0.0     0.0     0.0     0.0    -0.0    -0.0     0.0    -0.0     0.1     0.1
    -0.1    -0.0     0.0    -0.1    -0.1    -0.0     0.1     0.0     0.0     0.1
    -0.0     0.0     0.0    -0.1    -0.1     0.0    -0.0     0.0     0.0    -0.1
    -0.1     0.0     0.0    -0.1     0.0     0.1    -0.0    -0.0    -0.1    -0.1
    -0.0    -0.2    -0.1     0.0     0.0     0.1     0.0    -0.0    -0.0    -0.0
     0.0    -0.0    -0.0     0.1    -0.1    -0.1     0.1     0.0    -0.1     0.0
    -0.0    -0.1     0.0     0.0    -0.0     0.0     0.1     0.0    -0.0     0.0
    -0.0    -0.0    -0.0    -0.1     0.1     0.1    -0.0    -0.1    -0.1    -0.0
     0.1     0.0    -0.1    -0.0     0.0    -0.0    -0.0    -0.0     0.0     0.0
    -0.0    -0.1    -0.0    -0.0    -0.0     0.0    -0.1     0.0    -0.0    -0.0
     0.1    -0.1    -0.1     0.1     0.1     0.1    -0.0     0.1     0.1    -0.0
     0.0    -0.0     0.0     0.1    -0.1    -0.1     0.0     0.0    -0.1    -0.0
     0.1    -0.1    -0.1    -0.0    -0.1    -0.1     0.0     0.1    -0.0    -0.0
     0.1     0.0    -0.0     0.1     0.1     0.0    -0.0    -0.1     0.0     0.0
     0.1     0.1     0.0    -0.0     0.0     0.1    -0.0     0.0     0.1    -0.0
     0.0     0.0    -0.1    -0.0     0.1     0.1     0.1    -0.0    -0.0     0.0
    -0.1    -0.0     0.1     0.1     0.1     0.0     0.0    -0.0     0.1     0.0
    -0.2     0.1     0.1     0.0     0.1     0.0     0.1     0.1    -0.0     0.0
     0.0     0.1     0.1    -0.0     0.0     0.1     0.0     0.0     0.1     0.1
    -0.1     0.0     0.1     0.0     0.1    -0.1    -0.1     0.1    -0.1     0.0
     0.1     0.1     0.1     0.1     0.2     0.1     0.0     0.0     0.0     0.1
     0.0     0.0    -0.0    -0.0    -0.0    -0.1    -0.0    -0.0     0.0    -0.1
     0.0     0.2    -0.0    -0.1    -0.1    -0.1     0.0     0.0     0.1     0.0
     0.0     0.0    -0.0     0.0     0.0    -0.1    -0.0     0.0     0.0     0.1
     0.1     0.0     0.1     0.0    -0.1    -0.0     0.0    -0.0    -0.1     0.0
    -0.0    -0.2    -0.1    -0.1     0.0     0.0    -0.1     0.0     0.0    -0.1
    -0.0     0.1     0.0    -0.0    -0.1    -0.1    -0.0    -0.0    -0.2     0.0
     0.1    -0.1    -0.1     0.1     0.1    -0.1     0.1     0.1    -0.0     0.1
    -0.0    -0.1     0.2     0.2     0.0    -0.1    -0.0     0.0    -0.0     0.1
     0.0    -0.1    -0.0     0.0    -0.1    -0.1     0.1     0.0     0.0     0.2
    -0.1     0.0     0.2     0.1     0.2     0.1     0.0    -0.1    -0.2    -0.1
     0.1     0.1     0.0    -0.1     0.0     0.0     0.0    -0.0    -0.1     0.0
     0.1    -0.0     0.0    -0.0    -0.0    -0.0    -0.1     0.1     0.1     0.0
     0.0     0.0    -0.1    -0.0     0.1     0.1    -0.0     0.0     0.0     0.1
     0.1    -0.0     0.0     0.1     0.0     0.0    -0.0     0.0     0.1    -0.1
     0.1     0.1    -0.2     0.0     0.2     0.1     0.0     0.0    -0.0     0.0
     0.1    -0.1    -0.1     0.0    -0.1    -0.0     0.0     0.0     0.0    -0.0
    -0.0    -0.1     0.0     0.1     0.0     0.1     0.0    -0.1    -0.0    -0.1
    -0.1    -0.1    -0.1     0.0     0.1    -0.1    -0.1     0.1     0.1     0.1
     0.0    -0.0     0.1     0.1     0.0     0.0     0.0    -0.1    -0.1    -0.1
    -0.1     0.1     0.0    -0.1     0.1    -0.1    -0.0     0.1     0.0    -0.1
    -0.2    -0.1     0.0     0.0     0.1     0.1    -0.1     0.1     0.0    -0.0
     0.1     0.0    -0.0    -0.0     0.0     0.1    -0.0     0.1     0.2     0.0
     0.0     0.1     0.0    -0.1    -0.1     0.0     0.1     0.0    -0.0     0.1
     0.0    -0.1    -0.0     0.1     0.0    -0.1    -0.0    -0.1    -0.1    -0.0
    -0.0    -0.0    -0.1    -0.1    -0.1    -0.1    -0.0     0.1    -0.1    -0.1
     0.0    -0.0    -0.0    -0.0    -0.1     0.0    -0.0    -0.0     0.1    -0.0
    -0.1    -0.1     0.0     0.1    -0.0    -0.2     0.1     0.1    -0.1    -0.0
    -0.1    -0.1    -0.1     0.0     0.2    -0.0    -0.1    -0.0     0.1     0.1
    -0.1    -0.1     0.1     0.0    -0.0     0.1     0.0    -0.1    -0.1    -0.2
    -0.1     0.0    -0.1    -0.1     0.0     0.0    -0.0    -0.0    -0.1    -0.1
    -0.0    -0.1    -0.1    -0.0    -0.1    -0.1    -0.1    -0.0     0.0    -0.0
    -0.1    -0.1     0.0    -0.0    -0.1     0.0     0.0    -0.0     0.0    -0.0
    -0.0    -0.0    -0.0    -0.0     0.1    -0.0    -0.1     0.1     0.1    -0.1
    -0.0    -0.1     0.0     0.0     0.0    -0.0    -0.1    -0.1    -0.1     0.1
     0.1    -0.1    -0.1    -0.0    -0.0    -0.1    -0.1     0.0     0.1    -0.0
     0.0     0.0     0.1     0.0    -0.1    -0.1    -0.1    -0.0     0.1    -0.0
     0.0     0.0     0.0     0.1     0.0    -0.1    -0.2    -0.1    -0.0    -0.0
     0.1    -0.0     0.0     0.0    -0.1     0.0     0.1     0.0     0.0    -0.1
    -0.1    -0.2    -0.2     0.0     0.1    -0.0    -0.1    -0.1     0.1     0.0
    -0.1    -0.1     0.0    -0.1    -0.1     0.1     0.0     0.1     0.0    -0.0
     0.1    -0.0    -0.0    -0.0    -0.0    -0.0    -0.0     0.0     0.0    -0.0
    -0.0     0.0    -0.0    -0.1    -0.1    -0.1     0.1     0.0    -0.0    -0.1
    -0.0    -0.0    -0.2    -0.0     0.1     0.0    -0.1    -0.1     0.1    -0.0
    -0.1     0.0     0.0    -0.0     0.0    -0.1    -0.1    -0.0    -0.1    -0.1
    -0.1     0.0    -0.0    -0.0     0.0     0.0     0.1     0.1     0.0     0.1
     0.1     0.0    -0.1     0.1     0.2    -0.1    -0.0    -0.0    -0.1     0.2
     0.1    -0.0    -0.0    -0.1    -0.0    -0.0    -0.1    -0.1     0.0    -0.1
    -0.1    -0.0    -0.1    -0.0     0.1    -0.0    -0.1     0.1     0.0    -0.0
     0.1     0.1    -0.0    -0.2     0.0     0.1    -0.1     0.0    -0.0     0.0
     0.0    -0.1     0.0    -0.1    -0.1     0.1    -0.0    -0.1     0.1     0.1
    -0.0    -0.0    -0.0    -0.0     0.0     0.1     0.1    -0.1    -0.0     0.2
    -0.0    -0.1    -0.0    -0.1     0.0     0.1    -0.0     0.0    -0.0    -0.0
     0.1     0.0     0.1    -0.0    -0.1     0.0     0.1     0.1    -0.1    -0.0
     0.1     0.0     0.1    -0.1    -0.0     0.0    -0.1     0.1     0.0     0.1
     0.0    -0.1     0.1     0.1    -0.1     0.0     0.1     0.0    -0.1     0.0
     0.1     0.0     0.0     0.0     0.1    -0.0    -0.1     0.0     0.1     0.1
    -0.0    -0.1    -0.0    -0.0    -0.1    -0.1    -0.0     0.2     0.1     0.0
     0.2     0.1     0.1    -0.0    -0.0     0.0    -0.0     0.1     0.1    -0.0
     0.0    -0.0     0.0     0.1     0.0     0.1     0.1     0.1     0.0     0.0
     0.1     0.0     0.1     0.0    -0.0     0.0    -0.1     0.1     0.2    -0.1
     0.0     0.1     0.0     0.0    -0.0    -0.0     0.2     0.1    -0.1     0.1
     0.1     0.0     0.0    -0.1    -0.0    -0.0     0.0     0.1     0.0     0.0
     0.1     0.0    -0.0    -0.0    -0.1     0.1     0.0     0.1     0.2     0.0
     0.1     0.1    -0.0     0.1     0.0     0.1     0.2     0.0     0.1     0.1
    -0.1     0.1     0.0     0.0     0.2    -0.1     0.1     0.1    -0.0     0.0
     0.0     0.1     0.1     0.1     0.1     0.0     0.1     0.2    -0.1    -0.0
    -0.0    -0.1     0.1     0.1     0.0    -0.0     0.1     0.1    -0.0     0.0
     0.0     0.0     0.0     0.0     0.3     0.2     0.0    -0.0     0.0     0.1
     0.0     0.0     0.0     0.1     0.1    -0.1     0.0     0.2     0.0     0.1
     0.1     0.1     0.0    -0.1     0.1     0.1     0.1     0.2     0.1     0.0
     0.1     0.1     0.0    -0.0     0.1     0.1     0.0     0.0     0.1     0.1
     0.1     0.1    -0.0    -0.1    -0.1     0.0     0.1    -0.0    -0.0     0.1
     0.1     0.1     0.1     0.0     0.0     0.0     0.0     0.1     0.1     0.1
    -0.0    -0.0    -0.0    -0.0    -0.1     0.1     0.1     0.0     0.0    -0.0
     0.1     0.1    -0.0     0.1     0.0     0.1     0.1     0.0     0.2     0.0
    -0.0     0.1     0.1     0.1     0.0     0.0    -0.0    -0.1    -0.1    -0.0
     0.0     0.0     0.0     0.0     0.0     0.1     0.0    -0.1    -0.1    -0.1
     0.0     0.1     0.1     0.2     0.0     0.0     0.1    -0.0     0.1     0.1
    -0.0     0.0    -0.0     0.1     0.1     0.1     0.1    -0.1     0.0     0.0
    -0.0     0.0     0.0     0.0     0.1    -0.0    -0.1     0.0     0.1     0.0
     0.1     0.1     0.0     0.1     0.1     0.1     0.2     0.1     0.1     0.0
    -0.1    -0.0    -0.0    -0.1    -0.0    -0.0     0.0    -0.1     0.1     0.2
    -0.1     0.1     0.2    -0.0     0.1     0.1     0.0     0.0    -0.1     0.1
     0.2     0.0     0.0     0.1     0.0     0.1     0.1     0.1     0.1     0.1
     0.0     0.0     0.1     0.1     0.0     0.0     0.1     0.0    -0.1     0.0
     0.1     0.1     0.1     0.0     0.1     0.1     0.0     0.0     0.1     0.0
    -0.0    -0.0    -0.0     0.1     0.0     0.0     0.1     0.2     0.1    -0.1
     0.1     0.1     0.0     0.2     0.1     0.0     0.0     0.0     0.1     0.1
     0.0     0.0     0.0     0.0     0.1     0.1     0.0    -0.1     0.0     0.1
     0.1     0.1     0.1     0.1     0.0     0.0    -0.0    -0.0     0.0     0.0
    -0.1    -0.0     0.0     0.1     0.1     0.1     0.0     0.1    -0.0     0.0
     0.1    -0.1     0.1    -0.0    -0.1     0.2    -0.0    -0.0     0.1    -0.1
