Uncorrected accelerogram 20161113_110256_WAKC_20 GNS Science
Site WAKC      42 57 47S  172 42 19E     Basalt file:  20161113_110305_WAKC
Waikari
Instrument Basalt_613
Resolution: 24-bit   Instr Period: 0.0050 s   Damping: 0.700
Accelerogram 20161113_110256_WAKC_20                 Processed 2016 December 09
5 km south-west of Waiau
2016 November 13         11:02:56 UT
Epicentre  42 41 33S 173 01 19E  Bearing N41E  Dist   40km  Depth   15km Mw 7.82
Number of points  65536    Duration 327.68 s
Raw readings in units of 1.00 mm/s/s  at intervals of 0.005 s
Data is unfiltered
Component S14E
Acceleration:  Peak   1459.9 mm/s/s at  52.62 s     RMS   155.58 mm/s/s
Velocity record unevaluated
Displacement record unevaluated
    2016      11      13      11       2     560       0       0    2016      11
      42      41      33     173       1      19      15       0      13      11
      42      57      47     172      42      19     166     166      41      40
   65536       0       0   65536       0       0       0       0       2   25000
   200.0    0.70    0.00   0.000  0.0000   0.000   0.000   1.000     0.0    0.00
  42.963 172.705  42.693 173.022    7.82    0.00    0.00    0.00      0.      0.
  327.68    0.00    0.00  327.68  0.0050  0.0050      0.      0.      0.  9806.6
  1459.9   52.62   155.6      0.      0.     0.0    0.00     0.0     0.0   0.000
    0.00    0.00    0.00    0.00   0.000    0.00    0.00    0.00    0.00   0.000
   0.000   0.000   0.000      0.      0.   0.000   0.000   0.000      0.      0.
     0.1     0.1     0.0     0.1     0.1     0.1     0.1     0.1     0.1     0.1
     0.1     0.1     0.1     0.1     0.1     0.1     0.1     0.1     0.1     0.1
     0.1     0.1     0.1     0.1     0.1     0.1     0.1     0.1     0.1     0.1
     0.1     0.1     0.1     0.1     0.1     0.1     0.1     0.1     0.1     0.1
     0.1     0.1     0.1     0.1     0.0     0.1     0.1     0.1     0.1     0.1
     0.1     0.1     0.1     0.1     0.1     0.1     0.1     0.2     0.1     0.1
     0.1     0.1     0.1     0.1     0.1     0.1     0.1     0.1     0.1     0.1
     0.1     0.1     0.1     0.1     0.1     0.1     0.1     0.1     0.1     0.1
     0.1     0.1     0.1     0.1     0.1     0.1     0.1     0.1     0.1     0.1
     0.1     0.1     0.1     0.1     0.1     0.1     0.1     0.1     0.1     0.1
     0.1     0.1     0.2     0.1     0.2     0.1     0.1     0.1     0.1     0.1
     0.1     0.1     0.2     0.1     0.1     0.1     0.1     0.1     0.1     0.1
     0.1     0.1     0.1     0.1     0.1     0.1     0.1     0.1     0.1     0.1
     0.1     0.1     0.1     0.1     0.1     0.1     0.1     0.1     0.1     0.1
     0.1     0.1     0.1     0.1     0.1     0.1     0.1     0.1     0.1     0.1
     0.1     0.2     0.1     0.1     0.1     0.1     0.1     0.1     0.1     0.1
     0.1     0.1     0.1     0.2     0.1     0.1     0.2     0.1     0.2     0.1
     0.2     0.1     0.1     0.2     0.1     0.1     0.1     0.1     0.1     0.1
     0.1     0.1     0.1     0.1     0.1     0.1     0.1     0.1     0.1     0.1
     0.1     0.1     0.1     0.1     0.1     0.1     0.1     0.1     0.1     0.1
     0.1     0.1     0.1     0.1     0.1     0.1     0.1     0.1     0.1     0.1
     0.1     0.1     0.1     0.1     0.1     0.1     0.1     0.1     0.1     0.1
     0.1     0.1     0.1     0.0     0.1     0.1     0.1     0.1     0.1     0.1
     0.1     0.1     0.1     0.1     0.1     0.1     0.1     0.1     0.1     0.1
     0.1     0.1     0.1     0.1     0.1     0.1     0.1     0.1     0.1     0.1
     0.1     0.1     0.1     0.1     0.1     0.2     0.1     0.1     0.1     0.1
     0.1     0.1     0.1     0.1     0.1     0.1     0.1     0.1     0.1     0.1
     0.2     0.1     0.1     0.2     0.1     0.2     0.1     0.1     0.2     0.1
     0.1     0.1     0.1     0.1     0.1     0.1     0.1     0.1     0.1     0.1
     0.1     0.1     0.1     0.1     0.1     0.1     0.0     0.1     0.1     0.1
     0.1     0.1     0.1     0.1     0.1     0.1     0.1     0.1     0.1     0.1
     0.2     0.1     0.1     0.2     0.1     0.2     0.1     0.1     0.2     0.1
     0.1     0.1     0.1     0.1     0.1     0.1     0.1     0.1     0.1     0.1
     0.1     0.1     0.1     0.1     0.1     0.1     0.1     0.1     0.1     0.1
     0.1     0.1     0.1     0.1     0.1     0.1     0.1     0.1     0.1     0.1
     0.1     0.1     0.1     0.1     0.1     0.1     0.1     0.1     0.1     0.1
     0.2     0.1     0.1     0.1     0.1     0.1     0.1     0.1     0.1     0.1
     0.1     0.1     0.1     0.1     0.1     0.1     0.1     0.1     0.1     0.2
     0.2     0.1     0.2     0.1     0.1     0.1     0.1     0.1     0.1     0.1
     0.1     0.1     0.1     0.1     0.1     0.1     0.1     0.1     0.1     0.1
     0.1     0.1     0.2     0.1     0.1     0.1     0.1     0.1     0.1     0.1
     0.1     0.1     0.1     0.1     0.2     0.1     0.1     0.1     0.1     0.1
     0.1     0.1     0.1     0.1     0.1     0.1     0.1     0.1     0.1     0.1
     0.1     0.1     0.1     0.1     0.1     0.1     0.1     0.1     0.1     0.1
     0.1     0.1     0.1     0.1     0.1     0.1     0.1     0.1     0.1     0.1
     0.1     0.1     0.1     0.1     0.1     0.1     0.1     0.1     0.1     0.1
     0.1     0.1     0.2     0.1     0.1     0.1     0.1     0.1     0.1     0.1
     0.1     0.1     0.1     0.1     0.1     0.1     0.1     0.1     0.1     0.1
     0.1     0.1     0.1     0.1     0.1     0.1     0.1     0.1     0.1     0.1
     0.1     0.1     0.1     0.1     0.1     0.2     0.1     0.1     0.1     0.1
     0.1     0.1     0.1     0.1     0.1     0.1     0.1     0.1     0.1     0.1
     0.1     0.1     0.1     0.1     0.1     0.2     0.1     0.1     0.1     0.1
     0.1     0.1     0.1     0.1     0.1     0.1     0.1     0.1     0.1     0.1
     0.1     0.1     0.1     0.1     0.1     0.1     0.2     0.1     0.1     0.2
     0.1     0.1     0.1     0.1     0.1     0.1     0.1     0.1     0.1     0.1
     0.1     0.1     0.1     0.1     0.1     0.1     0.1     0.1     0.1     0.1
     0.1     0.1     0.0     0.1     0.1     0.1     0.1     0.1     0.1     0.1
     0.1     0.1     0.1     0.1     0.2     0.1     0.1     0.1     0.1     0.1
     0.1     0.2     0.1     0.2     0.1     0.1     0.2     0.1     0.1     0.1
     0.1     0.1     0.1     0.1     0.1     0.1     0.1     0.1     0.1     0.1
     0.1     0.1     0.1     0.1     0.1     0.1     0.1     0.2     0.1     0.1
     0.1     0.1     0.2     0.1     0.1     0.1     0.1     0.1     0.1     0.2
     0.1     0.1     0.1     0.1     0.1     0.1     0.1     0.1     0.1     0.1
     0.1     0.1     0.1     0.1     0.1     0.1     0.1     0.1     0.1     0.1
     0.1     0.1     0.1     0.1     0.1     0.1     0.1     0.1     0.1     0.1
     0.1     0.1     0.1     0.1     0.1     0.1     0.1     0.1     0.1     0.1
     0.1     0.1     0.1     0.0     0.1     0.1     0.1     0.1     0.1     0.1
     0.1     0.1     0.1     0.1     0.1     0.1     0.1     0.1     0.1     0.1
     0.1     0.1     0.1     0.1     0.1     0.1     0.1     0.1     0.1     0.1
     0.2     0.1     0.1     0.1     0.1     0.1     0.1     0.1     0.1     0.1
     0.1     0.1     0.1     0.1     0.1     0.0     0.1     0.1     0.0     0.1
     0.1     0.1     0.1     0.1     0.2     0.2     0.1     0.1     0.1     0.0
     0.1     0.1     0.0     0.1     0.1     0.1     0.1     0.1     0.1     0.1
     0.2     0.1     0.1     0.2     0.1     0.2     0.1     0.1     0.1     0.0
     0.1     0.1     0.1     0.1     0.1     0.1     0.1     0.1     0.1     0.1
     0.1     0.1     0.1     0.1     0.1     0.1     0.1     0.2     0.1     0.1
     0.2     0.1     0.1     0.1     0.1     0.1     0.1     0.1     0.1     0.1
     0.1     0.1     0.1     0.1     0.1     0.1     0.1     0.1     0.1     0.1
     0.1     0.1     0.1     0.1     0.1     0.1     0.1     0.1     0.1     0.1
     0.1     0.1     0.2     0.1     0.1     0.1     0.1     0.1     0.1     0.0
     0.1     0.1     0.1     0.1     0.1     0.1     0.1     0.1     0.1     0.1
     0.1     0.1     0.1     0.1     0.2     0.1     0.2     0.1     0.1     0.1
     0.1     0.1     0.0     0.1     0.1     0.1     0.1     0.1     0.2     0.2
     0.1     0.2     0.2     0.2     0.2     0.1     0.1     0.1     0.2     0.1
     0.0     0.0     0.0     0.1     0.0    -0.0     0.1     0.1     0.1     0.1
     0.1     0.1     0.1     0.1     0.1     0.1     0.1     0.2     0.1     0.1
     0.2     0.2     0.2     0.1     0.1     0.1     0.1     0.1     0.1     0.1
     0.1     0.1     0.1     0.1     0.1     0.1     0.1     0.1     0.1     0.0
     0.1     0.1     0.1     0.1     0.1     0.1     0.2     0.2     0.1     0.1
     0.1     0.1     0.1     0.1     0.1     0.1     0.1     0.1     0.1     0.1
     0.1     0.1     0.1     0.1     0.1     0.1     0.1     0.1     0.1     0.2
     0.1     0.1     0.1     0.1     0.1     0.1     0.1     0.1     0.1     0.1
     0.1     0.1     0.1     0.1     0.1     0.1     0.1     0.1     0.1     0.1
     0.1     0.1     0.1     0.1     0.1     0.1     0.1     0.1     0.1     0.1
     0.1     0.1     0.1     0.2     0.2     0.1     0.2     0.1     0.2     0.1
     0.1     0.1     0.1     0.1     0.1     0.1     0.1     0.1     0.1     0.1
     0.1     0.1     0.1     0.1     0.1     0.1     0.1     0.1     0.1     0.1
     0.1     0.1     0.1     0.1     0.1     0.1     0.1     0.1     0.1     0.1
     0.1     0.1     0.1     0.1     0.1     0.1     0.1     0.0     0.1     0.1
     0.1     0.1     0.1     0.1     0.1     0.1     0.1     0.1     0.1     0.1
     0.2     0.1     0.1     0.2     0.1     0.1     0.1     0.1     0.1     0.1
     0.0     0.1     0.1     0.1     0.1     0.1     0.1     0.1     0.1     0.1
     0.1     0.1     0.1     0.1     0.1     0.1     0.1     0.1     0.1     0.1
     0.0     0.1     0.1     0.1     0.1     0.1     0.1     0.1     0.2     0.1
     0.1     0.2     0.1     0.1     0.1     0.1     0.1     0.0     0.1     0.1
     0.1     0.2     0.1     0.1     0.2     0.1     0.1     0.1     0.1     0.1
     0.1     0.1     0.1     0.1     0.1     0.1     0.1     0.1     0.1     0.0
     0.1     0.1     0.1     0.1     0.1     0.1     0.1     0.2     0.1     0.1
     0.1     0.1     0.1     0.1     0.1     0.1     0.1     0.1     0.0     0.1
     0.1     0.1     0.1     0.1     0.1     0.1     0.1     0.1     0.1     0.1
     0.1     0.1     0.1     0.1     0.1     0.1     0.2     0.1     0.1     0.2
     0.1     0.2     0.1     0.1     0.1     0.1     0.1     0.1     0.1     0.1
     0.1     0.1     0.1     0.1     0.1     0.1     0.1     0.1     0.1     0.1
     0.1     0.1     0.1     0.1     0.1     0.1     0.1     0.1     0.1     0.1
     0.1     0.2     0.1     0.1     0.1     0.1     0.2     0.1     0.1     0.1
     0.1     0.2     0.1     0.1     0.1     0.1     0.1     0.1     0.1     0.0
     0.1     0.1     0.1     0.2     0.1     0.2     0.1     0.1     0.1     0.1
     0.1     0.1     0.1     0.1     0.1     0.1     0.1     0.1     0.1     0.1
     0.1     0.2     0.2     0.1     0.1     0.1     0.1     0.1     0.1     0.1
     0.1     0.2     0.1     0.1     0.1     0.1     0.1     0.1     0.1     0.1
     0.1     0.1     0.1     0.1     0.1     0.1     0.1     0.1     0.1     0.1
     0.1     0.2     0.1     0.1     0.1     0.2     0.1     0.1     0.1     0.1
     0.1     0.1     0.1     0.1     0.1     0.1     0.1     0.1     0.1     0.1
     0.1     0.1     0.1     0.0     0.0     0.1     0.1     0.1     0.1     0.2
     0.1     0.1     0.2     0.1     0.1     0.2     0.1     0.1     0.2     0.2
     0.2     0.1     0.1     0.1     0.1     0.1     0.1     0.1     0.1     0.1
     0.1     0.1     0.1     0.1     0.1     0.1     0.1     0.1     0.1     0.1
     0.2     0.1     0.1     0.1     0.1     0.1     0.1     0.2     0.1     0.1
     0.2     0.1     0.2     0.1     0.1     0.1     0.1     0.1     0.1     0.1
     0.1     0.1     0.1     0.1     0.1     0.1     0.1     0.1     0.1     0.1
     0.1     0.1     0.1     0.1     0.1     0.2     0.1     0.1     0.1     0.1
     0.1     0.0     0.1     0.0     0.1     0.2     0.1     0.1     0.2     0.1
     0.2     0.1     0.1     0.1     0.1     0.1     0.1     0.1     0.1     0.1
     0.1     0.1     0.1     0.1     0.1     0.0     0.1     0.1     0.1     0.1
     0.1     0.2     0.2     0.1     0.1     0.1     0.1     0.1     0.1     0.1
     0.1     0.1     0.1     0.1     0.1     0.1     0.1     0.1     0.1     0.0
     0.1     0.1     0.1     0.2     0.2     0.2     0.2     0.1     0.1     0.1
     0.1     0.0    -0.0    -0.0    -0.0     0.1     0.1     0.1     0.2     0.2
     0.2     0.2     0.2     0.2     0.1     0.1     0.1     0.1     0.1     0.0
     0.1     0.1     0.0     0.1     0.0     0.1     0.1     0.1     0.1     0.1
     0.2     0.2     0.2     0.2     0.1     0.1     0.1     0.0     0.1     0.1
     0.1     0.1     0.1     0.2     0.1     0.1     0.1    -0.0     0.0     0.0
     0.0     0.1     0.1     0.2     0.2     0.2     0.3     0.2     0.2     0.2
     0.1     0.1     0.1     0.0     0.1     0.1     0.1     0.1     0.1     0.1
     0.1     0.1     0.1     0.1     0.1     0.1     0.1     0.1     0.2     0.1
     0.1     0.2     0.2     0.1     0.1     0.1     0.1     0.1     0.1     0.1
     0.1     0.1     0.1     0.1     0.1     0.0     0.1     0.1     0.1     0.2
     0.1     0.1     0.1     0.1     0.1     0.1     0.1     0.1     0.1     0.1
     0.1     0.1     0.1     0.1     0.1     0.1     0.1     0.1     0.1     0.1
     0.1     0.1     0.2     0.1     0.2     0.2     0.1     0.2     0.1     0.1
     0.2     0.1     0.1     0.1     0.1     0.0     0.1     0.1     0.1     0.1
     0.1     0.1     0.1     0.1     0.1     0.1     0.1     0.2     0.2     0.2
     0.2     0.2     0.1     0.1     0.1     0.1     0.0     0.1     0.1     0.0
     0.1     0.0     0.0     0.1     0.1     0.1     0.1     0.1     0.2     0.2
     0.2     0.2     0.2     0.1     0.2     0.1     0.1     0.1     0.1     0.1
     0.1     0.1     0.1     0.1     0.1     0.2     0.1     0.1     0.1     0.1
     0.1     0.1     0.1     0.1     0.1     0.2     0.1     0.1     0.1     0.2
     0.1     0.1     0.1     0.1     0.1     0.1     0.1     0.1     0.1     0.1
     0.1     0.1     0.1     0.1     0.1     0.1     0.2     0.1     0.1     0.1
     0.2     0.1     0.1     0.1     0.1     0.1     0.1     0.1     0.1     0.1
     0.1     0.1     0.0     0.1     0.1     0.1     0.1     0.1     0.2     0.2
     0.2     0.1     0.1     0.1     0.1     0.1     0.1     0.1     0.1     0.0
     0.1     0.1     0.1     0.1     0.1     0.1     0.1     0.1     0.2     0.1
     0.1     0.2     0.1     0.1     0.1     0.2     0.1     0.1     0.1     0.1
     0.1     0.1     0.1     0.1     0.1     0.1     0.1     0.1     0.0     0.1
     0.1     0.1     0.1     0.1     0.1     0.1     0.2     0.1     0.2     0.2
     0.1     0.1     0.1     0.1     0.1     0.1     0.1     0.1     0.1     0.1
     0.0     0.1     0.1     0.1     0.1     0.1     0.2     0.1     0.2     0.2
     0.1     0.2     0.1     0.1     0.1     0.1     0.1     0.0     0.1     0.1
     0.1     0.1     0.1     0.1     0.1     0.1     0.2     0.1     0.1     0.2
     0.2     0.1     0.2     0.1     0.1     0.1     0.1     0.1     0.0     0.0
     0.1     0.0     0.1     0.1     0.1     0.1     0.2     0.2     0.2     0.2
     0.2     0.1     0.1     0.2     0.1     0.1     0.1     0.1     0.2     0.1
     0.1     0.1     0.1     0.1     0.0     0.1     0.1     0.1     0.1     0.1
     0.1     0.1     0.1     0.1     0.2     0.1     0.1     0.1     0.1     0.1
     0.1     0.1     0.1     0.1     0.1     0.1     0.1     0.1     0.1     0.1
     0.2     0.1     0.2     0.2     0.2     0.2     0.2     0.2     0.1     0.1
     0.1     0.0     0.0     0.0     0.0     0.1     0.1     0.1     0.1     0.1
     0.1     0.1     0.1     0.0     0.0     0.0    -0.0     0.0    -0.0     0.1
     0.1     0.1     0.2     0.2     0.3     0.2     0.2     0.3     0.1     0.2
     0.1     0.1     0.1     0.1     0.1     0.1     0.1    -0.0     0.1     0.0
     0.0     0.1     0.1     0.1     0.1     0.1     0.1     0.1     0.1     0.1
     0.1     0.1     0.1     0.1     0.1     0.2     0.1     0.1     0.1     0.1
     0.1     0.1     0.1     0.1     0.1     0.1     0.1     0.1     0.0     0.1
     0.1     0.1     0.1     0.1     0.1     0.1     0.2     0.1     0.1     0.1
     0.1     0.1     0.1     0.1     0.1     0.1     0.1     0.1     0.2     0.1
     0.1     0.2     0.1     0.1     0.1     0.0     0.0     0.0     0.0     0.1
     0.1     0.1     0.1     0.1     0.2     0.1     0.1     0.1     0.1     0.2
     0.2     0.2     0.2     0.1     0.1     0.1     0.0     0.1     0.0    -0.0
     0.2     0.2     0.2     0.1     0.1     0.1     0.1     0.2     0.0    -0.0
    -0.0    -0.0     0.2     0.1     0.1     0.1     0.1     0.2     0.2     0.2
     0.1     0.1     0.1     0.0     0.0    -0.0     0.1     0.1     0.1     0.1
     0.1     0.1     0.2     0.2     0.2     0.1     0.0     0.1     0.0     0.1
     0.1     0.1     0.1     0.1     0.2     0.0     0.1     0.1     0.0     0.1
     0.2     0.2     0.2     0.2     0.2     0.2     0.2     0.1     0.0     0.0
     0.0     0.1     0.1     0.0     0.1     0.2     0.2     0.1     0.0     0.1
     0.1     0.1     0.0    -0.0     0.1     0.1     0.1     0.1     0.0     0.1
     0.2     0.1     0.1     0.1     0.1     0.2     0.1     0.1     0.1     0.1
     0.2     0.1     0.1     0.1     0.1     0.1     0.1     0.0     0.1     0.1
     0.1     0.1     0.1     0.1     0.1     0.2     0.2     0.1     0.1     0.1
     0.0     0.0     0.0     0.0     0.1     0.1     0.1     0.1     0.1     0.2
     0.1     0.1     0.1     0.1     0.1     0.1     0.1     0.1     0.1     0.1
     0.1     0.1     0.1     0.1     0.1     0.1     0.1     0.0     0.0     0.0
     0.0     0.1     0.1     0.1     0.2     0.2     0.2     0.2     0.1     0.1
     0.1     0.1     0.0     0.0     0.0     0.1     0.2     0.1     0.1     0.1
     0.0     0.1    -0.0     0.0     0.1     0.1     0.1     0.1     0.2     0.2
     0.2     0.2     0.2     0.2     0.1     0.1     0.1     0.1     0.0     0.1
     0.1     0.0     0.1     0.1     0.1     0.2     0.1     0.1     0.1     0.1
     0.2     0.1     0.1     0.1     0.1     0.1     0.1     0.0    -0.0     0.0
     0.0     0.0     0.1     0.2     0.2     0.2     0.2     0.2     0.1     0.0
     0.0     0.0     0.0     0.0     0.1     0.1     0.2     0.2     0.2     0.2
     0.2     0.1     0.2     0.1     0.1     0.1     0.1     0.1     0.1     0.0
    -0.0     0.0     0.0    -0.0     0.0     0.0     0.1     0.2     0.2     0.2
     0.2     0.2     0.1     0.1     0.2     0.2     0.3     0.3     0.2     0.2
     0.2     0.2     0.2     0.1     0.0     0.0    -0.0     0.0    -0.1    -0.1
    -0.0    -0.1    -0.0    -0.0     0.0     0.0    -0.0     0.1     0.1     0.1
     0.2     0.2     0.3     0.2     0.2     0.2     0.1     0.2     0.1     0.1
     0.1     0.1     0.2     0.2     0.2     0.2     0.2     0.2     0.1     0.1
     0.0    -0.1    -0.1    -0.2    -0.2    -0.1    -0.1    -0.1    -0.0    -0.0
     0.0     0.1     0.1     0.2     0.2     0.3     0.3     0.4     0.4     0.4
     0.5     0.4     0.4     0.4     0.3     0.2     0.2     0.0    -0.1    -0.1
    -0.2    -0.3    -0.3    -0.3    -0.3    -0.2    -0.1    -0.0     0.0     0.1
     0.2     0.3     0.4     0.4     0.4     0.4     0.3     0.3     0.2     0.1
     0.0    -0.0    -0.1    -0.1     0.0     0.1     0.1     0.0     0.0     0.1
     0.1     0.1     0.1     0.2     0.2     0.2     0.2     0.2     0.2     0.2
     0.1     0.1     0.1     0.1     0.0     0.0     0.1     0.1    -0.0    -0.0
    -0.0    -0.0    -0.0    -0.0    -0.0     0.1     0.2     0.2     0.2     0.2
