Uncorrected accelerogram 20161113_110256_BWRS_20 GNS Science
Site BWRS      41 26 22S  173 54 18E     Basalt file:  20161113_110322_BWRS
Waikakaho Road
Instrument Basalt_492
Resolution: 24-bit   Instr Period: 0.0050 s   Damping: 0.700
Accelerogram 20161113_110256_BWRS_20                 Processed 2016 December 09
5 km south-west of Waiau
2016 November 13         11:02:56 UT
Epicentre  42 41 33S 173 01 19E  Bearing S27W  Dist  157km  Depth   15km Mw 7.82
Number of points  63200    Duration 316.00 s
Raw readings in units of 1.00 mm/s/s  at intervals of 0.005 s
Data is unfiltered
Component S62W
Acceleration:  Peak  -1718.8 mm/s/s at  99.56 s     RMS   103.83 mm/s/s
Velocity record unevaluated
Displacement record unevaluated
    2016      11      13      11       2     560       0       0    2016      11
      42      41      33     173       1      19      15       0      13      11
      41      26      22     173      54      18     242     242     207     157
   63200       0       0   63200       0       0       0       0       2   42000
   200.0    0.70    0.00   0.000  0.0000   0.000   0.000   1.000     0.0    0.00
  41.440 173.905  42.693 173.022    7.82    0.00    0.00    0.00      0.      0.
  316.00    0.00    0.00  316.00  0.0050  0.0050      0.      0.      0.  9806.6
 -1718.8   99.56   103.8      0.      0.     0.0    0.00     0.0     0.0   0.000
    0.00    0.00    0.00    0.00   0.000    0.00    0.00    0.00    0.00   0.000
   0.000   0.000   0.000      0.      0.   0.000   0.000   0.000      0.      0.
     0.1    -0.0    -0.2    -0.2    -0.0     0.0    -0.2    -0.2    -0.0     0.0
    -0.2    -0.3     0.0     0.0    -0.2    -0.2    -0.0     0.1    -0.2    -0.3
    -0.1     0.0    -0.1    -0.2    -0.1     0.1    -0.1    -0.3    -0.1     0.0
    -0.1    -0.3    -0.1     0.1    -0.1    -0.2    -0.2     0.0    -0.0    -0.2
    -0.2     0.0     0.0    -0.2    -0.2     0.0     0.0    -0.2    -0.3     0.0
     0.0    -0.2    -0.2    -0.0     0.1    -0.2    -0.3    -0.1     0.1    -0.1
    -0.3    -0.1     0.1    -0.1    -0.3    -0.1     0.1    -0.1    -0.3    -0.1
     0.1    -0.1    -0.2    -0.2     0.0    -0.0    -0.3    -0.2     0.0    -0.0
    -0.2    -0.2     0.0    -0.0    -0.2    -0.2    -0.0     0.0    -0.2    -0.2
    -0.0     0.0    -0.2    -0.2    -0.0    -0.0    -0.1    -0.3    -0.1     0.1
    -0.2    -0.2    -0.1     0.1    -0.2    -0.3    -0.1     0.0    -0.1    -0.3
    -0.2     0.0    -0.1    -0.2    -0.2     0.0    -0.0    -0.3    -0.2     0.0
    -0.0    -0.2    -0.2     0.0    -0.0    -0.2    -0.2    -0.0     0.1    -0.2
    -0.3     0.0    -0.0    -0.2    -0.2    -0.1     0.0    -0.1    -0.3    -0.1
     0.1    -0.1    -0.3    -0.1     0.0    -0.1    -0.2    -0.2     0.1    -0.1
    -0.3    -0.1     0.0    -0.0    -0.3    -0.2     0.1    -0.1    -0.2    -0.2
     0.0     0.0    -0.2    -0.2     0.0     0.0    -0.2    -0.3     0.0     0.0
    -0.2    -0.2    -0.1     0.0    -0.1    -0.3    -0.1     0.1    -0.1    -0.3
    -0.1     0.1    -0.1    -0.3    -0.1     0.1    -0.1    -0.3    -0.1     0.0
    -0.1    -0.2    -0.2     0.0    -0.0    -0.3    -0.2     0.0    -0.0    -0.2
    -0.2     0.0     0.0    -0.2    -0.2    -0.0     0.0    -0.2    -0.3    -0.0
     0.0    -0.2    -0.2    -0.0     0.0    -0.2    -0.2    -0.0    -0.0    -0.1
    -0.3    -0.1     0.1    -0.1    -0.2    -0.1     0.1    -0.1    -0.3    -0.1
     0.0    -0.1    -0.2    -0.2     0.0    -0.0    -0.3    -0.2     0.0    -0.0
    -0.2    -0.2    -0.0     0.0    -0.3    -0.2     0.0     0.0    -0.2    -0.2
    -0.0     0.0    -0.2    -0.2    -0.0     0.1    -0.2    -0.3    -0.1     0.0
    -0.1    -0.3    -0.1     0.1    -0.1    -0.3    -0.1     0.0    -0.1    -0.2
    -0.1     0.0    -0.1    -0.2    -0.2     0.0    -0.0    -0.3    -0.2     0.0
    -0.0    -0.2    -0.2    -0.0     0.0    -0.2    -0.3    -0.0     0.0    -0.2
    -0.2    -0.0     0.1    -0.2    -0.2    -0.0     0.1    -0.1    -0.3    -0.1
     0.0    -0.1    -0.2    -0.2     0.1    -0.1    -0.2    -0.1     0.0     0.0
    -0.3    -0.1     0.1    -0.1    -0.2    -0.2     0.0    -0.0    -0.2    -0.2
     0.0     0.0    -0.2    -0.2     0.0     0.0    -0.2    -0.2    -0.0     0.0
    -0.1    -0.3    -0.1     0.1    -0.2    -0.3    -0.1     0.1    -0.2    -0.3
    -0.0     0.0    -0.1    -0.3    -0.1     0.1    -0.1    -0.2    -0.1     0.0
    -0.0    -0.3    -0.1     0.1    -0.1    -0.3    -0.2     0.0    -0.0    -0.2
    -0.2     0.0     0.0    -0.2    -0.2    -0.0     0.0    -0.2    -0.3    -0.0
     0.0    -0.1    -0.2    -0.1     0.0    -0.1    -0.2    -0.1     0.0    -0.1
    -0.3    -0.1     0.1    -0.1    -0.2    -0.1     0.0    -0.0    -0.3    -0.1
     0.0    -0.0    -0.2    -0.2     0.1    -0.0    -0.3    -0.2     0.0    -0.0
    -0.2    -0.2     0.0     0.0    -0.2    -0.2    -0.0     0.0    -0.2    -0.2
    -0.0     0.0    -0.2    -0.2    -0.1     0.1    -0.1    -0.2    -0.1     0.1
    -0.1    -0.3    -0.1     0.0    -0.1    -0.2    -0.2     0.1    -0.1    -0.2
    -0.1     0.0    -0.0    -0.2    -0.2     0.0    -0.0    -0.2    -0.2     0.0
     0.0    -0.2    -0.2     0.0    -0.0    -0.2    -0.2    -0.0     0.0    -0.2
    -0.3    -0.0     0.0    -0.2    -0.2    -0.1     0.1    -0.1    -0.3    -0.1
     0.0    -0.1    -0.2    -0.1     0.1    -0.1    -0.3    -0.1     0.1    -0.1
    -0.2    -0.2     0.1    -0.0    -0.2    -0.2    -0.0     0.0    -0.2    -0.2
     0.0    -0.0    -0.2    -0.2    -0.0     0.0    -0.2    -0.2    -0.0     0.1
    -0.2    -0.2    -0.0     0.0    -0.1    -0.3    -0.1     0.1    -0.1    -0.3
    -0.1     0.0    -0.1    -0.2    -0.1     0.1    -0.1    -0.2    -0.2     0.0
     0.0    -0.3    -0.2     0.1    -0.0    -0.2    -0.2     0.0    -0.0    -0.2
    -0.2    -0.0     0.0    -0.2    -0.2    -0.0     0.0    -0.2    -0.2    -0.0
     0.0    -0.2    -0.2    -0.1     0.0    -0.1    -0.3    -0.1     0.1    -0.1
    -0.3    -0.1     0.1    -0.1    -0.2    -0.1     0.0    -0.1    -0.2    -0.2
     0.1    -0.0    -0.2    -0.2     0.0    -0.0    -0.2    -0.2     0.0    -0.0
    -0.2    -0.2     0.0     0.0    -0.2    -0.3    -0.0     0.0    -0.2    -0.2
    -0.1     0.0    -0.1    -0.3    -0.0     0.0    -0.2    -0.2    -0.1     0.0
    -0.0    -0.3    -0.1     0.0    -0.1    -0.2    -0.2     0.1    -0.1    -0.3
    -0.1     0.0    -0.0    -0.2    -0.2     0.0    -0.0    -0.2    -0.2     0.0
     0.0    -0.2    -0.2    -0.0     0.1    -0.2    -0.2    -0.0     0.0    -0.1
    -0.3    -0.0     0.1    -0.2    -0.2    -0.1     0.0    -0.1    -0.3    -0.1
     0.1    -0.1    -0.3    -0.1     0.0    -0.1    -0.2    -0.2     0.1    -0.0
    -0.3    -0.2     0.1    -0.0    -0.2    -0.2    -0.0     0.1    -0.3    -0.2
     0.1    -0.0    -0.2    -0.2    -0.0     0.0    -0.2    -0.2    -0.0     0.0
    -0.2    -0.3    -0.1     0.1    -0.1    -0.2    -0.1     0.1    -0.1    -0.3
    -0.1     0.1    -0.1    -0.3    -0.1     0.1    -0.1    -0.3    -0.1     0.0
    -0.1    -0.2    -0.2     0.1    -0.0    -0.2    -0.1    -0.0     0.0    -0.2
    -0.3     0.0     0.0    -0.2    -0.2    -0.0     0.1    -0.2    -0.2    -0.0
     0.0    -0.2    -0.2    -0.0     0.0    -0.1    -0.3    -0.1     0.1    -0.1
    -0.2    -0.1     0.0    -0.1    -0.3    -0.1     0.1    -0.0    -0.3    -0.2
     0.1    -0.1    -0.2    -0.2    -0.0    -0.0    -0.2    -0.2    -0.0    -0.0
    -0.2    -0.2     0.0    -0.0    -0.2    -0.2    -0.0     0.0    -0.2    -0.3
    -0.1     0.1    -0.1    -0.3    -0.1     0.1    -0.1    -0.3    -0.1     0.0
    -0.1    -0.3    -0.1     0.1    -0.1    -0.2    -0.2     0.0    -0.0    -0.2
    -0.2     0.0    -0.0    -0.2    -0.2     0.0     0.0    -0.2    -0.2     0.0
     0.0    -0.2    -0.2    -0.0     0.0    -0.2    -0.2    -0.1     0.1    -0.2
    -0.2    -0.0     0.0    -0.1    -0.3    -0.1     0.1    -0.1    -0.2    -0.1
     0.1    -0.1    -0.3    -0.1     0.1    -0.1    -0.3    -0.1     0.0     0.0
    -0.3    -0.2     0.1    -0.0    -0.2    -0.2     0.0     0.0    -0.2    -0.2
    -0.0     0.0    -0.2    -0.2     0.0     0.0    -0.2    -0.3    -0.0     0.1
    -0.2    -0.2    -0.1     0.1    -0.1    -0.3    -0.1     0.1    -0.1    -0.2
    -0.2     0.1    -0.0    -0.3    -0.1     0.1    -0.1    -0.2    -0.2     0.0
    -0.0    -0.2    -0.2    -0.0    -0.0    -0.2    -0.2     0.0    -0.0    -0.2
    -0.2    -0.1     0.0    -0.2    -0.3    -0.0     0.0    -0.2    -0.3    -0.0
     0.0    -0.2    -0.2    -0.1     0.0    -0.1    -0.2    -0.1     0.1    -0.1
    -0.3    -0.1     0.0    -0.1    -0.3    -0.1     0.1    -0.1    -0.2    -0.2
     0.0    -0.0    -0.2    -0.2     0.0     0.0    -0.2    -0.2     0.0     0.0
    -0.2    -0.2    -0.0     0.1    -0.2    -0.2    -0.1     0.1    -0.2    -0.3
    -0.0     0.0    -0.1    -0.3    -0.1     0.0    -0.1    -0.2    -0.2     0.1
    -0.1    -0.3    -0.1     0.0    -0.1    -0.2    -0.2    -0.0     0.0    -0.3
    -0.2     0.1    -0.0    -0.3    -0.2     0.0    -0.0    -0.2    -0.3    -0.0
     0.1    -0.3    -0.2    -0.0     0.0    -0.2    -0.3    -0.0     0.0    -0.1
    -0.3    -0.1     0.1    -0.2    -0.2    -0.1     0.1    -0.1    -0.3    -0.1
     0.0    -0.0    -0.3    -0.1     0.1    -0.1    -0.2    -0.2     0.1    -0.1
    -0.3    -0.2    -0.0     0.0    -0.3    -0.2     0.0    -0.0    -0.2    -0.2
    -0.0     0.0    -0.2    -0.2    -0.0     0.0    -0.2    -0.3    -0.0     0.1
    -0.2    -0.2    -0.1     0.1    -0.1    -0.3    -0.0     0.0    -0.1    -0.2
    -0.2     0.1    -0.1    -0.3    -0.1     0.0    -0.0    -0.3    -0.2     0.1
     0.0    -0.3    -0.2     0.0    -0.0    -0.2    -0.2    -0.0    -0.0    -0.2
    -0.2    -0.0     0.0    -0.2    -0.2    -0.1     0.0    -0.1    -0.3    -0.1
     0.0    -0.1    -0.3    -0.1     0.0    -0.1    -0.3    -0.1     0.1    -0.1
    -0.3    -0.1     0.0    -0.0    -0.3    -0.2     0.0    -0.1    -0.2    -0.2
     0.0    -0.0    -0.2    -0.2     0.0     0.0    -0.2    -0.2     0.0     0.0
    -0.2    -0.2    -0.0     0.0    -0.2    -0.2    -0.1     0.0    -0.2    -0.3
    -0.1     0.1    -0.1    -0.3    -0.1     0.0    -0.1    -0.2    -0.1     0.0
    -0.1    -0.2    -0.2     0.1    -0.0    -0.3    -0.2     0.0    -0.0    -0.2
    -0.2     0.0    -0.0    -0.3    -0.2     0.0     0.0    -0.2    -0.3     0.0
     0.0    -0.2    -0.2    -0.1     0.1    -0.2    -0.3    -0.0    -0.0    -0.1
    -0.3    -0.1     0.0    -0.1    -0.2    -0.1     0.1    -0.1    -0.3    -0.1
     0.1    -0.0    -0.3    -0.2     0.1    -0.1    -0.2    -0.2     0.0    -0.0
    -0.3    -0.2     0.0    -0.0    -0.2    -0.2    -0.0     0.0    -0.2    -0.2
    -0.0     0.0    -0.2    -0.3    -0.0     0.1    -0.2    -0.3    -0.0     0.0
    -0.1    -0.2    -0.1     0.0    -0.1    -0.3    -0.1     0.1    -0.1    -0.2
    -0.1     0.0    -0.0    -0.3    -0.2     0.0    -0.0    -0.2    -0.2     0.0
    -0.0    -0.3    -0.2    -0.0     0.0    -0.2    -0.2    -0.0     0.0    -0.2
    -0.3    -0.0     0.0    -0.2    -0.2    -0.1     0.1    -0.2    -0.3    -0.0
     0.0    -0.1    -0.3    -0.1     0.0    -0.1    -0.2    -0.2     0.1    -0.1
    -0.3    -0.1     0.0    -0.0    -0.3    -0.2     0.1    -0.0    -0.2    -0.2
     0.0     0.0    -0.2    -0.2    -0.0     0.0    -0.2    -0.2    -0.0     0.0
    -0.2    -0.3    -0.0     0.0    -0.2    -0.2    -0.1     0.1    -0.1    -0.3
    -0.1     0.1    -0.1    -0.3    -0.1     0.0    -0.1    -0.3    -0.1     0.1
    -0.1    -0.2    -0.2     0.1    -0.0    -0.3    -0.1     0.0    -0.1    -0.2
    -0.2     0.0     0.0    -0.2    -0.2     0.0     0.0    -0.2    -0.2    -0.0
     0.1    -0.2    -0.3    -0.0     0.0    -0.1    -0.3    -0.0     0.1    -0.2
    -0.2    -0.1     0.0    -0.1    -0.3    -0.1     0.1    -0.1    -0.2    -0.1
     0.1    -0.1    -0.3    -0.1     0.1    -0.0    -0.3    -0.2     0.0    -0.0
    -0.2    -0.2     0.0     0.0    -0.2    -0.2    -0.0     0.0    -0.2    -0.2
    -0.0     0.0    -0.2    -0.3    -0.0    -0.0    -0.1    -0.2    -0.1     0.1
    -0.1    -0.3    -0.1     0.1    -0.1    -0.3    -0.1     0.0    -0.1    -0.3
    -0.2     0.1    -0.0    -0.2    -0.2     0.0    -0.0    -0.2    -0.2     0.0
    -0.0    -0.2    -0.2    -0.0     0.0    -0.2    -0.2    -0.0    -0.0    -0.1
    -0.3    -0.1     0.1    -0.2    -0.2    -0.0     0.0    -0.1    -0.3    -0.1
     0.1    -0.1    -0.2    -0.1     0.0    -0.1    -0.3    -0.1     0.0    -0.0
    -0.2    -0.2     0.0    -0.0    -0.2    -0.2     0.1    -0.0    -0.3    -0.2
    -0.1     0.0    -0.2    -0.3     0.1    -0.0    -0.2    -0.2    -0.0     0.1
    -0.2    -0.2    -0.1     0.1    -0.2    -0.3    -0.1     0.0    -0.1    -0.3
    -0.1     0.0    -0.1    -0.2    -0.2     0.1    -0.0    -0.3    -0.1     0.1
    -0.1    -0.2    -0.2     0.0     0.0    -0.3    -0.2     0.1    -0.0    -0.2
    -0.2     0.0    -0.0    -0.2    -0.2    -0.0     0.0    -0.2    -0.2    -0.1
     0.1    -0.2    -0.3    -0.0     0.0    -0.2    -0.3    -0.1     0.1    -0.2
    -0.3    -0.1     0.0    -0.1    -0.2    -0.1     0.0    -0.1    -0.3    -0.1
     0.1    -0.1    -0.3    -0.2     0.0    -0.0    -0.2    -0.2     0.0     0.0
    -0.2    -0.2     0.0     0.0    -0.2    -0.2    -0.0     0.0    -0.2    -0.2
    -0.0     0.0    -0.1    -0.2    -0.1     0.0    -0.1    -0.3    -0.1     0.0
    -0.1    -0.2    -0.1     0.0    -0.1    -0.2    -0.1     0.1    -0.1    -0.3
    -0.1     0.1    -0.1    -0.3    -0.2    -0.0    -0.0    -0.2    -0.3     0.0
     0.0    -0.2    -0.2    -0.0     0.0    -0.2    -0.2    -0.0    -0.0    -0.2
    -0.3    -0.0     0.0    -0.2    -0.3    -0.1     0.1    -0.2    -0.3    -0.1
     0.0    -0.1    -0.2    -0.1     0.1    -0.1    -0.3    -0.1     0.0    -0.1
    -0.2    -0.2     0.1    -0.0    -0.2    -0.2     0.0    -0.0    -0.3    -0.2
    -0.0     0.0    -0.2    -0.3     0.0    -0.0    -0.2    -0.2    -0.1     0.1
    -0.2    -0.3    -0.1     0.0    -0.1    -0.3    -0.1     0.1    -0.1    -0.2
    -0.1     0.0    -0.1    -0.3    -0.1     0.0    -0.1    -0.2    -0.2     0.1
    -0.1    -0.3    -0.1     0.0    -0.0    -0.2    -0.2     0.0    -0.0    -0.3
    -0.2     0.0    -0.0    -0.2    -0.3     0.0     0.0    -0.2    -0.3    -0.0
     0.0    -0.2    -0.2    -0.1     0.1    -0.1    -0.3    -0.1     0.0    -0.1
    -0.3    -0.1     0.1    -0.1    -0.3    -0.1     0.0    -0.1    -0.3    -0.2
     0.0    -0.0    -0.3    -0.2     0.0    -0.0    -0.2    -0.2     0.0     0.0
    -0.2    -0.2     0.0     0.0    -0.2    -0.2    -0.0     0.0    -0.2    -0.2
    -0.0     0.0    -0.2    -0.3    -0.1     0.1    -0.2    -0.3    -0.0     0.0
    -0.1    -0.3    -0.1     0.1    -0.1    -0.3    -0.1     0.1    -0.1    -0.3
    -0.1     0.0    -0.0    -0.3    -0.2     0.0    -0.0    -0.2    -0.2    -0.0
     0.1    -0.2    -0.2    -0.0     0.0    -0.2    -0.3    -0.0     0.0    -0.2
    -0.3    -0.1     0.1    -0.2    -0.3    -0.1     0.1    -0.1    -0.2    -0.1
     0.0    -0.1    -0.3    -0.2     0.1    -0.1    -0.3    -0.2     0.1    -0.0
    -0.3    -0.2     0.0    -0.0    -0.2    -0.2     0.1    -0.0    -0.3    -0.2
    -0.0     0.0    -0.2    -0.3    -0.0     0.0    -0.2    -0.2    -0.0     0.1
    -0.2    -0.3    -0.0     0.1    -0.2    -0.2    -0.1     0.0    -0.1    -0.3
    -0.1     0.1    -0.1    -0.3    -0.1     0.1    -0.1    -0.3    -0.1     0.0
    -0.0    -0.2    -0.2     0.0    -0.0    -0.3    -0.2     0.0    -0.0    -0.2
    -0.2     0.0     0.0    -0.2    -0.2    -0.0     0.1    -0.2    -0.2    -0.0
    -0.0    -0.1    -0.3    -0.1     0.1    -0.1    -0.3    -0.1     0.1    -0.1
    -0.3    -0.1     0.1    -0.1    -0.3    -0.1     0.0    -0.1    -0.3    -0.2
     0.0    -0.0    -0.3    -0.2     0.0    -0.0    -0.2    -0.2    -0.0     0.0
    -0.2    -0.2     0.0     0.0    -0.2    -0.2    -0.0     0.1    -0.2    -0.3
    -0.1     0.1    -0.2    -0.3    -0.1     0.1    -0.1    -0.3    -0.1     0.1
    -0.1    -0.2    -0.1     0.0    -0.1    -0.3    -0.1     0.0    -0.0    -0.2
    -0.2     0.1    -0.0    -0.2    -0.2    -0.0    -0.0    -0.2    -0.2     0.0
     0.0    -0.2    -0.2    -0.0     0.0    -0.2    -0.3    -0.0     0.0    -0.2
    -0.2    -0.1     0.1    -0.1    -0.3    -0.1     0.1    -0.1    -0.3    -0.1
     0.1    -0.1    -0.3    -0.1     0.1    -0.0    -0.3    -0.1     0.0    -0.0
    -0.2    -0.2     0.0    -0.0    -0.2    -0.2     0.0     0.0    -0.2    -0.2
     0.0     0.0    -0.2    -0.2    -0.0     0.0    -0.2    -0.2    -0.0     0.0
    -0.1    -0.3    -0.1     0.1    -0.1    -0.2    -0.1     0.1    -0.1    -0.3
    -0.1     0.0    -0.1    -0.3    -0.1     0.0    -0.0    -0.2    -0.2     0.1
    -0.0    -0.2    -0.2     0.0    -0.0    -0.3    -0.2     0.0    -0.0    -0.2
    -0.2    -0.0     0.0    -0.2    -0.2    -0.0     0.1    -0.2    -0.3    -0.0
     0.1    -0.2    -0.3    -0.1     0.1    -0.1    -0.3    -0.1     0.0    -0.1
    -0.2    -0.1     0.0    -0.1    -0.2    -0.2     0.1    -0.0    -0.2    -0.2
     0.0     0.0    -0.3    -0.2     0.0    -0.0    -0.2    -0.2     0.0     0.0
    -0.2    -0.2    -0.0     0.1    -0.2    -0.2    -0.0     0.0    -0.2    -0.2
    -0.1     0.0    -0.1    -0.2    -0.1     0.0    -0.1    -0.2    -0.1     0.1
    -0.1    -0.3    -0.1     0.1    -0.1    -0.2    -0.1     0.0    -0.0    -0.2
    -0.2     0.0     0.0    -0.2    -0.2    -0.0     0.0    -0.2    -0.2    -0.0
     0.0    -0.2    -0.2    -0.0    -0.0    -0.1    -0.3    -0.1     0.1    -0.2
    -0.2    -0.1     0.0    -0.1    -0.3    -0.1     0.0    -0.1    -0.3    -0.1
     0.1    -0.1    -0.2    -0.2     0.1    -0.1    -0.3    -0.1     0.0    -0.0
    -0.2    -0.2     0.1    -0.0    -0.2    -0.2     0.0    -0.0    -0.2    -0.2
    -0.0     0.1    -0.2    -0.2    -0.1     0.0    -0.1    -0.3    -0.0     0.1
    -0.2    -0.2    -0.1     0.0    -0.1    -0.3    -0.1     0.1    -0.1    -0.2
    -0.1    -0.0    -0.0    -0.2    -0.2     0.1    -0.0    -0.3    -0.2     0.1
    -0.0    -0.2    -0.2     0.0    -0.0    -0.2    -0.2    -0.1     0.0    -0.2
    -0.3     0.0    -0.0    -0.2    -0.2    -0.1     0.0    -0.2    -0.3    -0.0
     0.1    -0.2    -0.3    -0.1     0.1    -0.1    -0.3    -0.1     0.0    -0.1
    -0.3    -0.1     0.0    -0.1    -0.3    -0.2     0.1    -0.1    -0.2    -0.2
     0.0    -0.0    -0.2    -0.2     0.0    -0.0    -0.2    -0.2    -0.0     0.0
    -0.2    -0.3    -0.0     0.0    -0.2    -0.2    -0.0    -0.0    -0.2    -0.2
    -0.1     0.0    -0.1    -0.3    -0.1     0.0    -0.1    -0.2    -0.1     0.0
    -0.1    -0.3    -0.1     0.0    -0.1    -0.3    -0.2     0.0    -0.1    -0.2
    -0.2     0.0    -0.0    -0.2    -0.2    -0.0     0.0    -0.2    -0.3    -0.0
     0.0    -0.2    -0.3    -0.1     0.1    -0.2    -0.3    -0.0    -0.0    -0.1
    -0.3    -0.1     0.1    -0.1    -0.2    -0.1     0.0    -0.1    -0.3    -0.2
     0.0    -0.0    -0.3    -0.2     0.0    -0.0    -0.2    -0.2     0.0    -0.1
    -0.3    -0.2    -0.0     0.0    -0.2    -0.3     0.0     0.0    -0.2    -0.2
    -0.0     0.0    -0.2    -0.3    -0.0     0.0    -0.2    -0.3    -0.1     0.1
    -0.1    -0.3    -0.1     0.0    -0.1    -0.3    -0.1     0.0    -0.1    -0.3
    -0.2     0.1    -0.1    -0.3    -0.2     0.0    -0.0    -0.2    -0.2     0.0
    -0.0    -0.2    -0.2     0.0    -0.0    -0.2    -0.2    -0.0     0.0    -0.2
    -0.2    -0.0    -0.0    -0.2    -0.2    -0.1     0.0    -0.1    -0.3    -0.1
     0.0    -0.1    -0.3    -0.1     0.0    -0.1    -0.3    -0.1     0.0    -0.1
    -0.2    -0.2     0.0    -0.0    -0.3    -0.2     0.0    -0.0    -0.2    -0.2
     0.0    -0.0    -0.2    -0.2    -0.0     0.0    -0.2    -0.2    -0.0    -0.0
    -0.2    -0.3    -0.0     0.0    -0.2    -0.2    -0.1     0.1    -0.1    -0.3
    -0.1     0.0    -0.2    -0.2    -0.1     0.0    -0.1    -0.3    -0.1     0.0
    -0.1    -0.2    -0.2     0.0    -0.0    -0.2    -0.2     0.0    -0.0    -0.2
    -0.2    -0.0     0.0    -0.2    -0.2     0.0     0.0    -0.2    -0.3    -0.0
