Uncorrected accelerogram 20161113_110256_KEKS_20 GNS Science
Site KEKS      41 57 20S  173 58 53E     Basalt file:  20161113_110317_KEKS
Kekerengu Valley Road
Instrument Basalt_1763
Resolution: 24-bit   Instr Period: 0.0050 s   Damping: 0.700
Accelerogram 20161113_110256_KEKS_20                 Processed 2016 December 09
5 km south-west of Waiau
2016 November 13         11:02:56 UT
Epicentre  42 41 33S 173 01 19E  Bearing S44W  Dist  114km  Depth   15km Mw 7.82
Number of points  65536    Duration 327.68 s
Raw readings in units of 1.00 mm/s/s  at intervals of 0.005 s
Data is unfiltered
Component N90W
Acceleration:  Peak -11882.6 mm/s/s at  80.25 s     RMS   475.01 mm/s/s
Velocity record unevaluated
Displacement record unevaluated
    2016      11      13      11       2     560       0       0    2016      11
      42      41      33     173       1      19      15       0      13      11
      41      57      20     173      58      53     270     270     224     114
   65536       0       0   65536       0       0       0       0       2   37000
   200.0    0.70    0.00   0.000  0.0000   0.000   0.000   1.000     0.0    0.00
  41.956 173.981  42.693 173.022    7.82    0.00    0.00    0.00      0.      0.
  327.68    0.00    0.00  327.68  0.0050  0.0050      0.      0.      0.  9806.6
  -11883   80.25   475.0      0.      0.     0.0    0.00     0.0     0.0   0.000
    0.00    0.00    0.00    0.00   0.000    0.00    0.00    0.00    0.00   0.000
   0.000   0.000   0.000      0.      0.   0.000   0.000   0.000      0.      0.
    -4.9    -4.8    -4.8    -4.8    -4.8    -4.9    -4.8    -4.8    -4.8    -4.8
    -4.8    -4.8    -4.9    -4.8    -4.8    -4.9    -4.8    -4.8    -4.9    -4.8
    -4.8    -4.8    -4.8    -4.8    -4.8    -4.8    -4.8    -4.9    -4.8    -4.8
    -4.9    -4.8    -4.8    -4.8    -4.8    -4.9    -4.9    -4.8    -4.8    -4.9
    -4.8    -4.8    -4.9    -4.8    -4.8    -4.8    -4.8    -4.8    -4.8    -4.8
    -4.8    -4.8    -4.8    -4.8    -4.8    -4.8    -4.8    -4.8    -4.8    -4.8
    -4.8    -4.8    -4.8    -4.8    -4.8    -4.8    -4.8    -4.8    -4.8    -4.8
    -4.8    -4.8    -4.8    -4.8    -4.9    -4.8    -4.8    -4.9    -4.8    -4.8
    -4.9    -4.8    -4.9    -4.8    -4.8    -4.8    -4.8    -4.9    -4.8    -4.8
    -4.9    -4.8    -4.8    -4.8    -4.8    -4.8    -4.8    -4.8    -4.8    -4.8
    -4.8    -4.8    -4.8    -4.9    -4.8    -4.8    -4.8    -4.8    -4.8    -4.8
    -4.9    -4.9    -4.8    -4.8    -4.8    -4.9    -4.8    -4.8    -4.8    -4.8
    -4.8    -4.8    -4.8    -4.8    -4.8    -4.9    -4.8    -4.8    -4.9    -4.8
    -4.8    -4.8    -4.8    -4.9    -4.8    -4.8    -4.8    -4.8    -4.8    -4.8
    -4.8    -4.8    -4.9    -4.8    -4.8    -4.9    -4.8    -4.8    -4.8    -4.8
    -4.8    -4.8    -4.8    -4.8    -4.9    -4.8    -4.8    -4.8    -4.8    -4.8
    -4.8    -4.9    -4.8    -4.8    -4.8    -4.8    -4.8    -4.8    -4.9    -4.8
    -4.8    -4.8    -4.8    -4.8    -4.8    -4.9    -4.9    -4.8    -4.8    -4.8
    -4.8    -4.8    -4.8    -4.8    -4.8    -4.9    -4.8    -4.8    -4.8    -4.8
    -4.8    -4.8    -4.9    -4.8    -4.9    -4.9    -4.8    -4.9    -4.8    -4.8
    -4.8    -4.8    -4.9    -4.8    -4.9    -4.8    -4.8    -4.8    -4.8    -4.8
    -4.8    -4.8    -4.9    -4.8    -4.8    -4.8    -4.8    -4.8    -4.8    -4.9
    -4.8    -4.8    -4.8    -4.8    -4.8    -4.8    -4.9    -4.8    -4.8    -4.9
    -4.8    -4.8    -4.8    -4.8    -4.8    -4.8    -4.8    -4.9    -4.8    -4.8
    -4.9    -4.8    -4.8    -4.8    -4.8    -4.8    -4.8    -4.9    -4.8    -4.8
    -4.8    -4.8    -4.8    -4.8    -4.8    -4.8    -4.9    -4.8    -4.8    -4.9
    -4.8    -4.8    -4.8    -4.9    -4.9    -4.8    -4.9    -4.8    -4.8    -4.8
    -4.8    -4.8    -4.8    -4.8    -4.8    -4.8    -4.9    -4.8    -4.8    -4.9
    -4.8    -4.8    -4.9    -4.8    -4.8    -4.8    -4.8    -4.8    -4.8    -4.8
    -4.8    -4.8    -4.8    -4.8    -4.9    -4.8    -4.8    -4.9    -4.8    -4.8
    -4.8    -4.8    -4.8    -4.8    -4.8    -4.8    -4.8    -4.9    -4.8    -4.8
    -4.8    -4.8    -4.8    -4.8    -4.8    -4.9    -4.8    -4.8    -4.8    -4.9
    -4.9    -4.8    -4.8    -4.8    -4.8    -4.8    -4.8    -4.9    -4.8    -4.8
    -4.8    -4.8    -4.8    -4.8    -4.8    -4.8    -4.8    -4.8    -4.8    -4.9
    -4.8    -4.8    -4.8    -4.8    -4.8    -4.8    -4.9    -4.8    -4.8    -4.9
    -4.8    -4.9    -4.8    -4.8    -4.9    -4.8    -4.8    -4.8    -4.8    -4.8
    -4.8    -4.8    -4.8    -4.9    -4.8    -4.8    -4.9    -4.8    -4.8    -4.8
    -4.8    -4.8    -4.8    -4.9    -4.8    -4.8    -4.9    -4.8    -4.8    -4.9
    -4.8    -4.8    -4.9    -4.8    -4.8    -4.9    -4.8    -4.8    -4.9    -4.8
    -4.8    -4.8    -4.9    -4.8    -4.8    -4.8    -4.8    -4.9    -4.8    -4.8
    -4.8    -4.8    -4.8    -4.8    -4.8    -4.8    -4.8    -4.9    -4.8    -4.8
    -4.8    -4.8    -4.8    -4.8    -4.9    -4.8    -4.9    -4.8    -4.8    -4.8
    -4.8    -4.8    -4.8    -4.8    -4.8    -4.8    -4.8    -4.8    -4.8    -4.8
    -4.8    -4.8    -4.8    -4.9    -4.8    -4.8    -4.8    -4.8    -4.9    -4.8
    -4.9    -4.9    -4.8    -4.8    -4.8    -4.8    -4.8    -4.9    -4.9    -4.8
    -4.8    -4.8    -4.8    -4.8    -4.8    -4.8    -4.8    -4.8    -4.9    -4.9
    -4.8    -4.8    -4.9    -4.8    -4.8    -4.8    -4.8    -4.8    -4.9    -4.8
    -4.8    -4.8    -4.8    -4.9    -4.8    -4.8    -4.9    -4.8    -4.8    -4.8
    -4.9    -4.8    -4.9    -4.9    -4.8    -4.8    -4.8    -4.8    -4.8    -4.9
    -4.8    -4.8    -4.9    -4.8    -4.8    -4.9    -4.8    -4.9    -4.8    -4.9
    -4.9    -4.8    -4.8    -4.8    -4.8    -4.8    -4.8    -4.9    -4.8    -4.9
    -4.8    -4.8    -4.8    -4.9    -4.8    -4.8    -4.9    -4.8    -4.8    -4.9
    -4.8    -4.9    -4.8    -4.8    -4.9    -4.8    -4.8    -4.8    -4.8    -4.8
    -4.8    -4.8    -4.8    -4.8    -4.8    -4.8    -4.8    -4.8    -4.8    -4.8
    -4.8    -4.8    -4.8    -4.9    -4.8    -4.8    -4.9    -4.8    -4.9    -4.9
    -4.8    -4.9    -4.8    -4.8    -4.8    -4.8    -4.9    -4.8    -4.8    -4.8
    -4.8    -4.8    -4.8    -4.9    -4.8    -4.8    -4.9    -4.8    -4.8    -4.8
    -4.8    -4.8    -4.8    -4.8    -4.8    -4.8    -4.8    -4.9    -4.8    -4.8
    -4.9    -4.8    -4.8    -4.8    -4.8    -4.9    -4.8    -4.8    -4.9    -4.8
    -4.8    -4.9    -4.8    -4.9    -4.8    -4.8    -4.8    -4.8    -4.9    -4.8
    -4.8    -4.8    -4.8    -4.9    -4.8    -4.8    -4.8    -4.8    -4.8    -4.9
    -4.8    -4.8    -4.8    -4.8    -4.8    -4.8    -4.8    -4.9    -4.8    -4.8
    -4.8    -4.8    -4.8    -4.8    -4.9    -4.8    -4.8    -4.9    -4.8    -4.8
    -4.8    -4.8    -4.8    -4.8    -4.8    -4.9    -4.8    -4.8    -4.9    -4.8
    -4.8    -4.9    -4.8    -4.8    -4.8    -4.9    -4.8    -4.8    -4.9    -4.9
    -4.8    -4.8    -4.8    -4.9    -4.8    -4.8    -4.8    -4.8    -4.9    -4.8
    -4.9    -4.8    -4.8    -4.8    -4.8    -4.8    -4.8    -4.9    -4.8    -4.8
    -4.8    -4.8    -4.8    -4.8    -4.9    -4.8    -4.9    -4.9    -4.8    -4.8
    -4.9    -4.8    -4.8    -4.9    -4.8    -4.8    -4.9    -4.8    -4.8    -4.8
    -4.9    -4.8    -4.9    -4.9    -4.8    -4.9    -4.9    -4.8    -4.8    -4.9
    -4.8    -4.8    -4.9    -4.8    -4.8    -4.9    -4.8    -4.8    -4.8    -4.8
    -4.8    -4.8    -4.8    -4.8    -4.8    -4.8    -4.9    -4.8    -4.8    -4.9
    -4.8    -4.8    -4.9    -4.8    -4.8    -4.9    -4.8    -4.8    -4.8    -4.9
    -4.8    -4.8    -4.8    -4.8    -4.8    -4.8    -4.8    -4.9    -4.8    -4.8
    -4.9    -4.8    -4.8    -4.8    -4.8    -4.8    -4.8    -4.8    -4.8    -4.8
    -4.8    -4.9    -4.8    -4.8    -4.9    -4.8    -4.8    -4.9    -4.8    -4.8
    -4.8    -4.8    -4.8    -4.8    -4.8    -4.8    -4.9    -4.9    -4.8    -4.9
    -4.8    -4.8    -4.8    -4.8    -4.8    -4.8    -4.9    -4.8    -4.9    -4.8
    -4.8    -4.8    -4.8    -4.8    -4.8    -4.8    -4.9    -4.8    -4.8    -4.8
    -4.8    -4.8    -4.8    -4.9    -4.9    -4.8    -4.9    -4.8    -4.8    -4.8
    -4.9    -4.8    -4.8    -4.9    -4.8    -4.8    -4.9    -4.9    -4.8    -4.8
    -4.8    -4.9    -4.8    -4.8    -4.9    -4.8    -4.8    -4.9    -4.8    -4.8
    -4.8    -4.9    -4.8    -4.8    -4.9    -4.8    -4.8    -4.8    -4.9    -4.8
    -4.8    -4.9    -4.8    -4.9    -4.8    -4.8    -4.9    -4.8    -4.9    -4.8
    -4.9    -4.8    -4.8    -4.9    -4.8    -4.9    -4.8    -4.8    -4.9    -4.8
    -4.9    -4.8    -4.8    -4.8    -4.8    -4.8    -4.8    -4.9    -4.8    -4.8
    -4.9    -4.8    -4.8    -4.9    -4.8    -4.8    -4.9    -4.8    -4.8    -4.8
    -4.8    -4.8    -4.8    -4.8    -4.9    -4.8    -4.8    -4.8    -4.8    -4.8
    -4.8    -4.9    -4.8    -4.8    -4.9    -4.8    -4.8    -4.9    -4.8    -4.8
    -4.9    -4.8    -4.8    -4.9    -4.8    -4.8    -4.8    -4.8    -4.8    -4.8
    -4.9    -4.8    -4.8    -4.8    -4.8    -4.8    -4.8    -4.8    -4.8    -4.8
    -4.9    -4.8    -4.8    -4.8    -4.8    -4.8    -4.8    -4.8    -4.8    -4.8
    -4.9    -4.8    -4.8    -4.8    -4.8    -4.8    -4.8    -4.9    -4.8    -4.8
    -4.8    -4.8    -4.8    -4.8    -4.8    -4.8    -4.8    -4.9    -4.8    -4.8
    -4.9    -4.8    -4.8    -4.8    -4.8    -4.9    -4.8    -4.8    -4.8    -4.8
    -4.8    -4.8    -4.8    -4.8    -4.8    -4.8    -4.8    -4.8    -4.8    -4.8
    -4.8    -4.9    -4.8    -4.8    -4.9    -4.8    -4.8    -4.8    -4.9    -4.9
    -4.8    -4.9    -4.8    -4.8    -4.8    -4.8    -4.9    -4.8    -4.8    -4.8
    -4.8    -4.8    -4.8    -4.8    -4.8    -4.9    -4.8    -4.8    -4.8    -4.8
    -4.8    -4.8    -4.8    -4.9    -4.9    -4.8    -4.8    -4.9    -4.8    -4.9
    -4.8    -4.8    -4.8    -4.8    -4.9    -4.8    -4.8    -4.9    -4.8    -4.9
    -4.8    -4.8    -4.8    -4.8    -4.8    -4.8    -4.9    -4.8    -4.8    -4.8
    -4.8    -4.8    -4.8    -4.9    -4.8    -4.8    -4.9    -4.8    -4.8    -4.8
    -4.8    -4.8    -4.8    -4.8    -4.8    -4.8    -4.8    -4.8    -4.8    -4.8
    -4.8    -4.8    -4.8    -4.8    -4.8    -4.8    -4.8    -4.8    -4.8    -4.8
    -4.9    -4.8    -4.8    -4.8    -4.8    -4.8    -4.8    -4.9    -4.8    -4.8
    -4.9    -4.8    -4.8    -4.8    -4.9    -4.8    -4.9    -4.8    -4.8    -4.8
    -4.8    -4.8    -4.8    -4.9    -4.8    -4.8    -4.8    -4.8    -4.9    -4.8
    -4.8    -4.9    -4.8    -4.8    -4.9    -4.8    -4.8    -4.8    -4.8    -4.9
    -4.8    -4.8    -4.8    -4.8    -4.8    -4.9    -4.8    -4.8    -4.9    -4.8
    -4.8    -4.8    -4.8    -4.8    -4.9    -4.9    -4.8    -4.8    -4.9    -4.8
    -4.8    -4.8    -4.8    -4.8    -4.9    -4.8    -4.9    -4.8    -4.8    -4.8
    -4.8    -4.9    -4.8    -4.8    -4.9    -4.8    -4.9    -4.8    -4.8    -4.8
    -4.8    -4.8    -4.8    -4.8    -4.9    -4.8    -4.8    -4.8    -4.8    -4.9
    -4.8    -4.8    -4.9    -4.8    -4.8    -4.8    -4.8    -4.8    -4.8    -4.9
    -4.9    -4.8    -4.8    -4.8    -4.8    -4.8    -4.8    -4.9    -4.8    -4.8
    -4.9    -4.8    -4.8    -4.9    -4.8    -4.8    -4.8    -4.9    -4.8    -4.8
    -4.9    -4.8    -4.8    -4.8    -4.8    -4.9    -4.8    -4.9    -4.8    -4.8
    -4.9    -4.8    -4.9    -4.8    -4.9    -4.8    -4.8    -4.9    -4.8    -4.8
    -4.8    -4.8    -4.8    -4.8    -4.9    -4.8    -4.9    -4.8    -4.8    -4.9
    -4.8    -4.8    -4.8    -4.8    -4.9    -4.8    -4.9    -4.8    -4.8    -4.9
    -4.8    -4.8    -4.8    -4.8    -4.8    -4.9    -4.8    -4.9    -4.8    -4.8
    -4.9    -4.8    -4.8    -4.8    -4.8    -4.8    -4.9    -4.8    -4.8    -4.8
    -4.8    -4.8    -4.8    -4.8    -4.8    -4.9    -4.8    -4.8    -4.8    -4.8
    -4.8    -4.9    -4.8    -4.9    -4.8    -4.8    -4.9    -4.8    -4.9    -4.8
    -4.8    -4.9    -4.8    -4.8    -4.9    -4.8    -4.8    -4.9    -4.8    -4.8
    -4.9    -4.8    -4.8    -4.8    -4.8    -4.8    -4.9    -4.9    -4.8    -4.9
    -4.9    -4.8    -4.8    -4.8    -4.8    -4.8    -4.9    -4.8    -4.8    -4.8
    -4.8    -4.8    -4.8    -4.8    -4.9    -4.8    -4.9    -4.8    -4.8    -4.8
    -4.8    -4.9    -4.8    -4.8    -4.9    -4.8    -4.8    -4.8    -4.8    -4.8
    -4.8    -4.9    -4.8    -4.8    -4.8    -4.9    -4.8    -4.8    -4.8    -4.8
    -4.8    -4.8    -4.8    -4.9    -4.8    -4.8    -4.8    -4.8    -4.9    -4.8
    -4.8    -4.9    -4.8    -4.8    -4.8    -4.8    -4.9    -4.8    -4.8    -4.9
    -4.9    -4.8    -4.8    -4.8    -4.8    -4.8    -4.8    -4.9    -4.8    -4.8
    -4.9    -4.8    -4.9    -4.8    -4.8    -4.9    -4.8    -4.8    -4.8    -4.8
    -4.9    -4.8    -4.8    -4.9    -4.8    -4.8    -4.9    -4.8    -4.8    -4.8
    -4.8    -4.8    -4.8    -4.8    -4.8    -4.9    -4.8    -4.8    -4.8    -4.8
    -4.8    -4.8    -4.9    -4.8    -4.8    -4.9    -4.8    -4.8    -4.8    -4.8
    -4.8    -4.8    -4.8    -4.8    -4.8    -4.8    -4.9    -4.8    -4.8    -4.8
    -4.9    -4.8    -4.8    -4.9    -4.8    -4.9    -4.8    -4.8    -4.9    -4.8
    -4.8    -4.9    -4.8    -4.9    -4.9    -4.8    -4.9    -4.9    -4.8    -4.9
    -4.9    -4.8    -4.9    -4.8    -4.8    -4.9    -4.8    -4.8    -4.8    -4.8
    -4.8    -4.8    -4.9    -4.8    -4.8    -4.8    -4.9    -4.8    -4.8    -4.8
    -4.8    -4.9    -4.8    -4.8    -4.8    -4.8    -4.8    -4.8    -4.8    -4.8
    -4.8    -4.8    -4.9    -4.8    -4.8    -4.8    -4.8    -4.8    -4.8    -4.8
    -4.8    -4.8    -4.8    -4.8    -4.8    -4.8    -4.9    -4.8    -4.8    -4.8
    -4.8    -4.9    -4.8    -4.8    -4.8    -4.8    -4.8    -4.8    -4.8    -4.8
    -4.8    -4.8    -4.8    -4.9    -4.8    -4.8    -4.8    -4.8    -4.8    -4.8
    -4.8    -4.8    -4.8    -4.8    -4.8    -4.9    -4.8    -4.8    -4.8    -4.8
    -4.9    -4.8    -4.8    -4.8    -4.8    -4.8    -4.8    -4.9    -4.8    -4.8
    -4.8    -4.8    -4.8    -4.8    -4.8    -4.8    -4.8    -4.8    -4.8    -4.9
    -4.8    -4.9    -4.8    -4.8    -4.8    -4.9    -4.8    -4.8    -4.9    -4.8
    -4.8    -4.9    -4.8    -4.9    -4.8    -4.8    -4.9    -4.8    -4.8    -4.9
    -4.9    -4.9    -4.8    -4.8    -4.8    -4.8    -4.8    -4.8    -4.8    -4.9
    -4.8    -4.8    -4.8    -4.8    -4.8    -4.8    -4.8    -4.8    -4.8    -4.8
    -4.8    -4.8    -4.9    -4.8    -4.8    -4.9    -4.8    -4.8    -4.8    -4.8
    -4.9    -4.8    -4.8    -4.9    -4.8    -4.8    -4.8    -4.8    -4.8    -4.8
    -4.9    -4.8    -4.8    -4.9    -4.8    -4.8    -4.8    -4.8    -4.8    -4.8
    -4.8    -4.9    -4.9    -4.8    -4.8    -4.8    -4.8    -4.8    -4.8    -4.8
    -4.8    -4.9    -4.8    -4.8    -4.8    -4.8    -4.8    -4.8    -4.8    -4.8
    -4.8    -4.8    -4.8    -4.8    -4.9    -4.8    -4.8    -4.9    -4.8    -4.8
    -4.8    -4.8    -4.8    -4.9    -4.8    -4.9    -4.8    -4.8    -4.8    -4.8
    -4.8    -4.8    -4.8    -4.9    -4.8    -4.8    -4.8    -4.8    -4.8    -4.8
    -4.8    -4.8    -4.8    -4.8    -4.8    -4.8    -4.9    -4.8    -4.9    -4.9
    -4.8    -4.8    -4.8    -4.8    -4.8    -4.9    -4.8    -4.8    -4.9    -4.8
    -4.8    -4.9    -4.8    -4.9    -4.8    -4.8    -4.9    -4.8    -4.8    -4.8
    -4.8    -4.9    -4.8    -4.8    -4.9    -4.8    -4.8    -4.8    -4.8    -4.8
    -4.8    -4.9    -4.8    -4.9    -4.8    -4.8    -4.8    -4.8    -4.8    -4.8
    -4.8    -4.8    -4.8    -4.8    -4.8    -4.9    -4.8    -4.8    -4.8    -4.8
    -4.9    -4.8    -4.8    -4.8    -4.9    -4.8    -4.8    -4.9    -4.8    -4.9
    -4.8    -4.8    -4.9    -4.8    -4.9    -4.8    -4.8    -4.9    -4.8    -4.9
    -4.8    -4.8    -4.8    -4.8    -4.9    -4.8    -4.8    -4.8    -4.8    -4.9
    -4.8    -4.8    -4.8    -4.8    -4.8    -4.8    -4.8    -4.9    -4.8    -4.8
    -4.8    -4.8    -4.8    -4.9    -4.8    -4.9    -4.9    -4.8    -4.8    -4.8
    -4.8    -4.9    -4.8    -4.8    -4.9    -4.8    -4.9    -4.8    -4.8    -4.9
    -4.8    -4.9    -4.8    -4.8    -4.9    -4.8    -4.9    -4.9    -4.8    -4.9
    -4.8    -4.8    -4.9    -4.8    -4.8    -4.9    -4.8    -4.8    -4.8    -4.8
    -4.8    -4.8    -4.8    -4.8    -4.9    -4.8    -4.8    -4.8    -4.8    -4.9
    -4.8    -4.9    -4.8    -4.9    -4.8    -4.8    -4.9    -4.8    -4.8    -4.8
    -4.8    -4.8    -4.8    -4.9    -4.9    -4.8    -4.8    -4.8    -4.8    -4.8
    -4.9    -4.8    -4.8    -4.8    -4.8    -4.9    -4.8    -4.8    -4.9    -4.8
    -4.8    -4.9    -4.8    -4.8    -4.8    -4.8    -4.9    -4.8    -4.8    -4.8
    -4.8    -4.9    -4.8    -4.8    -4.8    -4.9    -4.9    -4.8    -4.8    -4.8
    -4.8    -4.8    -4.8    -4.9    -4.8    -4.8    -4.9    -4.9    -4.8    -4.8
    -4.9    -4.8    -4.8    -4.8    -4.8    -4.8    -4.8    -4.8    -4.8    -4.8
    -4.8    -4.9    -4.8    -4.8    -4.8    -4.8    -4.8    -4.8    -4.9    -4.8
    -4.8    -4.8    -4.8    -4.9    -4.8    -4.8    -4.9    -4.8    -4.8    -4.8
    -4.8    -4.8    -4.8    -4.9    -4.8    -4.8    -4.8    -4.8    -4.8    -4.8
    -4.8    -4.8    -4.8    -4.9    -4.8    -4.8    -4.8    -4.8    -4.8    -4.8
    -4.8    -4.8    -4.8    -4.9    -4.8    -4.8    -4.8    -4.8    -4.8    -4.8
    -4.8    -4.8    -4.8    -4.8    -4.8    -4.8    -4.9    -4.8    -4.8    -4.9
    -4.8    -4.8    -4.8    -4.8    -4.8    -4.8    -4.8    -4.8    -4.8    -4.8
    -4.8    -4.8    -4.8    -4.8    -4.8    -4.8    -4.8    -4.8    -4.8    -4.8
    -4.8    -4.8    -4.8    -4.8    -4.8    -4.8    -4.8    -4.8    -4.8    -4.9
    -4.8    -4.8    -4.9    -4.8    -4.8    -4.9    -4.8    -4.8    -4.9    -4.8
    -4.8    -4.8    -4.8    -4.8    -4.8    -4.8    -4.9    -4.9    -4.8    -4.9
    -4.8    -4.8    -4.9    -4.8    -4.8    -4.8    -4.9    -4.8    -4.8    -4.8
    -4.8    -4.8    -4.8    -4.8    -4.9    -4.9    -4.9    -4.8    -4.9    -4.8
    -4.8    -4.9    -4.8    -4.9    -4.8    -4.8    -4.8    -4.8    -4.8    -4.9
    -4.8    -4.8    -4.9    -4.8    -4.8    -4.8    -4.8    -4.8    -4.8    -4.8
    -4.9    -4.8    -4.8    -4.8    -4.8    -4.8    -4.8    -4.8    -4.9    -4.8
    -4.9    -4.8    -4.8    -4.9    -4.8    -4.8    -4.8    -4.8    -4.8    -4.8
    -4.8    -4.8    -4.8    -4.9    -4.8    -4.9    -4.8    -4.8    -4.9    -4.8
    -4.9    -4.8    -4.8    -4.8    -4.8    -4.8    -4.8    -4.8    -4.9    -4.8
    -4.8    -4.8    -4.8    -4.8    -4.8    -4.8    -4.8    -4.8    -4.8    -4.8
    -4.8    -4.9    -4.8    -4.8    -4.8    -4.8    -4.8    -4.8    -4.8    -4.8
    -4.8    -4.8    -4.9    -4.8    -4.8    -4.8    -4.8    -4.8    -4.8    -4.8
    -4.9    -4.8    -4.8    -4.8    -4.8    -4.8    -4.8    -4.8    -4.9    -4.9
    -4.8    -4.8    -4.8    -4.9    -4.8    -4.9    -4.9    -4.8    -4.9    -4.8
    -4.8    -4.8    -4.8    -4.8    -4.8    -4.8    -4.8    -4.8    -4.8    -4.8
    -4.8    -4.8    -4.8    -4.8    -4.8    -4.9    -4.9    -4.8    -4.8    -4.8
    -4.9    -4.8    -4.9    -4.9    -4.8    -4.8    -4.8    -4.8    -4.8    -4.8
    -4.8    -4.8    -4.8    -4.8    -4.9    -4.8    -4.8    -4.8    -4.8    -4.8
    -4.8    -4.8    -4.9    -4.9    -4.8    -4.8    -4.8    -4.8    -4.9    -4.8
    -4.8    -4.8    -4.8    -4.8    -4.8    -4.8    -4.8    -4.8    -4.8    -4.9
    -4.8    -4.8    -4.8    -4.8    -4.9    -4.8    -4.8    -4.9    -4.8    -4.9
    -4.8    -4.8    -4.8    -4.8    -4.9    -4.8    -4.8    -4.8    -4.8    -4.9
    -4.8    -4.8    -4.8    -4.8    -4.8    -4.8    -4.9    -4.8    -4.8    -4.8
    -4.8    -4.8    -4.8    -4.8    -4.8    -4.8    -4.8    -4.8    -4.8    -4.8
    -4.9    -4.8    -4.9    -4.9    -4.9    -4.9    -4.8    -4.8    -4.9    -4.8
    -4.8    -4.9    -4.9    -4.8    -4.8    -4.9    -4.8    -4.8    -4.8    -4.8
    -4.8    -4.9    -4.9    -4.8    -4.8    -4.8    -4.8    -4.8    -4.9    -4.8
    -4.9    -4.8    -4.8    -4.8    -4.8    -4.8    -4.8    -4.8    -4.9    -4.8
    -4.8    -4.9    -4.8    -4.9    -4.9    -4.8    -4.9    -4.8    -4.8    -4.8
    -4.8    -4.8    -4.9    -4.9    -4.8    -4.8    -4.8    -4.8    -4.9    -4.8
    -4.8    -4.8    -4.8    -4.8    -4.8    -4.8    -4.8    -4.9    -4.8    -4.8
    -4.8    -4.8    -4.9    -4.8    -4.8    -4.8    -4.8    -4.9    -4.8    -4.8
