Uncorrected accelerogram 20161113_110256_WDFS_20 GNS Science
Site WDFS      41 49 39S  174 08 18E     Basalt file:  20161113_110320_WDFS
Ward Fire Station
Instrument Basalt_2408
Resolution: 24-bit   Instr Period: 0.0050 s   Damping: 0.700
Accelerogram 20161113_110256_WDFS_20                 Processed 2016 December 09
5 km south-west of Waiau
2016 November 13         11:02:56 UT
Epicentre  42 41 33S 173 01 19E  Bearing S43W  Dist  133km  Depth   15km Mw 7.82
Number of points  65536    Duration 327.68 s
Raw readings in units of 1.00 mm/s/s  at intervals of 0.005 s
Data is unfiltered
Component S12E
Acceleration:  Peak  12541.1 mm/s/s at  93.99 s     RMS   575.29 mm/s/s
Velocity record unevaluated
Displacement record unevaluated
    2016      11      13      11       2     560       0       0    2016      11
      42      41      33     173       1      19      15       0      13      11
      41      49      39     174       8      18     168     168     223     133
   65536       0       0   65536       0       0       0       0       2   40000
   200.0    0.70    0.00   0.000  0.0000   0.000   0.000   1.000     0.0    0.00
  41.827 174.138  42.693 173.022    7.82    0.00    0.00    0.00      0.      0.
  327.68    0.00    0.00  327.68  0.0050  0.0050      0.      0.      0.  9806.6
 12541.1   93.99   575.3      0.      0.     0.0    0.00     0.0     0.0   0.000
    0.00    0.00    0.00    0.00   0.000    0.00    0.00    0.00    0.00   0.000
   0.000   0.000   0.000      0.      0.   0.000   0.000   0.000      0.      0.
    -1.8    -1.9    -1.8    -1.8    -1.8    -1.8    -1.9    -1.9    -1.9    -1.9
    -1.9    -1.9    -1.9    -1.8    -1.8    -1.8    -1.8    -1.8    -1.9    -1.9
    -1.9    -1.9    -1.9    -1.8    -1.8    -1.8    -1.8    -1.8    -1.8    -1.9
    -1.9    -1.9    -1.9    -1.9    -1.9    -1.9    -1.9    -1.8    -1.8    -1.8
    -1.8    -1.8    -1.8    -1.8    -1.8    -1.9    -1.9    -1.9    -1.9    -1.9
    -1.9    -1.9    -1.9    -1.8    -1.8    -1.8    -1.8    -1.9    -1.8    -1.9
    -1.9    -1.9    -1.9    -1.9    -1.9    -1.9    -1.8    -1.8    -1.8    -1.8
    -1.8    -1.9    -1.9    -1.9    -1.9    -1.8    -1.8    -1.8    -1.8    -1.8
    -1.9    -1.8    -1.8    -1.9    -1.8    -1.9    -1.9    -1.9    -1.9    -1.8
    -1.9    -1.8    -1.9    -1.9    -1.8    -1.9    -1.9    -1.9    -1.9    -1.8
    -1.8    -1.8    -1.8    -1.8    -1.9    -1.9    -1.9    -1.9    -1.9    -1.9
    -1.8    -1.8    -1.8    -1.9    -1.8    -1.8    -1.8    -1.8    -1.9    -1.9
    -1.9    -1.9    -1.9    -1.9    -1.9    -1.9    -1.8    -1.8    -1.8    -1.8
    -1.8    -1.8    -1.8    -1.8    -1.9    -1.9    -1.9    -1.9    -1.9    -1.9
    -1.8    -1.9    -1.9    -1.8    -1.9    -1.9    -1.8    -1.8    -1.8    -1.8
    -1.8    -1.8    -1.8    -1.9    -1.9    -1.9    -1.9    -1.9    -1.9    -1.9
    -1.8    -1.8    -1.9    -1.8    -1.8    -1.9    -1.8    -1.8    -1.8    -1.8
    -1.8    -1.8    -1.9    -1.9    -1.9    -1.9    -1.9    -1.9    -1.9    -1.9
    -1.8    -1.8    -1.8    -1.8    -1.8    -1.8    -1.9    -1.9    -1.9    -1.9
    -1.9    -1.9    -1.9    -1.9    -1.8    -1.8    -1.8    -1.8    -1.8    -1.8
    -1.8    -1.8    -1.8    -1.8    -1.8    -1.9    -1.9    -1.9    -1.9    -1.8
    -1.9    -1.8    -1.8    -1.8    -1.7    -1.8    -1.8    -1.8    -1.9    -1.9
    -1.9    -1.8    -1.9    -1.9    -1.8    -1.9    -1.8    -1.8    -1.9    -1.9
    -1.9    -1.9    -1.9    -1.8    -1.8    -1.8    -1.8    -1.8    -1.8    -1.8
    -1.9    -1.9    -1.9    -1.9    -1.9    -1.9    -1.9    -1.9    -1.8    -1.8
    -1.8    -1.8    -1.8    -1.8    -1.8    -1.8    -1.9    -1.9    -1.9    -1.9
    -1.9    -1.9    -1.9    -1.9    -1.8    -1.8    -1.8    -1.8    -1.8    -1.8
    -1.8    -1.9    -1.9    -1.9    -1.9    -1.9    -1.9    -1.8    -1.9    -1.8
    -1.8    -1.8    -1.8    -1.8    -1.8    -1.8    -1.8    -1.8    -1.9    -1.9
    -1.9    -1.9    -1.9    -2.0    -1.9    -1.8    -1.9    -1.8    -1.8    -1.8
    -1.8    -1.8    -1.9    -1.9    -1.8    -1.8    -1.8    -1.8    -1.9    -1.9
    -1.9    -1.8    -1.8    -1.8    -1.8    -1.8    -1.8    -1.9    -1.9    -1.8
    -1.9    -1.8    -1.9    -1.8    -1.9    -1.9    -1.9    -1.9    -1.8    -1.8
    -1.8    -1.8    -1.9    -1.8    -1.9    -1.9    -1.8    -1.9    -1.9    -1.8
    -1.8    -1.9    -1.9    -1.9    -1.9    -1.8    -1.8    -1.8    -1.8    -1.9
    -1.8    -1.8    -1.9    -1.8    -1.9    -1.9    -1.8    -1.8    -1.9    -1.9
    -1.9    -1.9    -1.9    -1.8    -1.8    -1.8    -1.8    -1.8    -1.8    -1.9
    -1.9    -1.8    -1.9    -1.9    -1.9    -1.9    -1.8    -1.8    -1.8    -1.8
    -1.8    -1.8    -1.9    -1.8    -1.8    -1.9    -1.9    -1.9    -1.8    -1.9
    -1.9    -1.8    -1.9    -1.8    -1.8    -1.9    -1.9    -1.8    -1.9    -1.8
    -1.8    -1.8    -1.8    -1.9    -1.9    -1.9    -1.9    -1.9    -1.9    -1.9
    -1.9    -1.8    -1.8    -1.8    -1.8    -1.9    -1.8    -1.8    -1.9    -1.8
    -1.8    -1.9    -1.9    -1.9    -1.9    -1.9    -1.9    -1.7    -1.7    -1.8
    -2.0    -1.9    -1.9    -1.9    -1.8    -1.8    -1.8    -1.8    -1.8    -1.8
    -1.8    -1.8    -1.8    -1.8    -1.9    -1.9    -2.0    -2.0    -1.9    -1.9
    -1.9    -1.8    -1.8    -1.8    -1.7    -1.8    -1.8    -1.8    -1.9    -1.9
    -2.0    -1.9    -1.9    -1.9    -1.8    -1.9    -1.8    -1.8    -1.8    -1.8
    -1.8    -1.8    -1.9    -1.9    -1.8    -1.9    -1.9    -1.9    -1.9    -1.9
    -1.8    -1.8    -1.8    -1.8    -1.8    -1.8    -1.8    -1.8    -1.9    -1.9
    -1.9    -1.9    -1.9    -1.9    -1.9    -1.9    -1.8    -1.8    -1.8    -1.8
    -1.8    -1.8    -1.9    -1.9    -2.0    -2.0    -1.9    -1.9    -1.8    -1.8
    -1.8    -1.7    -1.8    -1.8    -1.8    -1.8    -1.9    -1.9    -1.9    -2.0
    -1.9    -1.9    -1.9    -1.8    -1.8    -1.8    -1.8    -1.8    -1.8    -1.8
    -1.9    -2.0    -1.9    -1.9    -1.9    -1.9    -1.8    -1.8    -1.8    -1.8
    -1.8    -1.8    -1.8    -1.9    -1.9    -1.9    -1.9    -1.9    -1.9    -1.9
    -1.8    -1.8    -1.9    -1.8    -1.8    -1.8    -1.8    -1.8    -1.9    -1.9
    -1.8    -1.9    -1.9    -1.8    -1.9    -1.9    -1.8    -1.9    -1.8    -1.8
    -1.8    -1.8    -1.8    -1.8    -1.8    -1.9    -1.9    -1.9    -1.9    -1.9
    -1.9    -1.8    -1.8    -1.8    -1.8    -1.9    -1.8    -1.9    -1.9    -1.9
    -1.9    -1.9    -1.9    -1.9    -1.9    -1.8    -1.8    -1.8    -1.8    -1.8
    -1.8    -1.9    -1.9    -1.8    -2.0    -1.9    -1.9    -1.9    -1.9    -1.8
    -1.8    -1.8    -1.8    -1.8    -1.8    -1.8    -1.9    -1.9    -1.9    -1.8
    -1.8    -1.9    -1.8    -1.9    -1.8    -1.8    -1.9    -1.8    -1.9    -1.8
    -1.8    -1.9    -1.9    -1.9    -1.9    -1.9    -1.9    -1.9    -1.8    -1.8
    -1.8    -1.8    -1.8    -1.8    -1.9    -1.9    -1.9    -1.9    -1.9    -1.9
    -1.8    -1.9    -1.9    -1.8    -1.8    -1.8    -1.8    -1.9    -1.8    -1.8
    -1.9    -1.9    -1.9    -1.9    -1.9    -1.9    -1.8    -1.8    -1.9    -1.9
    -1.8    -1.8    -1.9    -1.8    -1.8    -1.8    -1.9    -1.9    -1.9    -1.9
    -1.9    -1.9    -1.8    -1.8    -1.8    -1.8    -1.8    -1.8    -1.8    -1.9
    -1.9    -1.8    -1.9    -1.9    -1.9    -1.9    -1.8    -1.8    -1.8    -1.8
    -1.8    -1.9    -1.9    -1.9    -1.8    -1.9    -1.9    -1.8    -1.9    -1.8
    -1.8    -1.9    -1.8    -1.8    -1.8    -1.8    -1.8    -1.9    -1.9    -1.9
    -1.9    -1.9    -1.8    -1.8    -1.8    -1.8    -1.8    -1.8    -1.8    -1.8
    -1.9    -1.9    -1.9    -1.9    -1.9    -1.9    -1.8    -1.8    -1.8    -1.8
    -1.8    -1.8    -1.8    -1.9    -1.9    -1.9    -1.9    -1.9    -1.9    -1.9
    -1.9    -1.8    -1.9    -1.8    -1.8    -1.9    -1.8    -1.9    -1.8    -1.8
    -1.9    -1.9    -1.9    -1.9    -1.9    -1.8    -1.8    -1.9    -1.8    -1.9
    -1.9    -1.8    -1.8    -1.9    -1.9    -1.9    -1.9    -1.9    -1.9    -1.9
    -1.9    -1.8    -1.8    -1.8    -1.8    -1.9    -1.8    -1.9    -1.9    -1.9
    -1.9    -1.9    -1.9    -1.9    -1.9    -1.8    -1.8    -1.8    -1.8    -1.8
    -1.8    -1.9    -1.9    -1.9    -1.9    -1.9    -1.8    -1.9    -1.9    -1.8
    -1.9    -1.9    -1.8    -1.9    -1.8    -1.8    -1.8    -1.8    -1.8    -1.9
    -1.9    -1.9    -1.9    -1.9    -1.9    -1.9    -1.9    -1.8    -1.8    -1.8
    -1.8    -1.8    -1.8    -1.8    -1.9    -1.9    -1.9    -1.9    -1.9    -1.9
    -1.8    -1.8    -1.9    -1.8    -1.8    -1.9    -1.8    -1.9    -1.9    -1.9
    -1.9    -1.9    -1.9    -1.8    -1.9    -1.8    -1.8    -1.8    -1.8    -1.9
    -1.8    -1.9    -1.9    -1.8    -1.9    -1.8    -1.8    -1.8    -1.8    -1.9
    -1.8    -1.8    -1.8    -1.8    -1.9    -1.9    -1.9    -1.9    -1.9    -1.9
    -1.8    -1.9    -1.8    -1.8    -1.8    -1.8    -1.9    -1.8    -1.8    -1.9
    -1.9    -1.9    -1.8    -1.9    -1.8    -1.9    -1.8    -1.8    -1.9    -1.8
    -1.9    -1.9    -1.8    -1.9    -1.8    -1.9    -1.8    -1.8    -1.9    -1.8
    -1.8    -1.9    -1.9    -1.9    -1.9    -1.8    -1.9    -1.9    -1.8    -1.9
    -1.9    -1.8    -1.9    -1.8    -1.8    -1.8    -1.8    -1.8    -1.9    -1.9
    -1.9    -1.9    -1.9    -1.8    -1.8    -1.8    -1.8    -1.8    -1.8    -1.9
    -1.9    -1.9    -1.8    -1.9    -1.9    -1.9    -1.8    -1.8    -1.8    -1.8
    -1.8    -1.8    -1.9    -1.8    -1.9    -1.9    -1.9    -1.8    -1.9    -1.9
    -1.8    -1.9    -1.8    -1.8    -1.9    -1.8    -1.9    -1.9    -1.8    -1.8
    -1.9    -1.8    -1.9    -1.8    -1.8    -1.9    -1.8    -1.9    -1.8    -1.8
    -1.9    -1.9    -1.9    -1.8    -1.9    -1.9    -1.8    -1.9    -1.8    -1.8
    -1.8    -1.8    -1.9    -1.9    -1.9    -1.9    -1.8    -1.8    -1.8    -1.8
    -1.8    -1.8    -1.8    -1.8    -1.9    -1.8    -1.8    -1.9    -1.8    -1.9
    -1.9    -1.9    -1.9    -1.8    -1.8    -1.8    -1.8    -1.8    -1.8    -1.8
    -1.9    -1.9    -1.8    -1.9    -1.8    -1.9    -1.9    -1.9    -1.8    -1.9
    -1.8    -1.8    -1.9    -1.8    -1.8    -1.8    -1.8    -1.9    -1.9    -1.8
    -1.8    -1.8    -1.8    -1.8    -1.9    -1.8    -1.9    -1.9    -1.9    -1.9
    -1.8    -1.8    -1.8    -1.8    -1.8    -1.8    -1.9    -1.8    -1.9    -1.9
    -1.8    -1.8    -1.9    -1.9    -1.9    -1.8    -1.8    -1.8    -1.8    -1.9
    -1.8    -1.9    -1.8    -1.9    -1.9    -1.8    -1.8    -1.9    -1.8    -1.8
    -1.9    -1.8    -1.8    -1.8    -1.8    -1.8    -1.9    -1.9    -1.8    -1.8
    -1.9    -1.9    -1.9    -1.8    -1.8    -1.9    -1.9    -1.8    -1.8    -1.8
    -1.8    -1.8    -1.9    -1.8    -1.8    -1.9    -1.9    -1.9    -1.9    -1.9
    -1.8    -1.8    -1.8    -1.8    -1.8    -1.8    -1.9    -1.8    -1.8    -1.8
    -1.9    -1.9    -1.9    -1.9    -1.9    -1.9    -1.8    -1.9    -1.8    -1.8
    -1.8    -1.8    -1.8    -1.9    -1.9    -1.8    -1.9    -1.9    -1.9    -1.9
    -1.8    -1.9    -1.8    -1.8    -1.8    -1.8    -1.8    -1.8    -1.9    -1.9
    -1.9    -1.9    -1.9    -1.8    -1.8    -1.8    -1.8    -1.8    -1.8    -1.8
    -1.9    -1.8    -1.9    -1.9    -1.9    -1.9    -1.8    -1.9    -1.8    -1.8
    -1.9    -1.8    -1.8    -1.8    -1.9    -1.9    -1.8    -1.8    -1.8    -1.8
    -1.9    -1.9    -1.8    -1.9    -1.9    -1.8    -1.8    -1.8    -1.8    -1.8
    -1.8    -1.9    -1.9    -1.9    -1.9    -1.8    -1.9    -1.8    -1.9    -1.9
    -1.8    -1.8    -1.8    -1.8    -1.8    -1.8    -1.8    -1.8    -1.9    -1.8
    -1.9    -1.9    -1.8    -1.9    -1.8    -1.9    -1.9    -1.8    -1.9    -1.8
    -1.8    -1.8    -1.8    -1.9    -1.8    -1.9    -1.8    -1.9    -1.9    -1.8
    -1.9    -1.8    -1.8    -1.9    -1.9    -1.9    -1.8    -1.9    -1.9    -1.9
    -1.9    -1.8    -1.9    -1.8    -1.8    -1.8    -1.8    -1.9    -1.9    -1.8
    -1.8    -1.9    -1.9    -1.9    -1.9    -1.9    -1.9    -1.9    -1.9    -1.8
    -1.8    -1.9    -1.8    -1.8    -1.9    -1.9    -1.9    -1.9    -1.9    -1.9
    -1.9    -1.8    -1.8    -1.9    -1.8    -1.9    -1.9    -1.9    -1.9    -1.9
    -1.8    -1.9    -1.9    -1.9    -1.8    -1.8    -1.9    -1.8    -1.8    -1.9
    -1.8    -1.9    -1.9    -1.9    -1.9    -1.8    -1.9    -1.8    -1.8    -1.9
    -1.9    -1.9    -1.9    -1.8    -1.8    -1.8    -1.8    -1.9    -1.8    -1.9
    -1.9    -1.8    -1.8    -1.8    -1.9    -1.9    -1.9    -1.9    -1.9    -1.9
    -1.8    -1.9    -1.9    -1.9    -1.9    -1.9    -1.9    -1.8    -1.8    -1.8
    -1.8    -1.9    -1.9    -1.8    -1.9    -1.9    -1.9    -1.9    -1.9    -1.8
    -1.8    -1.8    -1.9    -1.9    -1.9    -1.9    -1.8    -1.9    -1.8    -1.8
    -1.9    -1.8    -1.9    -1.9    -1.9    -1.9    -1.9    -1.8    -1.8    -1.8
    -1.9    -1.9    -1.8    -1.9    -1.9    -1.8    -1.8    -1.8    -1.8    -1.8
    -1.9    -1.9    -1.9    -1.9    -1.9    -1.9    -1.9    -1.8    -1.8    -1.9
    -1.8    -1.8    -1.8    -1.8    -1.8    -1.8    -1.9    -1.9    -1.9    -1.8
    -1.9    -1.8    -1.9    -1.9    -1.8    -1.9    -1.9    -1.8    -1.9    -1.8
    -1.8    -1.8    -1.8    -1.8    -1.8    -1.9    -1.9    -1.8    -1.9    -1.9
    -1.9    -1.9    -1.8    -1.8    -1.9    -1.8    -1.9    -1.9    -1.9    -1.9
    -1.8    -1.9    -1.8    -1.9    -1.9    -1.8    -1.8    -1.8    -1.9    -1.8
    -1.8    -1.8    -1.8    -1.8    -1.8    -1.9    -1.9    -1.9    -1.9    -1.9
    -1.9    -1.9    -1.8    -1.9    -1.9    -1.9    -1.8    -1.8    -1.8    -1.8
    -1.8    -1.9    -1.9    -1.9    -1.8    -1.8    -1.8    -1.8    -1.8    -1.8
    -1.9    -1.9    -1.9    -1.9    -1.8    -1.8    -1.8    -1.8    -1.8    -1.8
    -1.8    -1.8    -1.9    -1.9    -1.9    -1.9    -1.8    -1.8    -1.9    -1.8
    -1.8    -1.8    -1.8    -1.9    -1.9    -1.8    -1.8    -1.8    -1.8    -1.9
    -1.9    -1.9    -1.9    -1.8    -1.9    -1.8    -1.8    -1.8    -1.8    -1.9
    -1.8    -1.9    -1.8    -1.8    -1.8    -1.9    -1.8    -1.8    -1.9    -1.9
    -1.8    -1.9    -1.9    -1.9    -1.8    -1.9    -1.9    -1.8    -1.9    -1.9
    -1.8    -1.9    -1.8    -1.8    -1.9    -1.8    -1.9    -1.9    -1.9    -1.9
    -1.8    -1.9    -1.9    -1.8    -1.8    -1.8    -1.8    -1.8    -1.9    -1.8
    -1.8    -1.9    -1.9    -1.9    -1.9    -1.8    -1.9    -1.9    -1.8    -1.9
    -1.8    -1.7    -1.8    -1.9    -1.9    -1.9    -1.9    -1.9    -1.9    -1.9
    -1.8    -1.9    -1.8    -1.8    -1.8    -1.8    -1.9    -1.8    -1.9    -1.9
    -1.8    -1.9    -1.9    -1.8    -1.9    -1.8    -1.9    -1.9    -1.8    -1.9
    -1.8    -1.9    -1.9    -1.9    -1.9    -1.9    -1.9    -1.8    -1.8    -1.8
    -1.8    -1.9    -1.8    -1.9    -1.8    -1.8    -1.8    -1.9    -1.9    -1.9
    -1.9    -1.9    -1.9    -1.8    -1.8    -1.8    -1.8    -1.9    -1.8    -1.8
    -1.8    -1.9    -1.9    -1.9    -1.9    -1.8    -1.9    -1.9    -1.9    -1.9
    -1.9    -1.9    -1.8    -1.9    -1.8    -1.9    -1.9    -1.8    -1.9    -1.8
    -1.9    -1.8    -1.8    -1.8    -1.8    -1.9    -1.9    -1.9    -1.9    -1.9
    -1.9    -1.9    -1.9    -1.9    -1.8    -1.8    -1.8    -1.8    -1.8    -1.8
    -1.8    -1.8    -1.9    -1.9    -1.9    -1.9    -1.9    -1.9    -1.9    -1.9
    -1.8    -1.8    -1.9    -1.8    -1.9    -1.8    -1.8    -1.8    -1.8    -1.9
    -1.9    -1.9    -1.9    -1.9    -1.9    -1.9    -1.9    -1.8    -1.8    -1.8
    -1.8    -1.9    -1.8    -1.9    -1.8    -1.9    -1.9    -1.9    -1.9    -1.9
    -1.8    -1.9    -1.8    -1.8    -1.9    -1.8    -1.9    -1.8    -1.8    -1.8
    -1.8    -1.9    -1.9    -1.9    -1.9    -1.9    -1.9    -1.9    -1.8    -1.9
    -1.8    -1.8    -1.9    -1.8    -1.9    -1.9    -1.8    -1.8    -1.8    -1.9
    -1.8    -1.9    -1.8    -1.9    -1.9    -1.8    -1.9    -1.9    -1.8    -1.9
    -1.9    -1.9    -1.9    -1.9    -1.9    -1.8    -1.8    -1.8    -1.8    -1.8
    -1.9    -1.9    -1.8    -1.9    -1.9    -1.8    -1.9    -1.9    -1.9    -1.9
    -1.9    -1.9    -1.8    -1.9    -1.8    -1.8    -1.9    -1.8    -1.9    -1.9
    -1.8    -1.9    -1.9    -1.9    -1.9    -1.8    -1.8    -1.8    -1.9    -1.9
    -1.9    -1.9    -1.9    -1.8    -1.9    -1.9    -1.8    -1.8    -1.9    -1.8
    -1.8    -1.9    -1.9    -1.8    -1.9    -1.9    -1.8    -1.8    -1.8    -1.8
    -1.8    -1.8    -1.9    -1.9    -1.9    -1.9    -1.9    -1.9    -1.9    -1.9
    -1.8    -1.8    -1.9    -1.8    -1.8    -1.8    -1.9    -1.9    -1.9    -1.9
    -1.8    -1.8    -1.8    -1.8    -1.8    -1.8    -1.8    -1.8    -1.9    -1.9
    -1.9    -1.9    -1.9    -1.8    -1.9    -1.9    -1.9    -1.8    -1.8    -1.9
    -1.8    -1.8    -1.8    -1.8    -1.8    -1.8    -1.9    -1.9    -1.9    -2.0
    -1.9    -1.8    -1.9    -1.8    -1.8    -1.8    -1.8    -1.8    -1.8    -1.8
    -1.9    -1.9    -1.9    -1.9    -1.8    -1.8    -1.8    -1.9    -1.9    -1.8
    -1.8    -1.8    -1.9    -1.9    -1.9    -1.9    -1.9    -1.9    -1.9    -1.9
    -1.9    -1.9    -1.8    -1.8    -1.8    -1.8    -1.8    -1.8    -1.8    -1.9
    -1.9    -1.9    -1.9    -1.9    -1.9    -1.9    -1.8    -1.8    -1.9    -1.8
    -1.8    -1.8    -1.8    -1.8    -1.8    -1.8    -1.9    -1.9    -1.9    -1.9
    -1.9    -1.9    -1.9    -1.8    -1.8    -1.8    -1.8    -1.8    -1.9    -1.9
    -1.9    -1.8    -1.8    -1.9    -1.8    -1.8    -1.8    -1.8    -1.8    -1.8
    -1.9    -1.9    -1.8    -1.9    -1.9    -1.9    -1.9    -1.9    -1.9    -1.8
    -1.8    -1.8    -1.8    -1.9    -1.8    -1.7    -1.8    -1.8    -1.8    -1.9
    -1.9    -1.9    -1.9    -1.9    -1.9    -1.9    -1.9    -1.9    -1.8    -1.8
    -1.8    -1.8    -1.9    -1.9    -1.8    -1.8    -1.8    -1.8    -1.8    -1.8
    -1.8    -1.8    -1.9    -1.9    -1.9    -1.9    -1.9    -1.8    -1.9    -1.8
    -1.8    -1.8    -1.8    -1.8    -1.8    -1.8    -1.8    -1.8    -1.9    -1.9
    -1.9    -1.9    -1.9    -1.9    -1.8    -1.8    -1.8    -1.8    -1.8    -1.8
    -1.8    -1.8    -1.9    -1.9    -1.9    -1.9    -1.9    -1.9    -1.9    -1.8
    -1.8    -1.8    -1.7    -1.8    -1.8    -1.8    -1.9    -1.9    -1.9    -1.9
    -1.9    -1.9    -1.8    -1.8    -1.8    -1.8    -1.8    -1.8    -1.8    -1.8
    -1.8    -1.8    -1.8    -1.8    -1.8    -1.8    -1.9    -1.9    -1.9    -1.9
    -1.9    -1.9    -1.9    -1.8    -1.8    -1.8    -1.8    -1.9    -1.9    -1.8
    -1.8    -1.8    -1.8    -1.8    -1.8    -1.8    -1.8    -1.8    -1.9    -1.9
    -2.0    -1.9    -1.9    -1.9    -1.8    -1.9    -1.8    -1.8    -1.8    -1.8
    -1.9    -1.8    -1.9    -1.9    -1.8    -1.8    -1.9    -1.9    -1.8    -1.9
    -1.8    -1.8    -1.9    -1.9    -1.8    -1.9    -1.9    -1.9    -1.9    -1.8
    -1.8    -1.8    -1.8    -1.8    -1.8    -1.8    -1.8    -1.9    -1.9    -1.9
    -1.9    -1.9    -1.9    -1.8    -1.9    -1.9    -1.8    -1.9    -1.8    -1.8
    -1.9    -1.8    -1.9    -1.9    -1.9    -1.9    -1.9    -1.9    -1.8    -1.9
    -1.9    -1.8    -1.8    -1.8    -1.8    -1.9    -1.8    -1.8    -1.8    -1.8
    -1.8    -1.9    -1.8    -1.9    -1.9    -1.8    -2.0    -1.9    -1.9    -1.9
    -1.8    -1.8    -1.8    -1.8    -1.8    -1.8    -1.8    -1.8    -1.8    -1.8
    -1.9    -1.9    -1.9    -1.9    -1.9    -1.9    -1.9    -1.8    -1.8    -1.8
    -1.8    -1.8    -1.8    -1.8    -1.8    -1.8    -1.9    -1.9    -1.9    -1.9
    -1.9    -1.9    -1.9    -1.9    -1.8    -1.8    -1.8    -1.8    -1.8    -1.9
    -1.9    -1.9    -1.9    -1.9    -1.9    -1.9    -1.8    -1.8    -1.8    -1.8
    -1.8    -1.8    -1.9    -1.9    -1.9    -1.9    -1.9    -1.9    -1.8    -1.8
    -1.8    -1.8    -1.8    -1.9    -1.8    -1.9    -1.9    -1.8    -1.9    -1.8
    -1.9    -1.8    -1.8    -1.9    -1.9    -1.9    -1.9    -1.8    -1.8    -1.9
    -1.9    -1.9    -1.9    -1.9    -1.9    -1.9    -1.9    -1.9    -1.9    -1.8
    -1.8    -1.8    -1.8    -1.9    -1.9    -1.9    -1.9    -1.9    -1.9    -1.9
    -1.9    -1.9    -1.9    -1.8    -1.8    -1.9    -1.9    -1.8    -1.8    -1.8
    -1.8    -1.8    -1.9    -1.9    -1.9    -1.8    -1.9    -1.9    -1.8    -1.9
    -1.9    -1.9    -1.9    -1.9    -1.9    -1.9    -1.8    -1.9    -1.9    -1.8
    -1.8    -1.9    -1.8    -1.8    -1.9    -1.8    -1.9    -1.9    -1.9    -1.9
