Uncorrected accelerogram 20161113_110256_PFAS_20 GNS Science
Site PFAS      41 08 19S  174 50 46E     Cusp file:  20161113_110333_PFAS
Porirua Free Ambulance Depot
Instrument Cusp_42228
Resolution: 18-bit   Instr Period: 0.0050 s   Damping: 0.700
Accelerogram 20161113_110256_PFAS_20                 Processed 2016 December 09
5 km south-west of Waiau
2016 November 13         11:02:56 UT
Epicentre  42 41 33S 173 01 19E  Bearing S41W  Dist  230km  Depth   15km Mw 7.82
Number of points  41930    Duration 209.65 s
Raw readings in units of 1.00 mm/s/s  at intervals of 0.005 s
Data is unfiltered
Component N73E
Acceleration:  Peak   -691.0 mm/s/s at 106.65 s     RMS    63.50 mm/s/s
Velocity record unevaluated
Displacement record unevaluated
    2016      11      13      11       2     560       0       0    2016      11
      42      41      33     173       1      19      15       0      13      11
      41       8      19     174      50      46      73      73     221     230
   41930       0       0   41930       0       0       0       0       2   53086
   200.0    0.70    0.00   0.000  0.0000   0.000   0.000   1.000     0.0    0.00
  41.138 174.846  42.693 173.022    7.82    0.00    0.00    0.00      0.      0.
  209.65    0.00    0.00  209.65  0.0050  0.0050      0.      0.      0.  9806.6
  -691.0  106.65    63.5      0.      0.     0.0    0.00     0.0     0.0   0.000
    0.00    0.00    0.00    0.00   0.000    0.00    0.00    0.00    0.00   0.000
   0.000   0.000   0.000      0.      0.   0.000   0.000   0.000      0.      0.
     0.2     0.2     0.0    -0.0     0.0     0.1     0.2     0.1     0.1     0.1
     0.0     0.1     0.3     0.1     0.0     0.2     0.1     0.1     0.1     0.1
     0.2     0.1     0.2     0.0    -0.1     0.2     0.2     0.1     0.3     0.1
    -0.0     0.1     0.1     0.0     0.0     0.0     0.3     0.3     0.1     0.0
     0.2     0.1    -0.1    -0.1     0.0     0.1     0.2     0.1     0.1     0.2
     0.1     0.2     0.0     0.0     0.1     0.1     0.1     0.1     0.2     0.2
    -0.1     0.0    -0.1    -0.2     0.1     0.1     0.0     0.0     0.0     0.1
     0.1     0.1     0.2     0.1    -0.1    -0.1     0.1     0.1     0.1     0.2
     0.1     0.2     0.3     0.0    -0.0     0.0    -0.0    -0.0     0.0     0.1
     0.2     0.2     0.1     0.1     0.2    -0.0    -0.1    -0.1    -0.0     0.2
     0.2     0.0     0.1    -0.0    -0.0     0.2    -0.1    -0.0     0.2     0.0
     0.0     0.1     0.1     0.2     0.1     0.0    -0.0    -0.0     0.1     0.0
    -0.0     0.1     0.1     0.1    -0.0    -0.0     0.0    -0.1    -0.1     0.1
     0.1     0.1     0.1     0.1    -0.0    -0.1     0.0     0.0     0.1     0.0
     0.0     0.1     0.2     0.2     0.0     0.0     0.1     0.0    -0.0    -0.0
     0.0     0.1     0.2     0.2     0.2     0.2     0.1    -0.0    -0.1     0.1
     0.0    -0.2    -0.2    -0.1     0.1     0.2     0.1     0.1     0.2    -0.1
     0.0     0.3     0.0     0.0     0.0    -0.0     0.1     0.1     0.0     0.0
     0.1     0.2     0.1    -0.0    -0.0     0.0     0.1    -0.0     0.0     0.1
     0.0    -0.1    -0.1     0.1     0.0     0.1     0.0    -0.1    -0.0    -0.2
    -0.0    -0.0    -0.2     0.2    -0.1    -0.2     0.0     0.0     0.0    -0.1
    -0.1     0.0     0.0     0.1    -0.1     0.0     0.0    -0.1     0.0    -0.2
    -0.2     0.0    -0.1    -0.0     0.1     0.0     0.1     0.1     0.1     0.0
    -0.1     0.1     0.1    -0.0     0.1     0.2     0.2     0.0    -0.1     0.1
     0.0    -0.1    -0.0    -0.0     0.1    -0.1    -0.1     0.0    -0.0    -0.0
    -0.1     0.0     0.2     0.1     0.1     0.1     0.1     0.1     0.0     0.1
     0.1    -0.2    -0.2     0.1     0.1     0.1     0.2     0.1     0.1     0.2
     0.1    -0.1    -0.1    -0.1    -0.0     0.1     0.1     0.1     0.0     0.1
     0.1     0.0    -0.1    -0.3    -0.2    -0.1    -0.1     0.0     0.0    -0.1
    -0.1    -0.0    -0.0    -0.0     0.0    -0.2     0.0     0.3     0.0    -0.1
    -0.0    -0.0    -0.1    -0.2     0.0    -0.0     0.0     0.1    -0.0     0.1
     0.2    -0.0    -0.0    -0.1    -0.1     0.0    -0.0     0.2     0.3     0.1
     0.1     0.2     0.2     0.1    -0.1     0.1     0.3     0.1     0.2     0.1
    -0.0     0.1     0.2     0.2    -0.1    -0.2     0.0     0.1     0.2     0.1
     0.0     0.1     0.1     0.1    -0.1    -0.1    -0.1    -0.2     0.1     0.1
     0.1     0.2     0.0     0.1     0.1    -0.0    -0.1     0.0     0.0    -0.1
    -0.1    -0.1    -0.1    -0.2    -0.1     0.0    -0.1    -0.0    -0.1     0.1
     0.2     0.1     0.3     0.1    -0.0     0.0    -0.0     0.0     0.1     0.1
     0.1     0.0     0.0     0.2     0.1     0.0     0.1    -0.0     0.0     0.1
    -0.1    -0.0    -0.0    -0.2    -0.1    -0.1    -0.2    -0.2    -0.2    -0.2
    -0.0     0.0     0.1     0.1     0.1     0.1     0.2     0.0    -0.0     0.0
     0.1     0.1     0.0    -0.1    -0.1     0.0     0.1    -0.1     0.0    -0.0
    -0.2     0.1     0.1     0.1     0.0    -0.0     0.2     0.1    -0.1    -0.1
    -0.0     0.1    -0.1    -0.1     0.0    -0.1     0.1     0.1    -0.1    -0.0
     0.1     0.1     0.1    -0.0    -0.1    -0.1     0.1     0.3     0.0    -0.1
     0.1     0.0    -0.0     0.1     0.0    -0.0    -0.1     0.1     0.1    -0.2
    -0.1     0.0    -0.1    -0.1    -0.1     0.0     0.0     0.0     0.1    -0.0
    -0.1    -0.1    -0.0     0.1     0.2     0.1     0.2     0.4     0.0    -0.2
    -0.1     0.0    -0.1    -0.0     0.2     0.1    -0.0    -0.1     0.1     0.1
     0.1     0.2    -0.0    -0.0     0.0    -0.1     0.1     0.1    -0.1     0.1
     0.0    -0.2    -0.1     0.0     0.1    -0.0     0.0     0.0    -0.0     0.0
    -0.0    -0.0    -0.1    -0.1    -0.0     0.0    -0.1    -0.1    -0.0     0.1
     0.3    -0.0    -0.2    -0.0    -0.0    -0.0     0.1     0.1     0.1     0.0
    -0.0    -0.0    -0.0     0.1     0.1     0.1     0.3     0.1    -0.0     0.1
     0.2    -0.0    -0.1     0.2     0.0     0.0    -0.1    -0.0     0.3    -0.1
    -0.3    -0.2     0.1     0.1    -0.2     0.3     0.4     0.1    -0.0    -0.1
     0.2     0.1     0.1     0.1    -0.1     0.2    -0.1    -0.0     0.0    -0.2
     0.2     0.1    -0.0     0.1     0.1    -0.0    -0.1    -0.1     0.1     0.2
     0.1    -0.0    -0.1    -0.1    -0.1    -0.1    -0.2     0.0     0.3     0.0
     0.0     0.2     0.2     0.1    -0.1    -0.2    -0.2    -0.2     0.0     0.1
     0.0     0.1    -0.1    -0.1     0.0    -0.0    -0.0     0.0    -0.1    -0.0
     0.1     0.1    -0.1    -0.0     0.3     0.1     0.0    -0.1    -0.2     0.1
     0.1     0.1     0.1     0.1     0.3     0.2    -0.1     0.0     0.1     0.1
     0.2     0.0    -0.0     0.1     0.0    -0.0     0.3     0.2    -0.0     0.2
     0.3     0.2     0.2     0.2     0.1    -0.0     0.1    -0.1    -0.2    -0.1
     0.0     0.1    -0.1    -0.1     0.1     0.2    -0.0    -0.0     0.1    -0.0
     0.1     0.2     0.1     0.2     0.1     0.1    -0.0    -0.2     0.0     0.1
    -0.0    -0.0     0.1     0.1     0.1    -0.0    -0.0     0.0    -0.0    -0.1
    -0.1    -0.1     0.0     0.1    -0.0     0.0     0.1     0.1     0.1    -0.0
     0.0     0.1     0.1     0.2     0.2     0.2     0.1    -0.0     0.0     0.0
    -0.0     0.1    -0.0    -0.1     0.1    -0.0    -0.2    -0.2    -0.1    -0.0
     0.0    -0.2    -0.1     0.1     0.0     0.1    -0.1    -0.1     0.1    -0.0
    -0.0    -0.0     0.0    -0.1    -0.1     0.1    -0.0     0.0     0.3     0.1
    -0.2    -0.0    -0.0    -0.0    -0.1    -0.1     0.3    -0.0    -0.1     0.2
     0.0    -0.0    -0.1    -0.2     0.0     0.1     0.0    -0.1     0.1     0.1
    -0.0    -0.1    -0.1    -0.1    -0.1     0.1     0.0    -0.1     0.1     0.1
     0.2     0.0     0.0     0.1     0.1     0.2     0.0     0.1     0.2    -0.1
     0.1     0.2    -0.1    -0.0    -0.0    -0.1     0.1     0.2     0.1     0.1
     0.1    -0.0    -0.0     0.1     0.0     0.0    -0.1     0.0     0.0     0.1
     0.2     0.1     0.0     0.1    -0.1    -0.1     0.1     0.1     0.1     0.1
     0.2     0.2     0.1     0.0    -0.0    -0.0    -0.2     0.0     0.3    -0.0
    -0.0     0.1     0.2     0.2     0.0     0.1    -0.1    -0.1     0.2     0.2
     0.2     0.0    -0.0     0.2     0.1    -0.1     0.0     0.1     0.1     0.2
     0.1     0.0    -0.0    -0.0     0.1     0.1     0.1    -0.1    -0.1     0.1
     0.2     0.1     0.0    -0.1    -0.0     0.2     0.1    -0.0     0.1     0.2
     0.1     0.0     0.2     0.2     0.2     0.1     0.0     0.2     0.2     0.1
     0.1     0.2     0.0    -0.1    -0.1    -0.3     0.1     0.0    -0.1     0.3
     0.1     0.2     0.2    -0.1     0.2     0.1    -0.2     0.1     0.0    -0.2
     0.1     0.2     0.2     0.2    -0.0    -0.1     0.0    -0.0    -0.2    -0.1
    -0.1     0.2     0.4     0.1     0.2     0.3    -0.0    -0.3    -0.2    -0.0
     0.1     0.3     0.1    -0.0     0.1    -0.0    -0.2    -0.4    -0.3    -0.2
    -0.3    -0.0     0.1     0.2     0.4     0.2     0.0     0.0    -0.0    -0.1
    -0.2    -0.1     0.1     0.2     0.2     0.1     0.1     0.0    -0.2    -0.1
    -0.0    -0.1     0.0     0.2     0.2     0.3     0.3     0.2     0.0    -0.1
    -0.2    -0.1    -0.0    -0.0     0.1     0.0     0.1     0.2     0.2    -0.0
    -0.1    -0.1    -0.1    -0.1     0.2     0.2     0.1     0.2     0.2    -0.1
    -0.1    -0.2    -0.2     0.0     0.1     0.1     0.1     0.1     0.1     0.0
    -0.1    -0.2    -0.2    -0.1    -0.1    -0.0     0.1     0.1     0.2     0.2
     0.0    -0.0    -0.0    -0.2    -0.1    -0.0    -0.0     0.0     0.1    -0.0
    -0.1     0.0    -0.0     0.1     0.1     0.0    -0.0     0.0     0.1     0.2
     0.1     0.1     0.1     0.0    -0.1    -0.3    -0.2    -0.0     0.1     0.1
     0.0     0.1     0.1     0.1     0.1    -0.0     0.2     0.2     0.0     0.1
    -0.0    -0.1    -0.1    -0.1     0.1    -0.0     0.0    -0.1    -0.2     0.1
     0.1     0.1    -0.1    -0.1     0.1    -0.1     0.1     0.3    -0.0     0.0
     0.2     0.2     0.2    -0.0     0.1    -0.0    -0.1     0.0    -0.0     0.0
     0.2     0.2     0.1     0.1    -0.1    -0.0     0.1     0.1     0.2     0.1
     0.0     0.2    -0.0    -0.2    -0.0    -0.1    -0.1    -0.0     0.1     0.1
    -0.0    -0.1     0.0     0.1     0.2     0.0    -0.1     0.0     0.1     0.2
     0.0    -0.0     0.1     0.1     0.1     0.1     0.2     0.1    -0.0     0.1
     0.2     0.2     0.1    -0.0     0.2     0.1    -0.1     0.1     0.1     0.1
     0.0    -0.0     0.1     0.1     0.1     0.0    -0.0     0.0     0.0     0.1
     0.2     0.2     0.1     0.1     0.2     0.2     0.2    -0.0    -0.1     0.1
     0.0     0.1     0.2     0.2     0.1    -0.0     0.1     0.3     0.0    -0.1
     0.2     0.2     0.3     0.4     0.3    -0.0    -0.1     0.1     0.1     0.1
     0.1     0.0     0.0    -0.0     0.0     0.2     0.1    -0.0     0.0    -0.1
     0.1     0.1     0.0     0.2     0.0    -0.1     0.1     0.1     0.0    -0.0
     0.1     0.1    -0.0     0.1     0.2     0.2     0.2     0.1     0.0    -0.1
    -0.2    -0.1     0.1     0.1     0.1     0.2    -0.0    -0.1     0.0    -0.1
    -0.1    -0.1    -0.1     0.1     0.2     0.2     0.2     0.1     0.0     0.1
     0.1     0.1     0.2     0.0    -0.1     0.0     0.2     0.2     0.0     0.1
     0.1     0.1     0.1     0.1     0.3     0.2     0.2     0.3     0.2     0.3
     0.2     0.1     0.1     0.1     0.2     0.2     0.1    -0.1    -0.0     0.0
    -0.1    -0.0     0.0     0.1     0.1    -0.0     0.1     0.2     0.1     0.2
     0.1    -0.0     0.1    -0.1    -0.0     0.1    -0.0     0.1     0.1     0.0
     0.1     0.1     0.0     0.0    -0.1    -0.1     0.1     0.1     0.0     0.1
     0.1     0.0     0.0    -0.1    -0.1    -0.0     0.0     0.3     0.2    -0.0
    -0.1    -0.1    -0.0     0.0     0.0     0.0     0.0     0.2     0.2    -0.1
    -0.1     0.0     0.1    -0.1    -0.1     0.2     0.1     0.1     0.1    -0.1
     0.1     0.2     0.1    -0.0     0.0     0.1     0.0     0.1     0.1     0.2
     0.1    -0.1     0.1    -0.0    -0.0     0.0     0.0     0.1     0.1     0.2
     0.0    -0.0     0.2     0.1    -0.0     0.1     0.1     0.1    -0.1    -0.1
     0.1     0.1     0.1    -0.1     0.0     0.2     0.0     0.1     0.1     0.0
    -0.1     0.0     0.2     0.1     0.1    -0.1     0.0     0.2    -0.0     0.1
     0.2     0.1     0.2     0.1     0.1     0.1    -0.1    -0.0    -0.0    -0.2
    -0.1     0.1     0.1     0.1     0.1    -0.0    -0.2    -0.0     0.0     0.2
     0.2     0.1     0.1    -0.0     0.1     0.1    -0.1    -0.0    -0.0    -0.0
    -0.1     0.0     0.2     0.1    -0.0    -0.0     0.1     0.2    -0.1     0.0
     0.2     0.1     0.1     0.1     0.1     0.2     0.0    -0.1     0.0     0.0
     0.1     0.1     0.1     0.2     0.1    -0.2    -0.0    -0.0    -0.1    -0.1
    -0.1     0.1     0.0    -0.1    -0.0    -0.1     0.0     0.2    -0.0    -0.0
    -0.0     0.0     0.2     0.1    -0.0    -0.1    -0.0     0.1    -0.0     0.1
     0.1    -0.0     0.2     0.2     0.2     0.2     0.1     0.1     0.0     0.1
    -0.0    -0.1     0.1     0.2     0.1     0.0     0.2     0.1    -0.2     0.1
     0.1    -0.1    -0.0    -0.1     0.1     0.2    -0.0    -0.1    -0.3    -0.3
     0.0     0.2    -0.1    -0.1    -0.0    -0.0     0.1     0.0    -0.0     0.0
    -0.0    -0.1    -0.1     0.0     0.0     0.0     0.1    -0.0    -0.0     0.1
    -0.0    -0.0     0.1    -0.0    -0.0     0.0    -0.1     0.2     0.2     0.1
     0.1    -0.2     0.0     0.3     0.1     0.1     0.1     0.0     0.0    -0.0
     0.0    -0.1    -0.2    -0.0     0.0     0.0     0.1     0.2     0.1     0.0
     0.1     0.0    -0.2    -0.0     0.1    -0.1    -0.1     0.2     0.1     0.0
     0.0    -0.1    -0.2     0.0     0.0    -0.1    -0.1     0.0     0.1     0.1
     0.0     0.1     0.0    -0.1     0.1    -0.0     0.0     0.2    -0.1    -0.1
     0.0    -0.1    -0.1    -0.0     0.0     0.0    -0.0    -0.0    -0.0    -0.0
     0.0    -0.0    -0.1    -0.1    -0.1    -0.1    -0.1     0.0     0.0     0.0
     0.0    -0.0    -0.0    -0.2    -0.1    -0.0     0.0     0.0    -0.1     0.0
    -0.0     0.0     0.1     0.1     0.1    -0.1    -0.2     0.1     0.1     0.1
     0.1     0.2     0.2     0.1     0.0    -0.1    -0.1     0.2     0.1     0.0
     0.1    -0.0     0.1     0.1    -0.2    -0.1    -0.1    -0.2    -0.1     0.2
     0.1     0.0     0.1     0.1     0.1    -0.1    -0.1     0.1     0.1     0.1
     0.1     0.1     0.1     0.1     0.1     0.2     0.0    -0.1    -0.1    -0.0
     0.1     0.2     0.1    -0.1    -0.1     0.2     0.0     0.1     0.2     0.0
     0.1     0.1     0.1     0.2     0.1    -0.1    -0.0    -0.1    -0.1     0.0
    -0.1    -0.1     0.1    -0.0    -0.1    -0.2    -0.1    -0.0    -0.2    -0.1
    -0.1    -0.1    -0.0     0.1    -0.1    -0.1    -0.0    -0.0    -0.0    -0.0
    -0.1    -0.1    -0.0    -0.1    -0.1    -0.1    -0.2     0.1    -0.0    -0.1
     0.1     0.0     0.2     0.1    -0.2     0.1     0.0    -0.2     0.0    -0.1
    -0.1     0.1     0.1     0.1    -0.1    -0.1     0.2    -0.1    -0.1     0.1
    -0.0    -0.1     0.0    -0.1     0.0     0.1    -0.0    -0.1    -0.2    -0.1
    -0.0    -0.1    -0.1     0.0     0.0    -0.1    -0.1    -0.1     0.0     0.0
    -0.1    -0.2    -0.2    -0.1    -0.0     0.1    -0.0    -0.2    -0.1    -0.1
    -0.2    -0.1    -0.0    -0.1    -0.1    -0.2    -0.1     0.1     0.0    -0.0
     0.0    -0.1    -0.1    -0.1    -0.0     0.1     0.0    -0.1    -0.0     0.1
    -0.0     0.0     0.1     0.0     0.1     0.1     0.1     0.2     0.0    -0.1
    -0.1     0.0    -0.0    -0.0     0.1     0.1     0.1     0.1     0.0     0.1
     0.0    -0.1    -0.1    -0.2    -0.1     0.0     0.1     0.1     0.2     0.0
    -0.1     0.1     0.1     0.0    -0.0    -0.1    -0.0    -0.0    -0.0     0.0
     0.0    -0.0     0.0    -0.0    -0.0     0.1     0.2     0.1    -0.0     0.0
     0.1     0.2     0.1    -0.1    -0.1    -0.1     0.2     0.1    -0.0     0.0
     0.1     0.2     0.0     0.0     0.0     0.1     0.1    -0.0     0.1     0.1
    -0.0    -0.0    -0.0     0.0     0.1    -0.0    -0.0     0.0    -0.1    -0.1
     0.1     0.1     0.2     0.1    -0.1    -0.1     0.1     0.1     0.0    -0.1
    -0.1     0.1    -0.0    -0.1    -0.1    -0.1    -0.1    -0.1    -0.0    -0.1
    -0.0    -0.1    -0.1     0.0    -0.1    -0.1    -0.1    -0.1    -0.0     0.1
     0.1    -0.0    -0.1    -0.1    -0.1     0.0    -0.1    -0.2     0.0     0.0
    -0.0     0.1     0.1    -0.1    -0.2    -0.0     0.0    -0.1     0.0     0.0
     0.1     0.1    -0.0     0.1     0.2    -0.1    -0.2    -0.1    -0.1    -0.0
    -0.1    -0.0     0.1    -0.1    -0.1    -0.0    -0.1    -0.1    -0.2    -0.2
    -0.0    -0.1    -0.1     0.0     0.0    -0.1    -0.1    -0.1    -0.1    -0.0
    -0.1    -0.0     0.0    -0.1     0.0     0.1    -0.1    -0.0     0.0     0.0
     0.1    -0.0     0.1     0.3     0.1     0.1    -0.0    -0.1     0.0    -0.1
    -0.1    -0.0    -0.1     0.0     0.1     0.1    -0.0    -0.1    -0.2    -0.2
     0.0    -0.1    -0.1     0.0    -0.1    -0.1    -0.0    -0.1    -0.1    -0.1
    -0.1    -0.0    -0.0    -0.1    -0.1    -0.0     0.1     0.1     0.0     0.1
     0.1    -0.1    -0.2    -0.0     0.0     0.2     0.0    -0.1     0.1     0.1
     0.0     0.1     0.1     0.0    -0.0     0.0    -0.0    -0.1    -0.0    -0.1
    -0.1    -0.0    -0.1    -0.1     0.0    -0.0    -0.0    -0.0    -0.1    -0.1
    -0.1     0.1     0.1    -0.1     0.0     0.1     0.1     0.1    -0.1    -0.1
     0.0     0.0     0.0    -0.0    -0.0     0.2     0.2     0.1     0.1     0.0
     0.1     0.0     0.0    -0.0    -0.1     0.1    -0.1     0.1     0.3    -0.1
    -0.1     0.1     0.0     0.1     0.1     0.0    -0.0     0.1     0.1    -0.0
    -0.0     0.0     0.0    -0.1    -0.0     0.1     0.0     0.2     0.2     0.1
     0.2     0.1    -0.0    -0.0    -0.0     0.1     0.1     0.1     0.1     0.1
     0.0     0.1     0.0    -0.0     0.0    -0.0    -0.2    -0.1     0.1     0.1
     0.1     0.1    -0.1    -0.1    -0.0    -0.1    -0.0     0.1     0.0    -0.0
    -0.1     0.0     0.1    -0.1    -0.1    -0.2    -0.2     0.0     0.0     0.1
     0.1    -0.1    -0.1     0.1    -0.1     0.0     0.1     0.0     0.0    -0.2
    -0.0     0.1     0.1     0.0    -0.1     0.2     0.1    -0.0     0.1     0.0
     0.0     0.1    -0.0    -0.0    -0.2    -0.1     0.1    -0.1     0.0     0.1
    -0.0     0.1     0.0     0.1     0.1    -0.1    -0.0    -0.1    -0.1     0.1
     0.0     0.0     0.1     0.1    -0.0    -0.1    -0.0    -0.1    -0.1     0.0
    -0.1     0.1     0.2     0.0    -0.1    -0.1    -0.1    -0.2    -0.3    -0.2
    -0.1     0.0     0.1     0.1     0.1     0.1     0.0    -0.0    -0.1    -0.1
    -0.0     0.0     0.1     0.1    -0.0     0.0     0.1     0.0    -0.1    -0.2
    -0.1    -0.1    -0.1    -0.0     0.0     0.1     0.0    -0.0    -0.0    -0.0
     0.0     0.1     0.1     0.1     0.1     0.1     0.0     0.2    -0.0    -0.1
    -0.0    -0.2    -0.1     0.2     0.1    -0.0     0.1     0.0    -0.0    -0.1
    -0.0     0.2     0.0    -0.1     0.1     0.1     0.1     0.1    -0.1    -0.0
     0.1    -0.0    -0.1    -0.0     0.1    -0.0    -0.0     0.1     0.0    -0.1
    -0.2    -0.2    -0.2     0.0     0.1     0.0     0.1     0.1    -0.1    -0.1
    -0.1     0.0     0.1     0.0    -0.2    -0.2     0.1     0.2     0.1     0.0
    -0.1    -0.0     0.1    -0.0    -0.1     0.1     0.1     0.1     0.1    -0.0
     0.0    -0.0    -0.1    -0.1    -0.1    -0.1    -0.0     0.2     0.1     0.0
    -0.1     0.0     0.1    -0.2     0.1     0.1    -0.2     0.1     0.0    -0.1
    -0.0     0.0     0.2     0.0    -0.1    -0.0     0.1     0.2     0.1     0.1
     0.0    -0.1    -0.0    -0.0    -0.1    -0.0     0.1     0.1     0.2     0.2
    -0.0    -0.0    -0.0    -0.1    -0.1     0.1     0.0     0.0     0.1    -0.2
    -0.0     0.2    -0.1    -0.1    -0.0    -0.1    -0.1    -0.1     0.0     0.0
