Uncorrected accelerogram 20161113_110256_PHHS_20 GNS Science
Site PHHS      41 15 08S  174 54 15E     Basalt file:  20161113_110331_PHHS
Point Howard
Instrument Basalt_1277
Resolution: 24-bit   Instr Period: 0.0050 s   Damping: 0.700
Accelerogram 20161113_110256_PHHS_20                 Processed 2016 December 09
5 km south-west of Waiau
2016 November 13         11:02:56 UT
Epicentre  42 41 33S 173 01 19E  Bearing S44W  Dist  224km  Depth   15km Mw 7.82
Number of points  52800    Duration 264.00 s
Raw readings in units of 1.00 mm/s/s  at intervals of 0.005 s
Data is unfiltered
Component S50E
Acceleration:  Peak   1060.2 mm/s/s at 108.03 s     RMS    67.34 mm/s/s
Velocity record unevaluated
Displacement record unevaluated
    2016      11      13      11       2     560       0       0    2016      11
      42      41      33     173       1      19      15       0      13      11
      41      15       8     174      54      15     130     130     224     224
   52800       0       0   52800       0       0       0       0       2   51000
   200.0    0.70    0.00   0.000  0.0000   0.000   0.000   1.000     0.0    0.00
  41.252 174.904  42.693 173.022    7.82    0.00    0.00    0.00      0.      0.
  264.00    0.00    0.00  264.00  0.0050  0.0050      0.      0.      0.  9806.6
  1060.2  108.03    67.3      0.      0.     0.0    0.00     0.0     0.0   0.000
    0.00    0.00    0.00    0.00   0.000    0.00    0.00    0.00    0.00   0.000
   0.000   0.000   0.000      0.      0.   0.000   0.000   0.000      0.      0.
     0.0     0.0    -0.0    -0.0     0.0     0.0     0.0    -0.0    -0.0     0.0
     0.0    -0.0     0.0     0.0    -0.0    -0.0     0.0    -0.0     0.0     0.0
    -0.0     0.0     0.0    -0.0    -0.0     0.0     0.0    -0.0     0.0     0.0
    -0.0    -0.0     0.0     0.0     0.0    -0.0    -0.0     0.0     0.0    -0.0
    -0.0     0.0    -0.0     0.0     0.0    -0.0     0.0     0.0    -0.0    -0.0
     0.0     0.0    -0.0     0.0    -0.0    -0.0    -0.0     0.0     0.0    -0.1
     0.0     0.0    -0.0    -0.0    -0.0     0.0     0.0    -0.0    -0.0    -0.0
     0.0    -0.0    -0.0     0.0    -0.0    -0.0    -0.0    -0.0     0.0     0.0
    -0.0    -0.0    -0.0     0.0    -0.0     0.0     0.0    -0.0     0.0    -0.0
    -0.0     0.0     0.0    -0.0     0.0     0.0    -0.0    -0.0     0.0    -0.0
    -0.0     0.0     0.0    -0.0    -0.0    -0.0     0.0     0.0     0.0    -0.0
    -0.0     0.1    -0.0    -0.0     0.0    -0.0     0.0    -0.0    -0.0     0.0
    -0.0    -0.0    -0.0     0.0    -0.0    -0.0     0.0    -0.0    -0.0     0.0
    -0.0    -0.0     0.0    -0.0     0.0     0.0    -0.0     0.0    -0.0     0.0
     0.0    -0.0     0.0    -0.0     0.0    -0.0    -0.0     0.0     0.0    -0.0
    -0.0     0.0     0.0    -0.0    -0.0    -0.0    -0.0     0.0     0.0    -0.0
     0.0     0.0    -0.0     0.0     0.0    -0.0    -0.0     0.0     0.0    -0.0
    -0.0     0.0    -0.0    -0.0    -0.0     0.0     0.0    -0.0     0.0     0.0
     0.0    -0.0    -0.0     0.0    -0.0     0.0     0.0    -0.0     0.0     0.0
     0.0    -0.0     0.0     0.1    -0.0    -0.0     0.0    -0.0     0.0    -0.0
     0.0     0.0    -0.0     0.0     0.0    -0.0     0.0     0.0     0.0     0.0
    -0.0     0.0     0.0     0.0    -0.0     0.0     0.0     0.0    -0.0    -0.0
     0.0     0.0    -0.0    -0.0     0.0     0.0    -0.0     0.0    -0.0     0.0
     0.0    -0.0     0.0     0.0     0.0    -0.0    -0.0     0.0    -0.0     0.0
    -0.0     0.0     0.0    -0.0     0.0     0.0    -0.0    -0.0     0.0     0.0
     0.0    -0.0    -0.0     0.0    -0.0    -0.0     0.0     0.0     0.0    -0.0
     0.0     0.0    -0.0    -0.0    -0.0    -0.0     0.0     0.0    -0.0     0.0
     0.0    -0.0     0.0     0.0    -0.0    -0.0     0.0     0.0    -0.0     0.0
    -0.0     0.0     0.0    -0.0     0.0     0.0     0.0    -0.0    -0.0     0.0
     0.0     0.0    -0.0    -0.0     0.1    -0.0    -0.0    -0.0     0.0     0.0
    -0.0     0.0    -0.0    -0.0     0.0     0.0     0.0     0.0     0.0    -0.0
     0.0     0.0    -0.0     0.0    -0.0    -0.0     0.0     0.0     0.0    -0.0
     0.0     0.0     0.0     0.0    -0.0     0.0     0.0    -0.0    -0.0    -0.0
     0.0     0.0    -0.0     0.0     0.0     0.0     0.0    -0.0     0.0    -0.0
     0.0    -0.0    -0.0     0.0     0.0     0.0     0.0     0.0    -0.0     0.0
     0.0    -0.0     0.0    -0.0     0.0     0.0    -0.0    -0.0     0.0     0.0
    -0.0    -0.0     0.0     0.0     0.0    -0.0     0.0     0.0     0.0    -0.0
    -0.0     0.0    -0.0     0.0    -0.0    -0.0     0.0    -0.0    -0.0     0.0
    -0.0     0.0     0.0    -0.0     0.0     0.0     0.0     0.0    -0.0     0.0
    -0.0     0.0     0.0    -0.0     0.0     0.0     0.0    -0.0    -0.0     0.0
     0.0     0.0    -0.0     0.0     0.0     0.0    -0.0     0.0     0.0     0.0
    -0.0     0.0     0.0     0.0    -0.0    -0.0     0.0     0.0    -0.0    -0.0
    -0.0     0.0    -0.0     0.0     0.0    -0.0    -0.0     0.0     0.0     0.0
    -0.0    -0.0     0.0    -0.0    -0.0     0.0     0.0    -0.0     0.0    -0.0
    -0.0     0.0    -0.0    -0.0     0.0     0.0    -0.0    -0.0     0.0     0.0
     0.0     0.0    -0.0     0.0    -0.0     0.0    -0.0     0.0     0.1    -0.0
     0.0     0.0     0.0     0.0    -0.0     0.0    -0.0    -0.0     0.0    -0.0
    -0.0     0.0     0.0     0.0     0.0    -0.0     0.0     0.1    -0.0    -0.0
     0.0     0.0     0.0    -0.0    -0.0     0.0     0.0    -0.0    -0.0     0.0
     0.0     0.0    -0.0     0.0     0.0    -0.0     0.0    -0.0     0.0     0.0
     0.0     0.1    -0.0    -0.0     0.0    -0.0     0.0    -0.0     0.0     0.0
    -0.0    -0.0     0.0     0.0     0.0    -0.0    -0.0     0.0     0.0     0.0
    -0.0     0.0     0.0    -0.0     0.0    -0.0     0.0     0.0    -0.0     0.0
     0.0    -0.0     0.0    -0.0    -0.0     0.0     0.0    -0.0     0.0    -0.0
    -0.0     0.0     0.0     0.0     0.0    -0.0     0.1    -0.0    -0.0     0.0
     0.0     0.0     0.0    -0.0     0.0     0.0    -0.0    -0.0     0.0     0.0
    -0.0     0.0     0.0     0.0    -0.0    -0.0     0.0     0.0    -0.0    -0.0
     0.0     0.0    -0.0    -0.0    -0.0     0.0     0.0     0.0    -0.0    -0.0
     0.0    -0.0     0.0     0.0    -0.0     0.0     0.0    -0.0    -0.0    -0.0
     0.0    -0.0    -0.0    -0.0     0.0     0.0    -0.0    -0.0     0.0     0.0
     0.0    -0.0     0.0    -0.0     0.0     0.0    -0.0     0.0     0.0    -0.0
     0.0     0.0    -0.0    -0.0     0.0     0.0    -0.0     0.0    -0.0     0.0
     0.0     0.0     0.0    -0.0     0.0    -0.0    -0.0     0.0    -0.0     0.0
     0.0     0.0     0.0     0.0    -0.0    -0.0     0.1    -0.0    -0.0    -0.0
    -0.0     0.0    -0.0     0.0    -0.0    -0.0     0.0    -0.1     0.0     0.0
    -0.0     0.0     0.0    -0.0    -0.0    -0.0    -0.0     0.0    -0.0    -0.0
     0.0    -0.0    -0.0     0.0    -0.0     0.0    -0.0    -0.0     0.0    -0.0
    -0.0    -0.0     0.0     0.0    -0.0     0.0    -0.0     0.0     0.0    -0.0
    -0.0     0.0     0.0    -0.0     0.0     0.0     0.0     0.0    -0.0     0.0
     0.0    -0.0     0.0     0.0    -0.0    -0.0     0.0     0.0    -0.0    -0.0
     0.0     0.0    -0.0    -0.0     0.0     0.0    -0.0    -0.0     0.0     0.0
     0.0    -0.0     0.0     0.0    -0.0     0.0    -0.0     0.0     0.0    -0.0
     0.0    -0.0     0.0    -0.0    -0.0     0.0     0.0    -0.0     0.0    -0.0
    -0.0     0.0    -0.0     0.0     0.0    -0.1     0.0     0.0    -0.0    -0.0
     0.0     0.0    -0.0     0.0    -0.0     0.0     0.0    -0.0     0.0    -0.0
     0.0     0.0    -0.0    -0.0     0.0     0.0    -0.0     0.0     0.0     0.0
     0.0    -0.0     0.0    -0.0     0.0    -0.0     0.0     0.0    -0.0     0.0
     0.0    -0.0    -0.0    -0.0     0.0     0.0    -0.0     0.0     0.0     0.0
    -0.0     0.0     0.0     0.0     0.0    -0.0    -0.0     0.1    -0.0    -0.0
     0.0    -0.1     0.0     0.0    -0.0     0.0     0.0     0.0     0.0     0.0
    -0.0    -0.0     0.0     0.0    -0.0    -0.0     0.0    -0.0    -0.0     0.0
     0.0     0.0     0.0    -0.0     0.0     0.0    -0.0     0.0    -0.0     0.0
     0.0    -0.0     0.0     0.0     0.0    -0.0     0.0     0.0    -0.0     0.0
     0.0    -0.0     0.0    -0.0     0.0     0.0    -0.0    -0.0     0.0     0.0
     0.0    -0.0    -0.0     0.0     0.0     0.0    -0.0     0.0     0.0    -0.0
     0.0     0.0     0.0    -0.0     0.0     0.0     0.0     0.0    -0.0     0.0
     0.0    -0.0     0.0    -0.0    -0.0     0.0    -0.0     0.0     0.0    -0.0
    -0.0    -0.0    -0.0     0.0    -0.0     0.0     0.0     0.0    -0.0     0.0
     0.0    -0.0    -0.0     0.0     0.0     0.0    -0.0    -0.0     0.1    -0.0
     0.0     0.0    -0.0     0.0    -0.0    -0.0     0.0     0.0    -0.0    -0.0
     0.0     0.0    -0.0     0.0     0.0     0.0     0.0     0.0     0.0     0.0
    -0.0     0.0    -0.0    -0.0     0.0    -0.0     0.0     0.0    -0.0    -0.0
     0.0    -0.0     0.0    -0.0     0.0     0.0    -0.0    -0.0     0.0     0.0
     0.0    -0.0     0.0     0.0    -0.0    -0.0     0.0     0.0     0.0    -0.0
    -0.0     0.0    -0.0     0.0     0.0     0.0     0.0    -0.0     0.0    -0.0
    -0.0     0.0    -0.0     0.0    -0.0     0.0     0.0     0.0    -0.0    -0.0
     0.0    -0.0     0.0    -0.0    -0.0     0.0     0.0     0.0    -0.0     0.0
     0.0     0.0    -0.0    -0.0     0.0    -0.0     0.0     0.0    -0.0     0.0
    -0.0     0.0    -0.0    -0.0     0.0    -0.0     0.0    -0.0    -0.0     0.0
     0.0    -0.0    -0.0    -0.0    -0.0     0.0    -0.0     0.0     0.0    -0.0
    -0.0     0.0     0.0     0.0    -0.0    -0.0     0.0     0.0    -0.0     0.0
    -0.0     0.0    -0.0     0.0     0.0    -0.0     0.0    -0.0    -0.0     0.0
    -0.0     0.0     0.0    -0.0     0.0    -0.0     0.0     0.0    -0.0    -0.0
     0.0     0.0    -0.0    -0.0     0.0     0.0     0.0    -0.0    -0.0     0.0
    -0.0    -0.0     0.0    -0.0     0.0    -0.0    -0.0     0.0    -0.0    -0.0
     0.0     0.0    -0.0    -0.0     0.0     0.0    -0.0     0.0    -0.0    -0.0
     0.0    -0.0     0.0     0.0    -0.0    -0.0     0.0    -0.0     0.0    -0.0
    -0.0     0.1    -0.0    -0.0     0.0    -0.0     0.1    -0.0     0.0     0.0
    -0.0     0.0    -0.0     0.0     0.0    -0.0    -0.0    -0.0     0.0    -0.0
    -0.0    -0.0     0.0     0.0    -0.0     0.0    -0.0    -0.0    -0.0     0.0
     0.0    -0.0     0.0     0.0     0.0    -0.0    -0.0     0.1    -0.0    -0.0
     0.0     0.0     0.0    -0.0     0.0     0.0     0.0     0.0    -0.0     0.0
     0.0     0.0     0.0    -0.0    -0.0     0.0     0.0    -0.0     0.0    -0.0
     0.0     0.0    -0.0     0.0     0.0    -0.0     0.0    -0.0     0.0    -0.0
     0.0     0.0    -0.0     0.0     0.0     0.0    -0.1     0.0     0.0    -0.0
     0.0    -0.0     0.0     0.1    -0.0    -0.0    -0.0     0.0     0.0    -0.0
    -0.0     0.1    -0.0    -0.0     0.0    -0.0     0.0    -0.0     0.0     0.0
     0.0    -0.0    -0.0     0.0    -0.0    -0.0     0.0     0.0     0.0    -0.0
     0.0     0.0     0.0    -0.0    -0.0     0.0    -0.0    -0.0    -0.0     0.0
     0.1    -0.0     0.0    -0.0     0.0     0.0    -0.0     0.0    -0.0     0.0
     0.0     0.0     0.1    -0.0     0.0     0.0    -0.0     0.0     0.0     0.0
    -0.0     0.0    -0.0     0.0     0.0    -0.0     0.0     0.0     0.0    -0.0
    -0.0     0.0     0.0    -0.0    -0.0     0.0     0.0    -0.0     0.0    -0.0
     0.0     0.0    -0.0     0.0    -0.0     0.0    -0.0    -0.0     0.0    -0.0
     0.0     0.0     0.0     0.0    -0.0     0.0     0.0    -0.0    -0.0     0.0
     0.0     0.0    -0.0    -0.0     0.0     0.0    -0.0    -0.0     0.1     0.0
    -0.0     0.0    -0.0     0.0     0.0    -0.0     0.0     0.0     0.0     0.0
    -0.0     0.0     0.0    -0.0     0.0     0.0    -0.0    -0.0     0.0    -0.0
     0.0    -0.0     0.0     0.0    -0.0     0.0     0.0     0.0     0.0    -0.0
     0.0     0.0    -0.0     0.0     0.0     0.0     0.0    -0.1     0.0     0.0
    -0.0    -0.0    -0.0     0.0     0.0    -0.0    -0.0     0.0    -0.0     0.0
    -0.0    -0.0     0.0    -0.0    -0.0     0.0     0.0    -0.0    -0.0     0.0
     0.0    -0.0    -0.0     0.0    -0.0     0.0    -0.0    -0.0     0.0    -0.0
     0.0    -0.0     0.0     0.0    -0.0     0.0     0.0    -0.0    -0.0    -0.0
     0.0    -0.0    -0.0     0.0    -0.0    -0.0     0.0    -0.0     0.0     0.0
    -0.1     0.0     0.0    -0.0     0.0     0.0    -0.0     0.0     0.0    -0.0
     0.0     0.0    -0.0    -0.0    -0.0    -0.0     0.0    -0.0     0.0     0.0
    -0.0    -0.0     0.0    -0.0     0.0     0.0    -0.0     0.0    -0.0    -0.0
     0.0     0.0    -0.0     0.0    -0.0     0.0     0.0    -0.0     0.0     0.0
    -0.0     0.0    -0.0     0.0    -0.0    -0.0    -0.0     0.0     0.0    -0.0
     0.0     0.0    -0.0    -0.0     0.0     0.0    -0.1     0.0     0.0    -0.0
     0.0    -0.0     0.0     0.0    -0.0    -0.0    -0.0     0.0     0.0    -0.0
     0.0     0.0     0.0    -0.0    -0.0     0.0     0.0    -0.0    -0.0     0.0
    -0.0    -0.0     0.0     0.0     0.0     0.0    -0.0    -0.0     0.0    -0.0
    -0.0     0.0    -0.0     0.0    -0.0     0.0     0.0    -0.0     0.0     0.0
    -0.0     0.0     0.0    -0.0     0.0    -0.0    -0.0     0.0     0.0     0.0
     0.0     0.0     0.0     0.0    -0.0    -0.0     0.0    -0.0    -0.0     0.0
     0.0     0.0    -0.0     0.0     0.0     0.0     0.0    -0.0     0.0    -0.0
     0.0    -0.0     0.0     0.0    -0.0     0.0     0.0     0.0    -0.0    -0.0
     0.0    -0.0    -0.0     0.0     0.0     0.0     0.0    -0.0     0.0     0.0
    -0.0    -0.0     0.0     0.0     0.0     0.0    -0.0     0.0     0.0    -0.0
     0.0     0.0     0.0     0.0     0.0     0.0    -0.0     0.0     0.0     0.0
     0.0    -0.0     0.0     0.0    -0.0    -0.0     0.0     0.0    -0.0    -0.0
     0.0     0.0    -0.0     0.0    -0.0     0.0     0.0    -0.0     0.0     0.0
    -0.0     0.0     0.0    -0.0     0.0     0.0    -0.0    -0.0     0.0     0.0
     0.0    -0.0     0.0     0.0    -0.0     0.0     0.0    -0.0     0.0     0.0
     0.0    -0.0    -0.0     0.0     0.0    -0.0     0.0     0.0    -0.0     0.0
     0.0    -0.0     0.0     0.0    -0.0     0.0     0.0    -0.0    -0.0    -0.0
     0.0     0.0    -0.0     0.0    -0.0     0.0     0.0    -0.0    -0.0     0.0
     0.0    -0.0     0.0     0.0    -0.0    -0.0     0.0    -0.0    -0.0     0.0
     0.0     0.0    -0.0    -0.0     0.1    -0.0    -0.0    -0.0    -0.0     0.0
    -0.1    -0.0     0.0     0.0     0.0    -0.0     0.0     0.0    -0.0    -0.0
    -0.0     0.0    -0.0    -0.0     0.0    -0.0     0.1    -0.0    -0.0     0.0
    -0.0     0.0    -0.0     0.0     0.0    -0.0     0.0    -0.0    -0.0     0.0
    -0.0     0.0    -0.0    -0.0     0.1    -0.0    -0.0    -0.0    -0.0     0.0
     0.0     0.0    -0.0    -0.0     0.0     0.0    -0.0    -0.0     0.0    -0.0
    -0.0    -0.0     0.0     0.0    -0.0     0.0    -0.0    -0.0     0.0    -0.0
     0.0    -0.1     0.0     0.0     0.0     0.0    -0.0     0.0     0.0    -0.0
     0.0    -0.0     0.0    -0.0    -0.0    -0.0     0.0     0.0    -0.1    -0.0
     0.0    -0.0     0.0    -0.0     0.0     0.0    -0.0     0.0    -0.0     0.0
     0.0    -0.0     0.0    -0.0     0.0     0.0    -0.0     0.0    -0.0    -0.0
    -0.0    -0.0     0.0    -0.0     0.0    -0.0    -0.0     0.0    -0.0     0.0
     0.0    -0.0     0.0    -0.0     0.0    -0.0     0.0     0.0     0.0    -0.0
    -0.0     0.0     0.0    -0.0    -0.0     0.0     0.0     0.0     0.0    -0.0
     0.0     0.0    -0.0     0.0    -0.0    -0.0     0.0     0.0    -0.0    -0.0
     0.0    -0.0     0.0    -0.0     0.0     0.0    -0.0     0.0    -0.0     0.0
     0.0    -0.0     0.0    -0.0    -0.0     0.0     0.0    -0.0     0.0     0.0
    -0.0     0.0     0.0    -0.0     0.0     0.0    -0.0     0.0     0.0     0.0
    -0.0    -0.0     0.0    -0.0     0.0     0.0     0.0     0.0     0.0    -0.0
    -0.0     0.0    -0.0     0.0    -0.0     0.0     0.0    -0.0    -0.0    -0.0
     0.0     0.0     0.0     0.0     0.0     0.0    -0.0     0.0     0.0    -0.0
     0.0    -0.0     0.0     0.0    -0.0    -0.0     0.0    -0.0    -0.0     0.0
    -0.0     0.0    -0.0    -0.0     0.0    -0.0    -0.0    -0.0     0.0     0.0
    -0.0     0.0    -0.0     0.0     0.0    -0.0     0.0     0.0    -0.0    -0.0
     0.0     0.0    -0.0    -0.0     0.0    -0.0    -0.0     0.0    -0.0     0.0
     0.0    -0.0     0.0     0.0    -0.0    -0.0     0.0     0.0    -0.0    -0.0
     0.0     0.0     0.0    -0.0    -0.0     0.0     0.0    -0.0     0.0     0.0
     0.0    -0.0    -0.0     0.0    -0.0    -0.0     0.0    -0.0     0.0     0.0
    -0.0     0.0    -0.0     0.0     0.0     0.0     0.0     0.0    -0.0     0.0
     0.0    -0.0    -0.0     0.0     0.0    -0.0     0.0     0.0     0.0     0.0
    -0.0     0.0    -0.0    -0.0     0.0    -0.0     0.0    -0.0    -0.0     0.0
     0.0     0.0    -0.0     0.0     0.0     0.0    -0.0    -0.0     0.0     0.0
    -0.0     0.0    -0.0    -0.0    -0.0     0.0     0.0     0.0     0.0     0.0
     0.0     0.0    -0.0     0.0     0.0    -0.0    -0.0    -0.0    -0.0     0.0
    -0.0     0.0     0.0    -0.0     0.0    -0.0     0.0     0.0    -0.0    -0.0
    -0.0     0.0    -0.0    -0.0     0.0     0.0    -0.0    -0.0    -0.0     0.0
     0.0    -0.0    -0.0     0.0    -0.0     0.0     0.0     0.0     0.0    -0.0
     0.0     0.0    -0.0     0.0     0.0    -0.0     0.0    -0.0    -0.0     0.0
     0.0    -0.0     0.0     0.0     0.0    -0.0    -0.0     0.1    -0.0     0.0
    -0.0    -0.0     0.0    -0.0     0.0    -0.0     0.0    -0.0     0.0     0.0
    -0.0     0.0    -0.0     0.0     0.0    -0.0     0.0     0.0    -0.0    -0.0
    -0.0     0.0    -0.0    -0.0     0.0    -0.0     0.0     0.0    -0.0     0.0
     0.0     0.0    -0.0    -0.0     0.0     0.0    -0.0    -0.0     0.0     0.0
    -0.0     0.0    -0.0     0.0     0.0    -0.0     0.0    -0.0    -0.0     0.0
    -0.0    -0.0     0.0     0.0     0.0    -0.0     0.0    -0.0     0.0     0.0
    -0.0     0.0     0.0     0.0    -0.0    -0.0     0.0     0.0    -0.0     0.0
    -0.0     0.0     0.0    -0.0     0.0     0.0    -0.0     0.0     0.0    -0.0
     0.0     0.0    -0.0    -0.0     0.0    -0.0    -0.0     0.0    -0.0     0.0
     0.0    -0.0    -0.0    -0.0     0.0     0.0     0.0    -0.0    -0.0     0.0
    -0.0     0.0     0.0     0.0     0.0    -0.0     0.0     0.0     0.0     0.0
    -0.0    -0.0     0.0    -0.0    -0.0     0.0     0.0     0.0     0.0    -0.0
     0.0     0.0     0.0     0.0     0.0    -0.0     0.0     0.0     0.0    -0.0
    -0.0     0.0     0.0    -0.0    -0.0     0.0     0.1    -0.0     0.0     0.0
     0.0     0.0    -0.0    -0.0     0.0     0.0    -0.0    -0.0     0.0     0.0
    -0.0    -0.0     0.0    -0.0     0.0     0.0    -0.0     0.0    -0.0     0.0
     0.0    -0.0     0.0    -0.0     0.0    -0.0    -0.0     0.0    -0.0     0.0
    -0.0     0.0     0.0    -0.0    -0.0    -0.0     0.0     0.0    -0.0     0.0
    -0.0     0.0    -0.0    -0.0     0.0     0.0     0.0    -0.0    -0.0     0.0
     0.0     0.0    -0.0    -0.0     0.0     0.0     0.0    -0.0    -0.0     0.0
    -0.0     0.0    -0.0    -0.0     0.0     0.0    -0.0    -0.0     0.0     0.0
    -0.0    -0.0    -0.0     0.0     0.0    -0.0     0.0     0.0     0.0    -0.0
     0.0    -0.0     0.0     0.0    -0.0     0.0    -0.0     0.0    -0.0    -0.0
     0.0    -0.0     0.0    -0.0     0.0    -0.0    -0.0     0.0    -0.0     0.0
     0.0    -0.0     0.0    -0.0     0.0     0.0     0.0    -0.0    -0.0    -0.0
     0.0     0.0    -0.0    -0.0     0.0     0.0    -0.0    -0.0     0.0     0.0
    -0.0    -0.0    -0.0     0.0    -0.0    -0.0     0.0    -0.0     0.0     0.0
    -0.0    -0.0     0.0    -0.0     0.0     0.0    -0.0     0.0     0.0    -0.0
